{
"type": "FeatureCollection",
"name": "cod_prov_19",
"crs": { "type": "name", "properties": { "name": "urn:ogc:def:crs:OGC:1.3:CRS84" } },
"xy_coordinate_resolution": 1e-15,
"features": [
{"type":"Feature","properties":{"fid":32,"cod_ccaa":"08","provincia":"Guadalajara","cod_prov":"19"},"geometry":{"type":"MultiPolygon","coordinates":[[[[-3.183169,40.243399],[-3.195381,40.24762],[-3.19445,40.248037],[-3.195113,40.255249],[-3.197305,40.25767],[-3.189408,40.2632],[-3.183738,40.269865],[-3.186538,40.275334],[-3.186611,40.27896],[-3.180764,40.29134],[-3.181828,40.297606],[-3.18034,40.301933],[-3.182069,40.304556],[-3.182896,40.308082],[-3.180554,40.313454],[-3.167579,40.323455],[-3.162111,40.326134],[-3.162318,40.327394],[-3.152905,40.331584],[-3.151327,40.33817],[-3.155607,40.342463],[-3.152821,40.343299],[-3.150385,40.346185],[-3.14859,40.346011],[-3.149329,40.346704],[-3.147195,40.347196],[-3.146533,40.34987],[-3.141212,40.350542],[-3.141176,40.351643],[-3.143868,40.352986],[-3.143566,40.357852],[-3.149139,40.360289],[-3.150576,40.364862],[-3.15343,40.367703],[-3.149482,40.371694],[-3.150126,40.373422],[-3.138287,40.375542],[-3.140744,40.377779],[-3.141594,40.383088],[-3.143269,40.383779],[-3.143344,40.387534],[-3.135402,40.390105],[-3.134097,40.399749],[-3.130597,40.40512],[-3.142074,40.412457],[-3.147366,40.419587],[-3.147825,40.423577],[-3.15101,40.426437],[-3.150945,40.430959],[-3.155577,40.439425],[-3.169041,40.438788],[-3.172641,40.436262],[-3.177303,40.439194],[-3.198597,40.442252],[-3.200462,40.446336],[-3.198711,40.460174],[-3.200163,40.465576],[-3.195395,40.478408],[-3.197212,40.48553],[-3.202127,40.495374],[-3.201229,40.498752],[-3.198966,40.503902],[-3.200494,40.514966],[-3.207381,40.519574],[-3.222937,40.526087],[-3.226842,40.532135],[-3.227364,40.536321],[-3.231782,40.539391],[-3.232786,40.538006],[-3.229994,40.532401],[-3.231061,40.531832],[-3.241996,40.536326],[-3.246854,40.542076],[-3.249962,40.5444],[-3.251722,40.541983],[-3.256097,40.541873],[-3.258898,40.539998],[-3.26661,40.5381],[-3.270945,40.535496],[-3.274843,40.534811],[-3.274931,40.533542],[-3.278237,40.533489],[-3.280811,40.534985],[-3.281559,40.533721],[-3.284567,40.535689],[-3.289853,40.531748],[-3.297128,40.537521],[-3.29094,40.543916],[-3.285142,40.547624],[-3.283103,40.550964],[-3.286397,40.554151],[-3.284829,40.555717],[-3.288357,40.558607],[-3.283134,40.563619],[-3.287117,40.565158],[-3.284071,40.568976],[-3.28671,40.572569],[-3.28956,40.572158],[-3.29635,40.575207],[-3.297703,40.574398],[-3.302688,40.578288],[-3.308341,40.579124],[-3.316086,40.584073],[-3.321165,40.589682],[-3.328277,40.594836],[-3.330343,40.597369],[-3.327753,40.598928],[-3.330719,40.60092],[-3.329556,40.602619],[-3.331419,40.603944],[-3.325251,40.610057],[-3.325612,40.610935],[-3.321642,40.612164],[-3.328209,40.620213],[-3.335987,40.6234],[-3.335772,40.62466],[-3.337578,40.625441],[-3.331861,40.625916],[-3.323678,40.629686],[-3.324528,40.633803],[-3.322677,40.640633],[-3.320752,40.644145],[-3.313859,40.649743],[-3.316499,40.655176],[-3.316781,40.652709],[-3.32377,40.645043],[-3.322385,40.643814],[-3.325594,40.642567],[-3.327173,40.640587],[-3.329284,40.640846],[-3.332297,40.63946],[-3.337447,40.640981],[-3.337054,40.637744],[-3.338778,40.63767],[-3.338887,40.636308],[-3.346785,40.638068],[-3.345076,40.641687],[-3.355688,40.645353],[-3.362155,40.64583],[-3.36632,40.648031],[-3.365452,40.650735],[-3.362264,40.653729],[-3.367734,40.660678],[-3.36784,40.664851],[-3.372321,40.66911],[-3.371513,40.67241],[-3.372879,40.677632],[-3.374652,40.680112],[-3.383065,40.683321],[-3.385794,40.684143],[-3.393355,40.692458],[-3.400379,40.690662],[-3.40477,40.677698],[-3.404736,40.669636],[-3.409322,40.670809],[-3.409538,40.671861],[-3.415308,40.671797],[-3.419118,40.68032],[-3.425554,40.682377],[-3.426776,40.672375],[-3.435935,40.675328],[-3.441705,40.674207],[-3.442277,40.677976],[-3.447789,40.677473],[-3.449112,40.679366],[-3.448823,40.682587],[-3.456335,40.687934],[-3.468545,40.689937],[-3.46838,40.692962],[-3.46433,40.692305],[-3.462299,40.693004],[-3.463392,40.698209],[-3.460266,40.701861],[-3.461214,40.702084],[-3.456072,40.704158],[-3.454805,40.709137],[-3.446491,40.714362],[-3.442182,40.720028],[-3.437852,40.722405],[-3.433946,40.731716],[-3.43861,40.734979],[-3.441893,40.737578],[-3.448874,40.7331],[-3.451284,40.73825],[-3.450029,40.741046],[-3.446945,40.741432],[-3.444808,40.748128],[-3.444126,40.76106],[-3.446861,40.763751],[-3.447884,40.764101],[-3.446807,40.766447],[-3.450025,40.771652],[-3.457878,40.778493],[-3.45901,40.781324],[-3.467761,40.78431],[-3.48611,40.785011],[-3.497682,40.788794],[-3.498281,40.788881],[-3.502193,40.788348],[-3.504507,40.789175],[-3.502644,40.791155],[-3.503354,40.7955],[-3.502205,40.797634],[-3.499486,40.798867],[-3.494919,40.79665],[-3.491668,40.798735],[-3.491115,40.808384],[-3.482733,40.814577],[-3.482689,40.818868],[-3.476972,40.824511],[-3.476574,40.830227],[-3.479039,40.837956],[-3.47065,40.841682],[-3.469777,40.843065],[-3.476331,40.851284],[-3.475258,40.852163],[-3.470238,40.852063],[-3.465822,40.857039],[-3.471539,40.860653],[-3.47257,40.864217],[-3.458138,40.872089],[-3.452112,40.873493],[-3.44825,40.876431],[-3.440663,40.875217],[-3.44147,40.881517],[-3.444815,40.887245],[-3.439703,40.891301],[-3.442968,40.892693],[-3.445705,40.896198],[-3.448699,40.894694],[-3.45266,40.896498],[-3.453591,40.899263],[-3.456087,40.899263],[-3.458742,40.897532],[-3.461093,40.899678],[-3.457892,40.900751],[-3.460692,40.905819],[-3.458865,40.908311],[-3.450527,40.905351],[-3.444152,40.906723],[-3.445251,40.910051],[-3.451287,40.912865],[-3.448383,40.918717],[-3.448508,40.923058],[-3.437033,40.933497],[-3.435418,40.937562],[-3.436745,40.939759],[-3.43604,40.946128],[-3.432017,40.94946],[-3.428005,40.959883],[-3.42274,40.96584],[-3.421587,40.967283],[-3.41835,40.973384],[-3.416848,40.976953],[-3.418481,40.979527],[-3.416283,40.982518],[-3.418297,40.987563],[-3.400511,40.995739],[-3.394501,41.000253],[-3.397428,41.00674],[-3.399689,41.008361],[-3.407998,41.016341],[-3.412913,41.018711],[-3.422034,41.025993],[-3.431179,41.041669],[-3.438935,41.042669],[-3.438279,41.04678],[-3.43473,41.04946],[-3.435615,41.053711],[-3.431276,41.058339],[-3.431089,41.062404],[-3.426006,41.065662],[-3.427056,41.068989],[-3.425146,41.071656],[-3.426359,41.07185],[-3.425307,41.076115],[-3.426729,41.076374],[-3.427737,41.080812],[-3.425865,41.083424],[-3.429491,41.084446],[-3.430321,41.083605],[-3.435501,41.084022],[-3.439701,41.08107],[-3.444236,41.082435],[-3.445399,41.081076],[-3.44839,41.080636],[-3.448945,41.081803],[-3.455535,41.084107],[-3.456608,41.087091],[-3.474145,41.093218],[-3.474499,41.095143],[-3.483426,41.092944],[-3.488797,41.09433],[-3.488212,41.096508],[-3.490485,41.09728],[-3.490822,41.099651],[-3.489467,41.101621],[-3.489631,41.105514],[-3.492848,41.107031],[-3.494012,41.109875],[-3.493007,41.111307],[-3.495428,41.111876],[-3.494095,41.113546],[-3.495369,41.11599],[-3.499758,41.120074],[-3.501724,41.126734],[-3.505611,41.13032],[-3.509264,41.136395],[-3.515574,41.137536],[-3.516528,41.138803],[-3.526183,41.139149],[-3.5301,41.141627],[-3.533457,41.147142],[-3.5411,41.149667],[-3.537627,41.155333],[-3.536706,41.160576],[-3.539704,41.165011],[-3.52752,41.166212],[-3.51588,41.162445],[-3.513824,41.163238],[-3.50955,41.168599],[-3.507311,41.168753],[-3.500678,41.179096],[-3.493691,41.177513],[-3.486981,41.180992],[-3.481706,41.180347],[-3.474588,41.183719],[-3.473021,41.182923],[-3.470178,41.183872],[-3.466918,41.183263],[-3.468811,41.186237],[-3.466576,41.188796],[-3.460283,41.191037],[-3.453979,41.201952],[-3.448978,41.206719],[-3.444158,41.21534],[-3.433924,41.21564],[-3.425147,41.214222],[-3.419459,41.21645],[-3.414486,41.214792],[-3.409218,41.21182],[-3.40249,41.213618],[-3.404263,41.218765],[-3.402681,41.227391],[-3.406315,41.23417],[-3.403762,41.238187],[-3.400121,41.23992],[-3.397993,41.243252],[-3.400361,41.249945],[-3.399505,41.254542],[-3.405744,41.259592],[-3.410628,41.259944],[-3.414591,41.265578],[-3.415153,41.273196],[-3.412979,41.265493],[-3.409785,41.260623],[-3.409314,41.26166],[-3.406187,41.261797],[-3.399337,41.258164],[-3.394232,41.256983],[-3.37843,41.259495],[-3.372842,41.25918],[-3.369399,41.260416],[-3.355503,41.255955],[-3.345692,41.256003],[-3.336354,41.253031],[-3.330446,41.255543],[-3.329949,41.258787],[-3.323625,41.261742],[-3.317817,41.260533],[-3.312093,41.261665],[-3.306358,41.260573],[-3.302823,41.257726],[-3.297853,41.256955],[-3.290171,41.25793],[-3.287878,41.265934],[-3.283637,41.268062],[-3.279102,41.274009],[-3.275763,41.275035],[-3.273441,41.265051],[-3.274268,41.260265],[-3.272736,41.259314],[-3.269241,41.259971],[-3.263479,41.257732],[-3.254267,41.258383],[-3.237881,41.27937],[-3.237793,41.281469],[-3.239876,41.283014],[-3.240075,41.285049],[-3.237879,41.285495],[-3.238939,41.287943],[-3.226231,41.298111],[-3.215076,41.298412],[-3.212614,41.301524],[-3.207355,41.304236],[-3.203672,41.303179],[-3.198061,41.304162],[-3.192144,41.302668],[-3.188552,41.303917],[-3.178602,41.299807],[-3.170872,41.299017],[-3.164891,41.295359],[-3.148412,41.291995],[-3.141295,41.292184],[-3.130048,41.288152],[-3.12505,41.290887],[-3.121225,41.289468],[-3.108659,41.287886],[-3.100168,41.280075],[-3.097827,41.279933],[-3.094665,41.281899],[-3.09388,41.284007],[-3.089987,41.283416],[-3.083474,41.279701],[-3.073023,41.277744],[-3.061902,41.273427],[-3.060459,41.274643],[-3.060675,41.27649],[-3.053631,41.276872],[-3.036654,41.280797],[-3.018016,41.289115],[-3.011351,41.285414],[-3.005989,41.284396],[-2.997546,41.286783],[-2.989855,41.287368],[-2.988076,41.288773],[-2.976263,41.291348],[-2.967437,41.291913],[-2.966123,41.293228],[-2.953523,41.291944],[-2.950131,41.292637],[-2.944059,41.29748],[-2.940086,41.306008],[-2.94119,41.313936],[-2.93407,41.313427],[-2.92251,41.319257],[-2.910966,41.321213],[-2.906667,41.327632],[-2.897936,41.324805],[-2.888424,41.325238],[-2.882706,41.321755],[-2.875454,41.321378],[-2.868987,41.317056],[-2.866844,41.313072],[-2.869817,41.308301],[-2.873037,41.298505],[-2.865896,41.291786],[-2.864102,41.287352],[-2.863697,41.28128],[-2.866887,41.274465],[-2.85901,41.27287],[-2.855159,41.270505],[-2.844612,41.267213],[-2.836869,41.265311],[-2.826685,41.261017],[-2.821762,41.25837],[-2.822244,41.256614],[-2.819592,41.25734],[-2.81068,41.255731],[-2.803539,41.256512],[-2.794009,41.254334],[-2.782492,41.253763],[-2.77551,41.250083],[-2.776283,41.258066],[-2.76935,41.267411],[-2.760945,41.274024],[-2.73009,41.271668],[-2.716772,41.275671],[-2.716388,41.273265],[-2.713618,41.259702],[-2.709546,41.251981],[-2.695348,41.245594],[-2.68458,41.241286],[-2.67361,41.239373],[-2.670256,41.237192],[-2.654832,41.240651],[-2.646015,41.24021],[-2.645121,41.237919],[-2.6347,41.231933],[-2.636249,41.223812],[-2.629199,41.215215],[-2.623901,41.223737],[-2.616971,41.219435],[-2.589488,41.224538],[-2.588423,41.22312],[-2.58742,41.213757],[-2.593166,41.200914],[-2.603107,41.193986],[-2.620009,41.195367],[-2.622067,41.187988],[-2.61934,41.183286],[-2.602567,41.188661],[-2.58434,41.182192],[-2.577495,41.178663],[-2.582629,41.164359],[-2.587416,41.159512],[-2.593463,41.156939],[-2.596123,41.152679],[-2.594949,41.1499],[-2.581302,41.140807],[-2.575579,41.139471],[-2.567595,41.144918],[-2.555155,41.146681],[-2.542531,41.150667],[-2.539567,41.153601],[-2.539352,41.158663],[-2.536512,41.162525],[-2.525613,41.154896],[-2.516939,41.146446],[-2.517402,41.136954],[-2.511628,41.131498],[-2.508852,41.118856],[-2.503704,41.117474],[-2.487247,41.116916],[-2.484465,41.117813],[-2.482261,41.116272],[-2.477845,41.109892],[-2.475984,41.101353],[-2.469443,41.089838],[-2.469466,41.07811],[-2.465624,41.077803],[-2.449518,41.077664],[-2.447935,41.074873],[-2.442272,41.077296],[-2.440009,41.073223],[-2.440953,41.071363],[-2.438232,41.070791],[-2.429744,41.072289],[-2.4298,41.065858],[-2.420967,41.060598],[-2.41891,41.057705],[-2.414299,41.060916],[-2.40213,41.061655],[-2.389322,41.069515],[-2.383066,41.074148],[-2.381349,41.077003],[-2.372579,41.079144],[-2.355329,41.086454],[-2.349239,41.077411],[-2.333877,41.067343],[-2.330705,41.066748],[-2.32695,41.061474],[-2.323407,41.056508],[-2.315595,41.061623],[-2.302249,41.065417],[-2.293581,41.071255],[-2.29111,41.070852],[-2.284493,41.065263],[-2.276398,41.065365],[-2.266405,41.06813],[-2.263543,41.067536],[-2.232146,41.097012],[-2.227798,41.09619],[-2.222555,41.093434],[-2.198565,41.089279],[-2.175298,41.083755],[-2.175727,41.086578],[-2.167329,41.095408],[-2.143444,41.102574],[-2.135912,41.116687],[-2.131855,41.118098],[-2.130195,41.117509],[-2.128254,41.1139],[-2.120688,41.107852],[-2.117443,41.102936],[-2.109418,41.097551],[-2.097485,41.09244],[-2.089704,41.091127],[-2.08146,41.086351],[-2.076688,41.081943],[-2.078679,41.07742],[-2.07169,41.07249],[-2.064165,41.070132],[-2.056434,41.069691],[-2.048179,41.078378],[-2.057517,41.084689],[-2.065622,41.095789],[-2.063655,41.103511],[-2.060379,41.105196],[-2.06272,41.113115],[-2.059182,41.119797],[-2.050589,41.125897],[-2.05061,41.12941],[-2.051693,41.146849],[-2.047617,41.152652],[-2.038405,41.15508],[-2.029461,41.156266],[-2.008434,41.156438],[-1.987803,41.161141],[-1.982807,41.16506],[-1.962123,41.171325],[-1.959017,41.172486],[-1.94833,41.166849],[-1.947737,41.161475],[-1.939157,41.15247],[-1.939157,41.147335],[-1.935983,41.144658],[-1.932447,41.13859],[-1.92165,41.134291],[-1.905748,41.134105],[-1.899935,41.135464],[-1.890571,41.133321],[-1.888862,41.130764],[-1.879093,41.12376],[-1.875574,41.119168],[-1.872798,41.111583],[-1.869252,41.107909],[-1.855697,41.102524],[-1.835226,41.099184],[-1.825443,41.094905],[-1.820158,41.094157],[-1.81647,41.095281],[-1.814022,41.093031],[-1.803291,41.089894],[-1.794708,41.078788],[-1.785343,41.072771],[-1.771186,41.066568],[-1.762158,41.058661],[-1.757751,41.055074],[-1.757967,41.053103],[-1.756944,41.052462],[-1.75932,41.05201],[-1.75938,41.0482],[-1.748612,41.041256],[-1.747134,41.033898],[-1.745398,41.032591],[-1.737691,41.0313],[-1.733182,41.028224],[-1.729825,41.024016],[-1.72461,41.021202],[-1.714773,41.012076],[-1.691849,40.995631],[-1.679218,40.989326],[-1.674783,40.984032],[-1.666413,40.981729],[-1.661014,40.978324],[-1.657059,40.969405],[-1.654084,40.969001],[-1.632085,40.950627],[-1.617449,40.943733],[-1.611852,40.937558],[-1.607903,40.92762],[-1.611782,40.914263],[-1.615638,40.908139],[-1.625974,40.898678],[-1.620307,40.879486],[-1.611239,40.867586],[-1.607733,40.86558],[-1.603428,40.859817],[-1.596376,40.853849],[-1.593683,40.853258],[-1.592225,40.849862],[-1.588781,40.845027],[-1.573316,40.831586],[-1.569589,40.830072],[-1.562834,40.831519],[-1.559268,40.830763],[-1.556761,40.828804],[-1.553961,40.826661],[-1.553354,40.823482],[-1.544679,40.816194],[-1.542334,40.811219],[-1.539244,40.792641],[-1.540975,40.785042],[-1.539326,40.780823],[-1.542132,40.77712],[-1.542986,40.768429],[-1.540219,40.763836],[-1.539908,40.760733],[-1.555303,40.750081],[-1.562017,40.739752],[-1.560679,40.738105],[-1.558871,40.719264],[-1.554132,40.715583],[-1.552606,40.708961],[-1.553335,40.70588],[-1.551413,40.70555],[-1.543474,40.697216],[-1.538356,40.689359],[-1.535638,40.687019],[-1.538611,40.684732],[-1.540341,40.68134],[-1.538991,40.658091],[-1.551961,40.643093],[-1.556125,40.627146],[-1.564856,40.614742],[-1.555384,40.607183],[-1.553041,40.602398],[-1.545515,40.595195],[-1.54966,40.593113],[-1.555687,40.58599],[-1.582895,40.569455],[-1.587184,40.569408],[-1.598749,40.562054],[-1.602311,40.564565],[-1.629706,40.576064],[-1.63425,40.579794],[-1.653713,40.581959],[-1.66646,40.582044],[-1.67433,40.59217],[-1.6781,40.590952],[-1.685821,40.579906],[-1.693285,40.577648],[-1.689639,40.566491],[-1.701624,40.541096],[-1.701892,40.538216],[-1.699955,40.527834],[-1.697111,40.52291],[-1.696928,40.514098],[-1.695518,40.511334],[-1.695175,40.493701],[-1.692512,40.486824],[-1.700501,40.483103],[-1.709344,40.481545],[-1.735042,40.472028],[-1.7486,40.462897],[-1.758207,40.451046],[-1.759794,40.448081],[-1.765247,40.443329],[-1.77046,40.435492],[-1.769658,40.434835],[-1.777001,40.42976],[-1.783075,40.419789],[-1.785434,40.413183],[-1.7934,40.417852],[-1.796726,40.417742],[-1.796403,40.416712],[-1.800643,40.414216],[-1.802301,40.407107],[-1.804513,40.403986],[-1.803853,40.400682],[-1.806359,40.39823],[-1.811888,40.400107],[-1.814226,40.404509],[-1.823732,40.410832],[-1.832744,40.419977],[-1.8326,40.422155],[-1.836725,40.427656],[-1.837905,40.427605],[-1.84436,40.41894],[-1.853285,40.423678],[-1.850606,40.42593],[-1.856463,40.42879],[-1.857514,40.441936],[-1.862394,40.444119],[-1.860059,40.447609],[-1.865077,40.454965],[-1.86074,40.458976],[-1.86,40.460906],[-1.861722,40.463004],[-1.86083,40.464788],[-1.866994,40.469983],[-1.868717,40.469946],[-1.873261,40.473351],[-1.873579,40.476867],[-1.871229,40.477024],[-1.875752,40.478861],[-1.877479,40.487103],[-1.88085,40.489442],[-1.878053,40.491604],[-1.880311,40.492058],[-1.879636,40.49434],[-1.887815,40.505662],[-1.883919,40.51003],[-1.884004,40.514148],[-1.881458,40.517465],[-1.889074,40.529502],[-1.8954,40.532491],[-1.896611,40.534232],[-1.899262,40.534564],[-1.899806,40.541037],[-1.909467,40.541651],[-1.909135,40.543189],[-1.904488,40.54646],[-1.908183,40.549432],[-1.907973,40.552907],[-1.910219,40.554234],[-1.909446,40.557524],[-1.910981,40.559692],[-1.909841,40.561564],[-1.914966,40.568198],[-1.915954,40.571378],[-1.914586,40.573419],[-1.916755,40.577403],[-1.915765,40.580205],[-1.917416,40.581094],[-1.91649,40.582824],[-1.920591,40.5857],[-1.923225,40.591661],[-1.924971,40.59184],[-1.926448,40.59407],[-1.929059,40.593427],[-1.938502,40.597118],[-1.941835,40.600049],[-1.948229,40.600864],[-1.954066,40.600152],[-1.961445,40.61138],[-1.964944,40.611367],[-1.96812,40.608575],[-1.963856,40.599132],[-1.965435,40.592588],[-1.969924,40.589583],[-1.973466,40.589777],[-1.985527,40.585433],[-1.992368,40.589412],[-2.000997,40.591604],[-2.005573,40.591418],[-2.020559,40.59778],[-2.023378,40.598984],[-2.027966,40.598825],[-2.035798,40.601566],[-2.047497,40.609213],[-2.052263,40.6149],[-2.057452,40.618276],[-2.057524,40.624105],[-2.063471,40.627514],[-2.068793,40.629115],[-2.070954,40.628466],[-2.083603,40.63472],[-2.091812,40.643271],[-2.091202,40.646365],[-2.110118,40.651386],[-2.111207,40.650431],[-2.119354,40.650647],[-2.133739,40.655917],[-2.156936,40.658693],[-2.162808,40.650799],[-2.166869,40.632405],[-2.170341,40.629881],[-2.184956,40.62894],[-2.189775,40.630289],[-2.213815,40.619177],[-2.22567,40.619374],[-2.232819,40.623854],[-2.235455,40.627033],[-2.254836,40.632178],[-2.268366,40.641706],[-2.274601,40.644754],[-2.276858,40.637273],[-2.27997,40.633779],[-2.290402,40.63024],[-2.294245,40.624651],[-2.294216,40.611687],[-2.287001,40.59758],[-2.286042,40.592223],[-2.286752,40.588777],[-2.290315,40.585962],[-2.292196,40.579009],[-2.29766,40.572845],[-2.308234,40.574008],[-2.318209,40.570193],[-2.325937,40.570022],[-2.327416,40.568625],[-2.333514,40.567192],[-2.343439,40.569384],[-2.346989,40.573648],[-2.352881,40.575212],[-2.359848,40.580638],[-2.353961,40.589524],[-2.354391,40.592725],[-2.357049,40.595271],[-2.367144,40.601246],[-2.372573,40.607158],[-2.380811,40.607257],[-2.384927,40.609567],[-2.387388,40.609337],[-2.396406,40.612096],[-2.398732,40.613766],[-2.406546,40.60832],[-2.412452,40.602116],[-2.416073,40.593513],[-2.416282,40.588415],[-2.417303,40.58388],[-2.416178,40.580027],[-2.406629,40.573555],[-2.400543,40.565857],[-2.39346,40.563955],[-2.389703,40.556251],[-2.383207,40.553622],[-2.381396,40.547657],[-2.380004,40.543587],[-2.396699,40.533468],[-2.40831,40.528925],[-2.411822,40.525627],[-2.417035,40.530311],[-2.419815,40.53656],[-2.42512,40.54028],[-2.428049,40.540276],[-2.435371,40.534529],[-2.437279,40.530916],[-2.448642,40.52453],[-2.46263,40.523272],[-2.468404,40.520127],[-2.473203,40.519419],[-2.485159,40.512041],[-2.494936,40.509922],[-2.495971,40.508809],[-2.503593,40.510788],[-2.513602,40.515768],[-2.516356,40.52014],[-2.51593,40.523579],[-2.518071,40.52803],[-2.5216,40.531396],[-2.527236,40.544275],[-2.538714,40.534024],[-2.542909,40.523203],[-2.546267,40.518955],[-2.542374,40.513327],[-2.540455,40.5074],[-2.528727,40.49838],[-2.536664,40.49225],[-2.537553,40.488281],[-2.536459,40.486078],[-2.540497,40.48232],[-2.542044,40.476911],[-2.544454,40.474633],[-2.541587,40.474612],[-2.526997,40.46913],[-2.521981,40.466245],[-2.516222,40.46004],[-2.511115,40.458361],[-2.504535,40.448649],[-2.506442,40.44426],[-2.506594,40.437937],[-2.510504,40.428872],[-2.51401,40.42495],[-2.519809,40.423425],[-2.520884,40.424817],[-2.525794,40.423963],[-2.532383,40.427494],[-2.537725,40.425444],[-2.542547,40.425445],[-2.547911,40.4307],[-2.546596,40.43502],[-2.551319,40.434065],[-2.553893,40.43521],[-2.556419,40.434805],[-2.560988,40.439291],[-2.565135,40.438055],[-2.567853,40.43884],[-2.568957,40.443213],[-2.575993,40.445672],[-2.58009,40.444921],[-2.586236,40.450258],[-2.591711,40.449755],[-2.593331,40.44513],[-2.599556,40.443368],[-2.606704,40.446969],[-2.610824,40.446263],[-2.614368,40.447221],[-2.618953,40.445371],[-2.626431,40.44944],[-2.632854,40.443677],[-2.641576,40.448849],[-2.651303,40.440005],[-2.660987,40.439349],[-2.663845,40.436051],[-2.667547,40.438449],[-2.670698,40.442683],[-2.671119,40.448216],[-2.675069,40.448335],[-2.680364,40.443359],[-2.685152,40.443291],[-2.684712,40.44147],[-2.679077,40.438896],[-2.676356,40.43578],[-2.685013,40.427732],[-2.691936,40.427138],[-2.696638,40.430015],[-2.701816,40.429569],[-2.703795,40.421944],[-2.68916,40.410374],[-2.684731,40.404794],[-2.68077,40.402711],[-2.686288,40.397042],[-2.690668,40.395134],[-2.697139,40.402656],[-2.705094,40.416001],[-2.71743,40.419825],[-2.718923,40.418126],[-2.71795,40.416862],[-2.711986,40.413865],[-2.713533,40.410572],[-2.716043,40.407875],[-2.718792,40.407107],[-2.725292,40.411447],[-2.728026,40.411427],[-2.725803,40.410223],[-2.724968,40.406933],[-2.721642,40.404745],[-2.719687,40.401578],[-2.720678,40.398517],[-2.722899,40.397117],[-2.734509,40.399351],[-2.750219,40.408477],[-2.758399,40.411314],[-2.769868,40.4214],[-2.764704,40.428534],[-2.759865,40.439876],[-2.760681,40.442337],[-2.765326,40.442617],[-2.769111,40.442867],[-2.776845,40.446621],[-2.780945,40.44417],[-2.784643,40.434726],[-2.79004,40.431682],[-2.786034,40.427242],[-2.79061,40.426638],[-2.794296,40.424086],[-2.799614,40.423627],[-2.79762,40.420182],[-2.798065,40.41721],[-2.802635,40.410443],[-2.807678,40.406793],[-2.807095,40.404603],[-2.80452,40.398671],[-2.805349,40.397132],[-2.809904,40.394851],[-2.810297,40.393329],[-2.80943,40.391751],[-2.805886,40.39097],[-2.811459,40.386502],[-2.812882,40.379027],[-2.812159,40.372269],[-2.814615,40.365867],[-2.816929,40.36379],[-2.81534,40.359192],[-2.817904,40.347512],[-2.814978,40.345192],[-2.815223,40.341931],[-2.813456,40.342108],[-2.811684,40.344384],[-2.810088,40.342391],[-2.810743,40.339887],[-2.813359,40.33891],[-2.813259,40.33672],[-2.816169,40.336193],[-2.816691,40.33469],[-2.814768,40.331903],[-2.812037,40.331583],[-2.811011,40.32814],[-2.808495,40.326928],[-2.80915,40.311839],[-2.806894,40.29443],[-2.804686,40.288822],[-2.804908,40.281345],[-2.806549,40.279411],[-2.805596,40.267147],[-2.80263,40.264025],[-2.803319,40.257404],[-2.805852,40.251832],[-2.805492,40.250156],[-2.808363,40.245367],[-2.807525,40.242492],[-2.814381,40.224683],[-2.820424,40.21971],[-2.818914,40.217302],[-2.822897,40.208677],[-2.821532,40.20518],[-2.825981,40.20224],[-2.834866,40.201487],[-2.848387,40.202632],[-2.863126,40.200109],[-2.868206,40.191908],[-2.868083,40.189043],[-2.87367,40.179183],[-2.873369,40.176895],[-2.87505,40.175743],[-2.873739,40.173571],[-2.876667,40.171385],[-2.879863,40.170901],[-2.887589,40.164629],[-2.90485,40.157897],[-2.913117,40.157164],[-2.919209,40.159286],[-2.934823,40.163323],[-2.946983,40.169609],[-2.948461,40.172681],[-2.952205,40.176692],[-2.956467,40.178955],[-2.959483,40.18302],[-2.966118,40.185202],[-2.981117,40.193981],[-2.988834,40.20109],[-2.988199,40.202649],[-2.998186,40.209082],[-3.005684,40.208865],[-3.008256,40.199856],[-3.012991,40.196972],[-3.016468,40.192945],[-3.019769,40.193178],[-3.020907,40.188232],[-3.0212,40.184349],[-3.018108,40.176196],[-3.012259,40.173971],[-3.013162,40.168683],[-3.015957,40.164556],[-3.016049,40.159493],[-3.01444,40.155241],[-3.016518,40.152456],[-3.02091,40.155744],[-3.030938,40.157003],[-3.033745,40.158273],[-3.038009,40.160839],[-3.063767,40.168252],[-3.067636,40.161276],[-3.067908,40.157672],[-3.070467,40.161868],[-3.077754,40.166167],[-3.077128,40.172511],[-3.08312,40.183926],[-3.08576,40.186146],[-3.084401,40.188686],[-3.086699,40.192352],[-3.084639,40.198376],[-3.088231,40.200318],[-3.081476,40.203968],[-3.079451,40.208549],[-3.082541,40.214435],[-3.080501,40.219011],[-3.07991,40.227762],[-3.086977,40.23377],[-3.089967,40.238693],[-3.086921,40.245269],[-3.087422,40.247253],[-3.092004,40.250921],[-3.09906,40.260483],[-3.095885,40.268855],[-3.098246,40.275079],[-3.102403,40.278535],[-3.107735,40.280296],[-3.109507,40.285186],[-3.112084,40.285625],[-3.128235,40.278762],[-3.143449,40.266366],[-3.150466,40.265256],[-3.153618,40.263675],[-3.155701,40.259421],[-3.16145,40.255292],[-3.170468,40.243693],[-3.173398,40.234169],[-3.178402,40.236244],[-3.183169,40.243399]]],[[[-3.382137,40.63047],[-3.380258,40.632854],[-3.372261,40.635611],[-3.374847,40.638486],[-3.374051,40.640248],[-3.372667,40.638926],[-3.363608,40.63842],[-3.363667,40.631602],[-3.368163,40.632525],[-3.369378,40.627943],[-3.371731,40.625768],[-3.374444,40.626137],[-3.376792,40.628745],[-3.382137,40.63047]]]]}}
]
}
