{
"type": "FeatureCollection",
"name": "cod_prov_17",
"crs": { "type": "name", "properties": { "name": "urn:ogc:def:crs:OGC:1.3:CRS84" } },
"xy_coordinate_resolution": 1e-15,
"features": [
{"type":"Feature","properties":{"fid":13,"cod_ccaa":"09","provincia":"Girona","cod_prov":"17"},"geometry":{"type":"MultiPolygon","coordinates":[[[[2.547664,41.719054],[2.545497,41.720401],[2.537898,41.721732],[2.533928,41.728801],[2.531032,41.730472],[2.533635,41.735018],[2.531593,41.738943],[2.523516,41.742303],[2.515985,41.748662],[2.517233,41.750312],[2.515709,41.753419],[2.519014,41.75579],[2.516328,41.761888],[2.505746,41.762568],[2.497841,41.76518],[2.494578,41.764283],[2.490208,41.765483],[2.482295,41.771525],[2.469503,41.777772],[2.471573,41.785253],[2.472531,41.789582],[2.456109,41.784172],[2.44412,41.789172],[2.443625,41.798351],[2.436885,41.802866],[2.4269,41.804582],[2.418452,41.804415],[2.41411,41.804296],[2.410753,41.801583],[2.405057,41.801663],[2.396626,41.805698],[2.38793,41.805162],[2.383041,41.808696],[2.379589,41.807715],[2.376366,41.804724],[2.370871,41.804046],[2.367458,41.804386],[2.364602,41.806626],[2.354654,41.807101],[2.351907,41.809651],[2.351876,41.812741],[2.349871,41.815679],[2.34676,41.817328],[2.344439,41.820821],[2.343678,41.82525],[2.345227,41.82679],[2.347686,41.832327],[2.34524,41.837339],[2.333345,41.844269],[2.326346,41.855649],[2.330554,41.85585],[2.330143,41.859307],[2.332705,41.863464],[2.324818,41.872169],[2.32556,41.873404],[2.324057,41.874005],[2.324161,41.875413],[2.328338,41.883033],[2.330279,41.882186],[2.334561,41.883832],[2.337884,41.889151],[2.340833,41.887096],[2.344902,41.886195],[2.346712,41.88738],[2.349853,41.886909],[2.356484,41.881062],[2.361881,41.883366],[2.36697,41.88013],[2.36823,41.884662],[2.370022,41.885487],[2.371428,41.879416],[2.373247,41.878701],[2.377557,41.8728],[2.378428,41.874127],[2.382964,41.871501],[2.384777,41.873721],[2.384421,41.876492],[2.387593,41.877685],[2.38757,41.879126],[2.39024,41.878649],[2.394028,41.879002],[2.392993,41.880446],[2.395998,41.882645],[2.396871,41.885998],[2.404751,41.886293],[2.407475,41.895707],[2.415929,41.896216],[2.417955,41.893249],[2.422183,41.893805],[2.424787,41.896238],[2.427366,41.896098],[2.428913,41.894314],[2.431869,41.894219],[2.431117,41.890329],[2.434872,41.890142],[2.439638,41.887674],[2.443665,41.887996],[2.44622,41.889558],[2.446652,41.894767],[2.449145,41.895747],[2.453876,41.895414],[2.457011,41.896705],[2.45936,41.898258],[2.460219,41.90252],[2.469003,41.90463],[2.468303,41.905744],[2.47038,41.908607],[2.472956,41.909411],[2.475179,41.914958],[2.481536,41.916004],[2.478643,41.919933],[2.48063,41.922862],[2.479129,41.925167],[2.480287,41.930089],[2.471105,41.939279],[2.465556,41.939112],[2.46285,41.937792],[2.462552,41.941209],[2.459569,41.944394],[2.45713,41.943511],[2.455204,41.940866],[2.45137,41.943696],[2.446403,41.943995],[2.445458,41.942096],[2.442587,41.941377],[2.440347,41.943671],[2.440567,41.946677],[2.437351,41.947991],[2.438333,41.951455],[2.442469,41.954553],[2.441836,41.959859],[2.439803,41.96317],[2.432783,41.965718],[2.429748,41.965349],[2.429461,41.968918],[2.431456,41.969112],[2.434067,41.972427],[2.43844,41.973353],[2.442901,41.971764],[2.44192,41.968191],[2.449585,41.970077],[2.4524,41.966036],[2.456128,41.967875],[2.457176,41.966034],[2.461797,41.967875],[2.465572,41.96674],[2.474673,41.96933],[2.472096,41.972055],[2.472712,41.975293],[2.475715,41.977535],[2.480783,41.978517],[2.480569,41.979401],[2.479901,41.982431],[2.488381,41.984653],[2.469139,41.99382],[2.476939,41.997382],[2.476876,42.001274],[2.479635,42.001358],[2.479871,41.998213],[2.483296,41.996645],[2.484959,41.99914],[2.488622,41.999072],[2.493558,42.00159],[2.49926,42.001505],[2.500271,42.008037],[2.503695,42.009664],[2.495515,42.011669],[2.496246,42.01636],[2.494837,42.017517],[2.494395,42.021202],[2.499527,42.021496],[2.503495,42.024663],[2.506519,42.032259],[2.500113,42.033026],[2.496971,42.036769],[2.492667,42.037831],[2.48788,42.045605],[2.484079,42.04648],[2.482577,42.049235],[2.482601,42.052313],[2.483745,42.052132],[2.486,42.054328],[2.490592,42.055188],[2.494384,42.058805],[2.496651,42.058894],[2.495763,42.060504],[2.492153,42.063738],[2.49071,42.067309],[2.481436,42.068915],[2.477665,42.067349],[2.474469,42.06364],[2.472259,42.064484],[2.470683,42.069331],[2.467062,42.073726],[2.464026,42.075941],[2.458569,42.075149],[2.454964,42.077913],[2.453866,42.076669],[2.450001,42.077394],[2.448767,42.076534],[2.448968,42.074229],[2.443816,42.073187],[2.429697,42.063937],[2.42786,42.064213],[2.425776,42.06244],[2.423128,42.063123],[2.420985,42.065332],[2.417561,42.064855],[2.414958,42.068903],[2.411381,42.068604],[2.409189,42.070823],[2.406107,42.078756],[2.395356,42.086762],[2.397617,42.087916],[2.395212,42.09119],[2.39538,42.095152],[2.40046,42.10215],[2.395117,42.104284],[2.380234,42.103706],[2.37715,42.105832],[2.377014,42.109781],[2.374152,42.113256],[2.37433,42.116776],[2.369696,42.116175],[2.366385,42.121336],[2.357626,42.120153],[2.356305,42.119116],[2.353439,42.120403],[2.351618,42.119453],[2.347841,42.121268],[2.342346,42.120201],[2.341022,42.11812],[2.337148,42.116492],[2.320243,42.115902],[2.319041,42.113545],[2.316533,42.114202],[2.316175,42.11339],[2.318642,42.113257],[2.317352,42.110842],[2.310038,42.109705],[2.295281,42.102666],[2.294341,42.105742],[2.301048,42.109474],[2.303773,42.112417],[2.301252,42.115532],[2.298925,42.115604],[2.298649,42.117084],[2.301905,42.119004],[2.300412,42.121972],[2.302493,42.122416],[2.301575,42.126041],[2.303228,42.127297],[2.301292,42.127873],[2.299909,42.134185],[2.297682,42.13228],[2.293993,42.131848],[2.291939,42.129269],[2.287011,42.133692],[2.279886,42.133823],[2.276799,42.137864],[2.281208,42.140694],[2.273054,42.139369],[2.273457,42.142465],[2.271452,42.142792],[2.272184,42.143748],[2.270382,42.1452],[2.269173,42.143032],[2.260942,42.141223],[2.258267,42.138717],[2.24907,42.139401],[2.245965,42.139156],[2.244448,42.137776],[2.240653,42.143082],[2.238062,42.144083],[2.225079,42.14302],[2.223616,42.142006],[2.215481,42.142081],[2.215512,42.138928],[2.210489,42.139625],[2.210997,42.136973],[2.205825,42.133797],[2.213208,42.129301],[2.212262,42.127652],[2.210095,42.127625],[2.206586,42.131286],[2.204177,42.131846],[2.202553,42.129147],[2.205259,42.125873],[2.201427,42.124274],[2.19323,42.124151],[2.189516,42.124725],[2.186887,42.128517],[2.188795,42.131437],[2.187949,42.133961],[2.181715,42.135233],[2.164483,42.135283],[2.145057,42.131396],[2.140115,42.126541],[2.13776,42.1212],[2.126282,42.113099],[2.123057,42.115989],[2.118432,42.115764],[2.115839,42.117798],[2.113274,42.117489],[2.105498,42.122734],[2.101059,42.123931],[2.100633,42.129757],[2.097929,42.130274],[2.101362,42.140177],[2.095469,42.140448],[2.095853,42.14207],[2.092681,42.144291],[2.089058,42.141958],[2.074939,42.14119],[2.071158,42.141862],[2.070219,42.138743],[2.065905,42.138637],[2.061385,42.135659],[2.054526,42.137781],[2.052045,42.143076],[2.046327,42.144346],[2.040186,42.142726],[2.037461,42.143296],[2.033681,42.149773],[2.028614,42.152247],[2.02571,42.152402],[2.013193,42.14926],[2.004344,42.149503],[2.006219,42.151645],[2.003972,42.15276],[2.005728,42.154925],[1.997251,42.162039],[1.991131,42.171598],[1.992514,42.17241],[1.989531,42.176637],[1.991559,42.178718],[1.991851,42.182577],[1.984047,42.181081],[1.979141,42.182888],[1.971082,42.18015],[1.970974,42.178165],[1.966253,42.178775],[1.964666,42.192034],[1.96557,42.199079],[1.970297,42.197443],[1.976721,42.199063],[1.980184,42.196599],[1.98582,42.194994],[2.007661,42.194058],[1.998385,42.192042],[1.999313,42.188463],[2.00647,42.18345],[2.00134,42.176274],[1.995905,42.172289],[2.004264,42.166261],[2.005193,42.162088],[2.010847,42.162588],[2.013282,42.163994],[2.023111,42.164031],[2.027678,42.166378],[2.028631,42.169991],[2.031854,42.172172],[2.031727,42.176967],[2.037382,42.178978],[2.045661,42.17594],[2.058133,42.175542],[2.058379,42.177107],[2.060873,42.177879],[2.05958,42.179115],[2.061307,42.179813],[2.06199,42.188966],[2.063908,42.1916],[2.060642,42.195274],[2.055758,42.19476],[2.05287,42.195734],[2.053933,42.200549],[2.050837,42.208329],[2.051875,42.213595],[2.050492,42.215844],[2.053657,42.219521],[2.049265,42.221399],[2.039807,42.221123],[2.030546,42.215858],[2.023536,42.227322],[2.019742,42.22836],[2.017071,42.2327],[2.020993,42.231907],[2.025157,42.233237],[2.025041,42.23984],[2.028156,42.241233],[2.027108,42.242216],[2.029931,42.244956],[2.029235,42.248543],[2.027792,42.249442],[2.029594,42.251372],[2.028557,42.252498],[2.02903,42.253422],[2.027434,42.253312],[2.03074,42.256939],[2.040261,42.260517],[2.041073,42.264911],[2.043623,42.268003],[2.042584,42.269571],[2.045536,42.272519],[2.047415,42.272671],[2.048777,42.275005],[2.051874,42.275229],[2.053486,42.278092],[2.052706,42.278802],[2.060183,42.282541],[2.067296,42.283846],[2.069911,42.28771],[2.070259,42.291583],[2.066701,42.290175],[2.057398,42.295574],[2.048019,42.297636],[2.04042,42.302094],[2.038335,42.305139],[2.028599,42.306243],[2.024053,42.309162],[2.018879,42.310298],[2.01512,42.307564],[2.012985,42.308333],[2.007556,42.30686],[2.006183,42.307595],[2.002637,42.305104],[1.993669,42.302588],[1.992453,42.300246],[1.98689,42.3003],[1.98419,42.298059],[1.979613,42.300518],[1.970679,42.303265],[1.956556,42.312287],[1.949055,42.315619],[1.943604,42.308454],[1.939646,42.316458],[1.933257,42.318669],[1.921541,42.316995],[1.918569,42.317771],[1.912912,42.318969],[1.903482,42.32329],[1.893238,42.320893],[1.893479,42.318686],[1.891484,42.317367],[1.883798,42.317119],[1.883415,42.314839],[1.879511,42.312665],[1.874073,42.313563],[1.866095,42.312202],[1.864217,42.310976],[1.861776,42.313142],[1.858176,42.310666],[1.850923,42.310668],[1.842976,42.306395],[1.839821,42.310634],[1.840473,42.312182],[1.835135,42.319124],[1.835439,42.324513],[1.833517,42.326818],[1.836584,42.331046],[1.835204,42.332986],[1.840167,42.339619],[1.83639,42.341003],[1.839084,42.350469],[1.835519,42.355571],[1.845665,42.35507],[1.846308,42.359319],[1.848144,42.364238],[1.85542,42.369637],[1.851309,42.373476],[1.844979,42.374852],[1.840456,42.373666],[1.833525,42.37576],[1.832414,42.378679],[1.830351,42.381395],[1.828517,42.37933],[1.822757,42.377854],[1.817016,42.373459],[1.811796,42.37014],[1.806812,42.3699],[1.804986,42.375406],[1.801869,42.37514],[1.800411,42.377984],[1.807926,42.390039],[1.808858,42.393808],[1.80859,42.3995],[1.80546,42.407978],[1.810197,42.411452],[1.811375,42.411123],[1.807416,42.418609],[1.801907,42.424909],[1.797366,42.426711],[1.794985,42.430854],[1.785836,42.432002],[1.777358,42.431591],[1.770189,42.429217],[1.769795,42.428036],[1.765151,42.430894],[1.757966,42.433111],[1.745537,42.433168],[1.732286,42.440371],[1.732422,42.444921],[1.728775,42.448142],[1.727472,42.452949],[1.726607,42.462114],[1.733457,42.47376],[1.730416,42.47746],[1.724637,42.486946],[1.731279,42.492424],[1.739029,42.494678],[1.748367,42.495254],[1.753845,42.491461],[1.763203,42.487498],[1.771642,42.48873],[1.792864,42.485313],[1.805256,42.490194],[1.817324,42.483078],[1.823841,42.486513],[1.839207,42.478985],[1.846428,42.472647],[1.844776,42.472041],[1.847199,42.470822],[1.847662,42.468318],[1.852972,42.465752],[1.859712,42.462971],[1.862323,42.46621],[1.880449,42.460206],[1.882854,42.457997],[1.884724,42.449841],[1.890159,42.450167],[1.891161,42.448044],[1.895911,42.447544],[1.896768,42.449803],[1.900005,42.45015],[1.904144,42.448514],[1.906814,42.448606],[1.909678,42.446777],[1.911449,42.447714],[1.915463,42.446191],[1.921026,42.447059],[1.933171,42.454953],[1.934968,42.454615],[1.936962,42.454466],[1.94118,42.446586],[1.943295,42.445036],[1.941301,42.430681],[1.945548,42.428129],[1.953033,42.426734],[1.958933,42.423417],[1.955548,42.412103],[1.96161,42.402864],[1.960342,42.394195],[1.961675,42.390311],[1.965019,42.387897],[1.964716,42.382526],[1.972041,42.373961],[1.979132,42.371356],[1.986172,42.362146],[1.990948,42.359461],[1.994643,42.360434],[1.997169,42.359082],[1.998384,42.356193],[2.00301,42.356359],[2.006413,42.353816],[2.011995,42.35349],[2.012325,42.350171],[2.015548,42.347365],[2.022717,42.355675],[2.027946,42.355644],[2.035682,42.357806],[2.046541,42.357751],[2.045977,42.356623],[2.047418,42.355974],[2.049766,42.358004],[2.059283,42.358754],[2.061356,42.360832],[2.073684,42.364823],[2.082043,42.364155],[2.084307,42.362127],[2.08608,42.364236],[2.086893,42.370385],[2.089431,42.374287],[2.104694,42.380125],[2.116746,42.383331],[2.114006,42.38638],[2.115466,42.394606],[2.122042,42.397211],[2.122732,42.400007],[2.121525,42.402483],[2.123235,42.407511],[2.129083,42.413821],[2.137023,42.416417],[2.143381,42.417202],[2.157154,42.42364],[2.159678,42.422122],[2.166155,42.422874],[2.167924,42.425026],[2.180464,42.418985],[2.184374,42.41969],[2.18728,42.417659],[2.193766,42.418805],[2.200081,42.417158],[2.207142,42.41717],[2.207515,42.419764],[2.212432,42.420737],[2.21411,42.424118],[2.21988,42.422927],[2.22404,42.425753],[2.231153,42.426967],[2.233326,42.425922],[2.241058,42.428584],[2.246161,42.428575],[2.251482,42.434074],[2.251894,42.436522],[2.256714,42.438785],[2.267527,42.433525],[2.271272,42.434271],[2.275569,42.432182],[2.277756,42.428129],[2.284582,42.428093],[2.29158,42.42289],[2.300586,42.423913],[2.305333,42.426456],[2.306858,42.428681],[2.312589,42.428622],[2.319446,42.425359],[2.318686,42.422424],[2.32443,42.417943],[2.329617,42.417071],[2.331289,42.415724],[2.344141,42.416978],[2.346125,42.415598],[2.345309,42.413152],[2.346392,42.40932],[2.351837,42.406067],[2.361192,42.40282],[2.366828,42.402529],[2.372161,42.40055],[2.379091,42.40161],[2.387463,42.400234],[2.393125,42.396294],[2.399699,42.395192],[2.403648,42.393241],[2.414885,42.392151],[2.426672,42.394328],[2.433737,42.3933],[2.436043,42.387113],[2.433358,42.381344],[2.435846,42.375293],[2.448654,42.36912],[2.453049,42.369955],[2.4561,42.368324],[2.457207,42.363454],[2.466548,42.360874],[2.476004,42.346099],[2.483567,42.339858],[2.491999,42.342487],[2.50056,42.343245],[2.510535,42.339641],[2.512872,42.337223],[2.526466,42.333407],[2.533192,42.332757],[2.536045,42.334024],[2.542393,42.333905],[2.544089,42.338837],[2.551915,42.341032],[2.553023,42.343544],[2.552215,42.344834],[2.554187,42.345864],[2.554942,42.34823],[2.554925,42.354632],[2.557047,42.353656],[2.562313,42.355416],[2.561945,42.35619],[2.564204,42.355801],[2.571548,42.358549],[2.580972,42.357513],[2.599711,42.352032],[2.601238,42.349697],[2.609469,42.348087],[2.612723,42.345938],[2.623101,42.345005],[2.63156,42.34556],[2.638531,42.343452],[2.64225,42.344466],[2.648322,42.343563],[2.651083,42.344317],[2.660386,42.34076],[2.672008,42.340733],[2.675815,42.342308],[2.675599,42.357127],[2.673852,42.357403],[2.674317,42.359054],[2.671586,42.359856],[2.670516,42.361998],[2.667376,42.361766],[2.665307,42.362778],[2.664412,42.364974],[2.661204,42.366825],[2.663582,42.372325],[2.658828,42.378178],[2.659556,42.379663],[2.652371,42.384547],[2.652293,42.387053],[2.654547,42.388355],[2.665909,42.385478],[2.671592,42.386817],[2.673874,42.399036],[2.671633,42.402604],[2.67231,42.403642],[2.680007,42.40695],[2.693597,42.406381],[2.697816,42.410303],[2.703272,42.411129],[2.706416,42.414302],[2.710227,42.415597],[2.718826,42.421702],[2.725215,42.422886],[2.73018,42.422304],[2.734288,42.424708],[2.739245,42.423244],[2.754422,42.426045],[2.757668,42.424603],[2.759943,42.418556],[2.770477,42.411696],[2.771536,42.41211],[2.775831,42.412712],[2.777143,42.411665],[2.784206,42.417384],[2.789089,42.417109],[2.793254,42.41814],[2.799677,42.418228],[2.800869,42.423632],[2.803835,42.42863],[2.807263,42.431003],[2.810008,42.431125],[2.812974,42.435853],[2.81811,42.439858],[2.819441,42.440448],[2.825235,42.438721],[2.827868,42.439199],[2.833848,42.44821],[2.833122,42.452811],[2.838635,42.458624],[2.840234,42.459208],[2.843983,42.45835],[2.853413,42.454798],[2.861783,42.45526],[2.864829,42.459226],[2.863894,42.464045],[2.870194,42.467439],[2.876372,42.465645],[2.882569,42.460555],[2.886175,42.459991],[2.889688,42.461917],[2.893473,42.461577],[2.905363,42.457065],[2.911276,42.457507],[2.918774,42.456191],[2.925067,42.458853],[2.925271,42.464091],[2.932193,42.474524],[2.935847,42.474974],[2.939318,42.477719],[2.944987,42.47953],[2.947423,42.482392],[2.950637,42.478462],[2.956024,42.47603],[2.960965,42.473521],[2.96792,42.46548],[2.976546,42.467585],[2.981714,42.467012],[2.980919,42.468428],[2.983442,42.471806],[2.988949,42.473957],[3.00087,42.472863],[3.013584,42.466352],[3.023169,42.471959],[3.027567,42.472303],[3.03072,42.474234],[3.034049,42.474706],[3.041286,42.472586],[3.045875,42.461443],[3.047533,42.457079],[3.05147,42.454422],[3.058604,42.445736],[3.0671,42.442728],[3.071338,42.435671],[3.076974,42.435398],[3.078763,42.430667],[3.086213,42.425796],[3.096008,42.424941],[3.102989,42.426512],[3.102901,42.428353],[3.106993,42.430952],[3.107797,42.433465],[3.110355,42.435273],[3.113757,42.434893],[3.121271,42.438415],[3.122106,42.43639],[3.125002,42.435064],[3.138337,42.435482],[3.140288,42.433937],[3.144965,42.433056],[3.153587,42.435724],[3.15746,42.434201],[3.163339,42.435909],[3.172931,42.434716],[3.175039,42.435394],[3.17541,42.433484],[3.171746,42.433169],[3.169734,42.430019],[3.164795,42.43033],[3.164789,42.429404],[3.162697,42.429625],[3.161055,42.428129],[3.161676,42.426907],[3.164107,42.427163],[3.167274,42.424778],[3.170508,42.425287],[3.171194,42.424116],[3.169629,42.42339],[3.169265,42.420061],[3.171193,42.415708],[3.166623,42.414452],[3.164994,42.413073],[3.166075,42.411466],[3.162275,42.411248],[3.161779,42.40916],[3.158847,42.408247],[3.159139,42.407511],[3.156905,42.407649],[3.156014,42.406113],[3.158362,42.403925],[3.160681,42.404907],[3.163554,42.40423],[3.164658,42.401875],[3.166859,42.401279],[3.153224,42.394021],[3.153804,42.391388],[3.159728,42.389017],[3.163165,42.391748],[3.167357,42.389424],[3.163294,42.386628],[3.163213,42.38494],[3.159855,42.384995],[3.15542,42.378762],[3.159158,42.3764],[3.15943,42.371993],[3.163358,42.371448],[3.164934,42.373532],[3.165044,42.371312],[3.166528,42.370971],[3.167366,42.367883],[3.163675,42.365031],[3.163566,42.363299],[3.165393,42.362867],[3.163281,42.360524],[3.167913,42.359239],[3.169154,42.357912],[3.171632,42.357931],[3.17254,42.355802],[3.17518,42.35476],[3.178377,42.354317],[3.178335,42.353149],[3.182891,42.352839],[3.183165,42.35106],[3.184166,42.351735],[3.184941,42.350604],[3.186027,42.351895],[3.188506,42.351932],[3.189089,42.35046],[3.185515,42.346081],[3.186001,42.343624],[3.190374,42.341452],[3.190661,42.339069],[3.193936,42.338198],[3.194799,42.335991],[3.197038,42.334952],[3.200385,42.335058],[3.203489,42.336762],[3.203269,42.341788],[3.202308,42.342254],[3.202722,42.341412],[3.201532,42.341891],[3.200152,42.340823],[3.204028,42.347264],[3.209834,42.345482],[3.210397,42.343939],[3.212411,42.347007],[3.21546,42.346544],[3.215285,42.349317],[3.219282,42.349729],[3.223022,42.347185],[3.223494,42.349005],[3.227179,42.349335],[3.22792,42.351302],[3.229744,42.351463],[3.238678,42.34904],[3.238633,42.344065],[3.237387,42.343368],[3.238386,42.340847],[3.240546,42.339622],[3.239973,42.337394],[3.241658,42.337509],[3.241436,42.335271],[3.243411,42.336468],[3.246798,42.336481],[3.24762,42.332061],[3.250271,42.329927],[3.251749,42.330269],[3.250439,42.332591],[3.251114,42.335722],[3.253926,42.333498],[3.255991,42.335356],[3.259351,42.334983],[3.260362,42.33356],[3.260547,42.335053],[3.262706,42.334439],[3.261228,42.336285],[3.261339,42.337773],[3.263335,42.336862],[3.262398,42.34073],[3.26806,42.340437],[3.268592,42.339328],[3.276489,42.336401],[3.277063,42.337531],[3.279144,42.336255],[3.279845,42.336838],[3.2812,42.335584],[3.279083,42.334917],[3.280868,42.333721],[3.277976,42.332575],[3.28139,42.332027],[3.282778,42.332923],[3.285852,42.331754],[3.287283,42.329569],[3.285996,42.325437],[3.288487,42.326443],[3.289511,42.329411],[3.293499,42.32659],[3.292531,42.329523],[3.29463,42.329768],[3.301214,42.32611],[3.303859,42.326594],[3.305587,42.325446],[3.3048,42.326668],[3.308282,42.326791],[3.308802,42.325448],[3.30765,42.324972],[3.30933,42.323097],[3.307548,42.322259],[3.311477,42.320071],[3.311355,42.324785],[3.319271,42.322079],[3.320204,42.321343],[3.319334,42.320653],[3.322486,42.319192],[3.320648,42.31671],[3.315667,42.317472],[3.318902,42.314421],[3.316109,42.314387],[3.313286,42.317432],[3.311773,42.317345],[3.313107,42.312996],[3.309601,42.312739],[3.308123,42.313847],[3.308057,42.31052],[3.306459,42.310915],[3.306613,42.312931],[3.305861,42.311119],[3.304084,42.311181],[3.304594,42.309847],[3.303174,42.310925],[3.302131,42.309965],[3.302952,42.307985],[3.29856,42.306517],[3.300208,42.305769],[3.300075,42.304084],[3.296159,42.304453],[3.295028,42.306847],[3.291281,42.307206],[3.289688,42.306799],[3.290328,42.304351],[3.288568,42.302999],[3.286907,42.303486],[3.288367,42.301957],[3.289485,42.302588],[3.293261,42.301669],[3.291561,42.299819],[3.292238,42.298827],[3.289733,42.298875],[3.288963,42.29736],[3.291784,42.296953],[3.291985,42.294601],[3.287705,42.29436],[3.287243,42.292279],[3.291251,42.289439],[3.29078,42.292246],[3.296262,42.289847],[3.299308,42.284422],[3.296206,42.285656],[3.29718,42.283757],[3.295981,42.284003],[3.295528,42.28275],[3.291657,42.283431],[3.290699,42.282214],[3.288572,42.283493],[3.287975,42.282491],[3.288018,42.284747],[3.286492,42.285849],[3.28357,42.285721],[3.281127,42.2887],[3.276509,42.287244],[3.276377,42.283245],[3.280671,42.28048],[3.277356,42.281148],[3.277131,42.279864],[3.280489,42.276952],[3.280906,42.274328],[3.28343,42.273514],[3.283329,42.270189],[3.286866,42.271264],[3.287726,42.26956],[3.2867,42.267538],[3.28799,42.265162],[3.281344,42.25794],[3.280552,42.255832],[3.281677,42.253862],[3.27947,42.254938],[3.279795,42.253336],[3.277057,42.25273],[3.274683,42.254075],[3.266178,42.253471],[3.261866,42.250926],[3.254821,42.253193],[3.253974,42.252105],[3.256785,42.248567],[3.252986,42.246417],[3.255081,42.243971],[3.257581,42.243159],[3.263148,42.244195],[3.266905,42.243359],[3.265469,42.24098],[3.266335,42.238728],[3.264947,42.237679],[3.262061,42.237036],[3.259819,42.238851],[3.25501,42.238853],[3.249729,42.240447],[3.243965,42.249647],[3.239319,42.250935],[3.237506,42.247542],[3.232512,42.249237],[3.229843,42.251525],[3.227678,42.250706],[3.227204,42.249094],[3.231384,42.245059],[3.229738,42.243726],[3.226808,42.243616],[3.229648,42.240482],[3.225556,42.239769],[3.22694,42.237596],[3.221505,42.23665],[3.221861,42.234119],[3.219334,42.232321],[3.212731,42.237226],[3.208188,42.237338],[3.209303,42.239933],[3.1994,42.243315],[3.198379,42.246368],[3.196842,42.247117],[3.192582,42.245566],[3.182451,42.245413],[3.181386,42.248018],[3.182485,42.24983],[3.178904,42.250996],[3.181848,42.251368],[3.18185,42.255338],[3.17856,42.255399],[3.181534,42.256318],[3.181571,42.257315],[3.178862,42.26052],[3.17554,42.261548],[3.173958,42.263956],[3.166981,42.264737],[3.161997,42.263953],[3.153229,42.260789],[3.151168,42.259541],[3.151429,42.257376],[3.15103,42.258369],[3.147576,42.257376],[3.13893,42.250721],[3.135971,42.247208],[3.136923,42.245653],[3.135196,42.246961],[3.13643,42.245203],[3.134996,42.245901],[3.126906,42.237946],[3.117562,42.222541],[3.111889,42.203861],[3.11243,42.172544],[3.117353,42.146015],[3.12011,42.137253],[3.122672,42.135603],[3.124148,42.135983],[3.122133,42.134534],[3.124199,42.133136],[3.122952,42.13125],[3.125239,42.130632],[3.124455,42.128028],[3.126806,42.126831],[3.130042,42.127539],[3.133243,42.126503],[3.134294,42.127869],[3.135326,42.126535],[3.137104,42.126539],[3.136859,42.124509],[3.138992,42.121568],[3.137301,42.116969],[3.138009,42.115671],[3.142973,42.114621],[3.143454,42.115594],[3.145926,42.115651],[3.146317,42.116818],[3.148851,42.116762],[3.149876,42.119849],[3.152773,42.119675],[3.15549,42.117773],[3.157192,42.118123],[3.159063,42.115727],[3.163596,42.115464],[3.165306,42.113167],[3.169865,42.115036],[3.17199,42.114516],[3.173544,42.111849],[3.177161,42.111627],[3.174734,42.107563],[3.169799,42.10828],[3.169311,42.106371],[3.17218,42.103183],[3.175074,42.102495],[3.177583,42.103926],[3.180065,42.10273],[3.182214,42.105305],[3.185308,42.101834],[3.185046,42.099274],[3.188286,42.098171],[3.188444,42.095579],[3.190827,42.094235],[3.19202,42.090615],[3.193421,42.090854],[3.192856,42.089517],[3.195881,42.086095],[3.194953,42.084759],[3.196485,42.084487],[3.19565,42.083488],[3.198884,42.08369],[3.199797,42.081535],[3.201281,42.082741],[3.202402,42.081969],[3.20278,42.08077],[3.201859,42.081486],[3.198818,42.080049],[3.198623,42.078052],[3.204563,42.074543],[3.203266,42.073633],[3.207031,42.072357],[3.206883,42.070718],[3.208238,42.07086],[3.208593,42.069554],[3.212388,42.0687],[3.212372,42.06681],[3.211212,42.067422],[3.20913,42.065537],[3.21118,42.063518],[3.21012,42.061703],[3.214044,42.06131],[3.211317,42.055292],[3.212849,42.053913],[3.205628,42.052946],[3.207091,42.053821],[3.203324,42.054088],[3.200335,42.052045],[3.198355,42.048345],[3.195217,42.028424],[3.197147,42.008355],[3.198236,42.004416],[3.19708,42.004074],[3.198927,42.002093],[3.200181,41.995148],[3.207423,41.981577],[3.207696,41.981274],[3.211904,41.976671],[3.210788,41.972897],[3.212655,41.972498],[3.213962,41.974281],[3.222791,41.974143],[3.22742,41.970047],[3.230548,41.97021],[3.231829,41.969249],[3.230767,41.968011],[3.232287,41.965669],[3.230813,41.965767],[3.229146,41.964013],[3.227409,41.96426],[3.231422,41.961881],[3.230301,41.96016],[3.232856,41.959526],[3.234671,41.962298],[3.234229,41.958398],[3.233005,41.958591],[3.229997,41.954587],[3.23391,41.950332],[3.228738,41.948373],[3.22634,41.945299],[3.218419,41.942462],[3.218989,41.940397],[3.214776,41.93626],[3.216325,41.935825],[3.216735,41.934092],[3.218726,41.935595],[3.220633,41.93488],[3.218851,41.933293],[3.219762,41.931632],[3.216124,41.930057],[3.215939,41.929023],[3.218105,41.928734],[3.218289,41.927536],[3.219595,41.926592],[3.218805,41.926022],[3.21903,41.925488],[3.21792,41.925233],[3.216852,41.92404],[3.218563,41.923416],[3.217677,41.922492],[3.220612,41.922188],[3.219265,41.921101],[3.217268,41.922001],[3.215859,41.921403],[3.216883,41.918179],[3.211431,41.916765],[3.208956,41.917835],[3.207642,41.917213],[3.209699,41.914824],[3.208238,41.913058],[3.212223,41.909187],[3.207054,41.908073],[3.210513,41.904122],[3.209474,41.90335],[3.209774,41.901975],[3.208463,41.900507],[3.205741,41.900393],[3.203366,41.891701],[3.199247,41.891591],[3.195689,41.893899],[3.19356,41.893195],[3.194008,41.890354],[3.191962,41.889879],[3.190809,41.887934],[3.189018,41.888715],[3.187064,41.887696],[3.183857,41.888041],[3.182025,41.885295],[3.183494,41.88193],[3.1785,41.87887],[3.18185,41.875898],[3.17917,41.875089],[3.179818,41.873695],[3.178032,41.872657],[3.177336,41.870192],[3.178135,41.867746],[3.176548,41.8674],[3.177015,41.866375],[3.173103,41.865398],[3.172631,41.863749],[3.170997,41.863163],[3.170454,41.863903],[3.169804,41.862786],[3.168371,41.863907],[3.16596,41.863749],[3.165806,41.861903],[3.160955,41.860175],[3.159268,41.860788],[3.159164,41.859462],[3.157562,41.862329],[3.15405,41.861366],[3.151888,41.86205],[3.150748,41.861337],[3.151036,41.858198],[3.145964,41.858552],[3.14306,41.85652],[3.143635,41.854608],[3.145882,41.85356],[3.145209,41.849564],[3.138294,41.848765],[3.137935,41.847785],[3.13631,41.847917],[3.135166,41.847033],[3.132979,41.846566],[3.132932,41.846082],[3.133723,41.843663],[3.132407,41.841862],[3.121522,41.841076],[3.128578,41.842859],[3.128427,41.844289],[3.125661,41.844572],[3.127972,41.8457],[3.123727,41.84788],[3.121956,41.847237],[3.118166,41.848268],[3.114721,41.849001],[3.10446,41.845679],[3.098461,41.841858],[3.097246,41.842373],[3.097558,41.84097],[3.093848,41.837531],[3.09343,41.831874],[3.092119,41.832771],[3.088464,41.831805],[3.084751,41.827052],[3.085508,41.82603],[3.083671,41.826452],[3.081309,41.824516],[3.080929,41.825335],[3.080196,41.82413],[3.074363,41.822017],[3.070044,41.816924],[3.064692,41.80288],[3.06644,41.800787],[3.065191,41.801878],[3.062802,41.801722],[3.062674,41.804471],[3.059197,41.803982],[3.055296,41.805044],[3.058525,41.803509],[3.060854,41.80364],[3.063127,41.80054],[3.065291,41.801171],[3.064086,41.799155],[3.060996,41.797981],[3.061531,41.795135],[3.057843,41.791363],[3.059278,41.790413],[3.055635,41.788769],[3.056288,41.787561],[3.054306,41.78781],[3.054068,41.790451],[3.050303,41.790578],[3.046015,41.788599],[3.045245,41.786434],[3.047038,41.785934],[3.047869,41.784162],[3.046785,41.784013],[3.049006,41.782824],[3.044473,41.781812],[3.044629,41.778879],[3.038713,41.778507],[3.037974,41.777934],[3.033513,41.776918],[3.03342,41.776698],[3.033163,41.776774],[3.033308,41.777037],[3.037841,41.778058],[3.038323,41.778446],[3.037838,41.780065],[3.031769,41.780367],[3.029779,41.779536],[3.029435,41.77869],[3.030797,41.778591],[3.029354,41.778343],[3.030527,41.777129],[3.029841,41.775977],[3.030749,41.773742],[3.031997,41.773838],[3.03132,41.772902],[3.033145,41.772491],[3.032639,41.77159],[3.028757,41.771101],[3.028049,41.773029],[3.025855,41.774],[3.025094,41.773194],[3.022669,41.773996],[3.011578,41.772158],[3.007729,41.770866],[3.003977,41.767138],[3.002195,41.766853],[3.003168,41.765173],[3.000609,41.765838],[2.998236,41.765017],[2.998204,41.763003],[2.983397,41.760096],[2.983425,41.759104],[2.980921,41.75919],[2.981646,41.757559],[2.978873,41.757992],[2.976555,41.756979],[2.975691,41.753765],[2.971789,41.753177],[2.965818,41.745198],[2.963377,41.744533],[2.961849,41.742065],[2.958355,41.740285],[2.95785,41.738213],[2.960478,41.737519],[2.958095,41.73658],[2.958723,41.735702],[2.956642,41.735684],[2.955417,41.737251],[2.953905,41.736753],[2.955032,41.733355],[2.954057,41.731002],[2.951179,41.732754],[2.951417,41.731176],[2.947205,41.730071],[2.948743,41.730072],[2.94806,41.727624],[2.945718,41.727124],[2.944425,41.725355],[2.941475,41.725157],[2.941195,41.723686],[2.939923,41.723833],[2.940154,41.721526],[2.938124,41.721793],[2.93524,41.720358],[2.933955,41.718022],[2.935401,41.71521],[2.933283,41.714654],[2.932691,41.715783],[2.931217,41.714527],[2.929723,41.715],[2.924379,41.711892],[2.919858,41.712891],[2.915972,41.710221],[2.916313,41.709357],[2.912528,41.707788],[2.911204,41.709198],[2.909162,41.708547],[2.90834,41.710183],[2.904449,41.71059],[2.899732,41.707629],[2.900643,41.705638],[2.897095,41.704938],[2.895583,41.703648],[2.889996,41.703242],[2.890264,41.702364],[2.887528,41.701209],[2.88558,41.70355],[2.882773,41.704253],[2.880873,41.703828],[2.879594,41.701274],[2.873683,41.70165],[2.87233,41.700126],[2.865687,41.69827],[2.86483,41.699277],[2.860882,41.699326],[2.860182,41.698498],[2.858058,41.699831],[2.853642,41.699751],[2.846026,41.696836],[2.845631,41.695002],[2.843755,41.695107],[2.842576,41.693366],[2.838452,41.692658],[2.836645,41.694452],[2.834629,41.694474],[2.830998,41.692705],[2.829791,41.690651],[2.828866,41.691175],[2.827045,41.689774],[2.824695,41.690478],[2.821947,41.688647],[2.819791,41.688837],[2.81709,41.686463],[2.816283,41.682588],[2.807879,41.678748],[2.808481,41.676773],[2.803358,41.67561],[2.802682,41.672782],[2.800934,41.673771],[2.797776,41.672031],[2.800867,41.673954],[2.798852,41.675317],[2.796065,41.67463],[2.797986,41.674496],[2.796478,41.673618],[2.795639,41.674426],[2.793343,41.673597],[2.791656,41.669929],[2.791289,41.670658],[2.789602,41.669915],[2.78655,41.665884],[2.778727,41.648806],[2.771314,41.660369],[2.765623,41.666129],[2.761785,41.669258],[2.758225,41.679114],[2.770213,41.687341],[2.774649,41.700224],[2.766193,41.725676],[2.769891,41.726578],[2.770881,41.72823],[2.777584,41.731007],[2.777216,41.735473],[2.745106,41.734965],[2.725159,41.744299],[2.707721,41.740957],[2.703337,41.744785],[2.70094,41.742834],[2.694516,41.741282],[2.690125,41.7415],[2.68933,41.746374],[2.682103,41.748245],[2.68109,41.744397],[2.685898,41.745617],[2.686934,41.741298],[2.681478,41.739553],[2.669816,41.745361],[2.664088,41.747472],[2.657952,41.747677],[2.656451,41.746058],[2.656651,41.742736],[2.647459,41.744],[2.642205,41.743989],[2.63975,41.742867],[2.638988,41.73528],[2.637247,41.73325],[2.628672,41.730845],[2.620934,41.731685],[2.611076,41.730539],[2.60405,41.727291],[2.598906,41.727966],[2.590298,41.728611],[2.584191,41.725551],[2.577693,41.724338],[2.571977,41.726047],[2.569362,41.726652],[2.561689,41.723118],[2.547664,41.719054]]],[[[2.004593,42.11664],[2.00337,42.117837],[2.004281,42.118814],[2.001624,42.120236],[2.006371,42.121235],[2.006169,42.123125],[2.00289,42.125555],[2.011214,42.126821],[2.017563,42.126047],[2.018669,42.12734],[2.022153,42.127664],[2.020759,42.131282],[2.026326,42.130866],[2.026628,42.130097],[2.030001,42.129021],[2.031776,42.126999],[2.030145,42.121227],[2.020086,42.121102],[2.021736,42.118878],[2.017919,42.110222],[2.015259,42.108376],[2.007902,42.10724],[2.006984,42.115824],[2.004593,42.11664]]],[[[1.976859,42.485938],[1.976415,42.490459],[1.97732,42.49403],[1.978623,42.494505],[1.987557,42.493188],[1.997441,42.488083],[1.996645,42.485426],[1.991057,42.484446],[1.988009,42.476719],[1.986137,42.475054],[1.986708,42.471068],[1.991956,42.465509],[1.992183,42.462555],[2.006481,42.457519],[2.010866,42.457002],[2.012498,42.454464],[2.01502,42.453309],[2.013855,42.44984],[2.004187,42.447662],[1.984176,42.446879],[1.969586,42.452061],[1.960714,42.453329],[1.957106,42.457672],[1.961862,42.472285],[1.9622,42.47778],[1.970643,42.481185],[1.97128,42.484615],[1.976859,42.485938]]],[[[2.792351,41.669911],[2.792312,41.670417],[2.792738,41.670612],[2.792351,41.669911]]],[[[2.803241,41.672853],[2.803654,41.673309],[2.803618,41.672906],[2.803241,41.672853]]],[[[2.8045,41.673365],[2.804464,41.673106],[2.804075,41.672909],[2.8045,41.673365]]],[[[2.839032,41.692692],[2.83901,41.69245],[2.83869,41.692367],[2.839032,41.692692]]],[[[2.886503,41.701298],[2.88688,41.701476],[2.887107,41.701338],[2.886503,41.701298]]],[[[2.895964,41.703475],[2.896714,41.703797],[2.896399,41.703507],[2.895964,41.703475]]],[[[2.912667,41.70734],[2.912294,41.707197],[2.911999,41.707779],[2.912667,41.70734]]],[[[2.939914,41.720098],[2.940348,41.720634],[2.940784,41.719765],[2.939914,41.720098]]],[[[2.946293,41.725546],[2.946291,41.725906],[2.94659,41.725503],[2.946293,41.725546]]],[[[2.946208,41.72618],[2.946002,41.725777],[2.945915,41.726259],[2.946208,41.72618]]],[[[3.028203,41.770572],[3.028481,41.770846],[3.028718,41.770554],[3.028203,41.770572]]],[[[3.025003,41.772991],[3.025312,41.772696],[3.024922,41.772645],[3.025003,41.772991]]],[[[3.024134,41.772956],[3.024128,41.772767],[3.02368,41.772728],[3.024134,41.772956]]],[[[3.041289,41.778146],[3.040678,41.778169],[3.041439,41.778336],[3.041289,41.778146]]],[[[3.045686,41.779498],[3.046116,41.779853],[3.046494,41.779527],[3.045686,41.779498]]],[[[3.044952,41.779879],[3.046071,41.780144],[3.045804,41.779861],[3.044952,41.779879]]],[[[3.094289,41.834321],[3.09415,41.834509],[3.09487,41.834614],[3.094289,41.834321]]],[[[3.094542,41.835469],[3.094871,41.835631],[3.095039,41.835505],[3.094542,41.835469]]],[[[3.129892,41.840988],[3.130337,41.840739],[3.129998,41.840587],[3.129892,41.840988]]],[[[3.133239,41.846138],[3.132932,41.846082],[3.132978,41.846179],[3.133239,41.846138]]],[[[3.137691,41.847375],[3.137775,41.847497],[3.138048,41.847329],[3.137691,41.847375]]],[[[3.138229,41.847832],[3.138628,41.847604],[3.138215,41.847563],[3.138229,41.847832]]],[[[3.141521,41.848268],[3.141495,41.848125],[3.14114,41.848189],[3.141521,41.848268]]],[[[3.14208,41.84858],[3.142176,41.848701],[3.142357,41.848574],[3.14208,41.84858]]],[[[3.153954,41.860867],[3.153618,41.860759],[3.153366,41.861016],[3.153954,41.860867]]],[[[3.165198,42.362248],[3.165468,42.362764],[3.165955,42.361919],[3.165198,42.362248]]],[[[3.165251,42.374532],[3.164971,42.374151],[3.16459,42.374352],[3.165251,42.374532]]],[[[3.165688,42.410749],[3.165134,42.410923],[3.165921,42.411267],[3.165688,42.410749]]],[[[3.179088,41.867388],[3.179481,41.867214],[3.178929,41.866992],[3.179088,41.867388]]],[[[3.178785,41.867495],[3.178855,41.867968],[3.179318,41.868024],[3.178785,41.867495]]],[[[3.178782,41.871068],[3.179075,41.871485],[3.178971,41.871157],[3.178782,41.871068]]],[[[3.206662,41.89983],[3.206789,41.899652],[3.206438,41.899878],[3.206662,41.89983]]],[[[3.209976,41.902936],[3.209737,41.903075],[3.210257,41.903101],[3.209976,41.902936]]],[[[3.208559,41.908189],[3.208151,41.908202],[3.209069,41.908224],[3.208559,41.908189]]],[[[3.217779,41.924152],[3.218685,41.924175],[3.218016,41.923986],[3.217779,41.924152]]],[[[3.217898,41.924758],[3.218514,41.924652],[3.217215,41.924426],[3.217898,41.924758]]],[[[3.219869,41.92519],[3.219046,41.925163],[3.219755,41.925386],[3.219869,41.92519]]],[[[3.218031,41.937623],[3.2184,41.938062],[3.218789,41.937608],[3.218031,41.937623]]],[[[3.228199,42.041718],[3.229089,42.041552],[3.228846,42.041296],[3.228199,42.041718]]],[[[3.227981,42.042081],[3.227869,42.041556],[3.22708,42.041878],[3.227981,42.042081]]],[[[3.224437,42.043993],[3.22731,42.043981],[3.226045,42.042897],[3.224444,42.043201],[3.224437,42.043993]]],[[[3.219472,42.048656],[3.223405,42.048739],[3.224741,42.050169],[3.225119,42.049474],[3.227024,42.047462],[3.225409,42.047379],[3.223255,42.044868],[3.219472,42.048656]]],[[[3.206334,42.073259],[3.205373,42.073311],[3.205149,42.074358],[3.206334,42.073259]]],[[[3.198442,42.084479],[3.197721,42.084402],[3.197617,42.084938],[3.198442,42.084479]]],[[[3.265067,42.23706],[3.26392,42.237096],[3.26434,42.237415],[3.265067,42.23706]]],[[[3.203946,42.240143],[3.204079,42.239902],[3.203385,42.24011],[3.203946,42.240143]]],[[[3.198504,42.242707],[3.199073,42.242946],[3.199181,42.242571],[3.198504,42.242707]]],[[[3.28406,42.27339],[3.283594,42.273694],[3.283835,42.273924],[3.28406,42.27339]]],[[[3.293787,42.280973],[3.292064,42.28096],[3.292766,42.282524],[3.293787,42.280973]]],[[[3.279057,42.282531],[3.28045,42.281428],[3.279338,42.281822],[3.279057,42.282531]]],[[[3.309749,42.290273],[3.309627,42.290505],[3.310114,42.290406],[3.309749,42.290273]]],[[[3.308643,42.291207],[3.308742,42.292201],[3.309459,42.291252],[3.308643,42.291207]]],[[[3.309128,42.292306],[3.309865,42.291914],[3.31005,42.291463],[3.309128,42.292306]]],[[[3.29606,42.294134],[3.297211,42.290731],[3.296244,42.290154],[3.293507,42.292609],[3.29606,42.294134]]],[[[3.29684,42.294046],[3.295722,42.295359],[3.296593,42.294978],[3.29684,42.294046]]],[[[3.291821,42.303027],[3.292268,42.302885],[3.292281,42.302659],[3.291821,42.303027]]],[[[3.300962,42.304944],[3.301353,42.305346],[3.3013,42.305051],[3.300962,42.304944]]],[[[3.30681,42.310301],[3.306399,42.310315],[3.306447,42.310672],[3.30681,42.310301]]],[[[3.309296,42.311874],[3.30933,42.312214],[3.309587,42.311993],[3.309296,42.311874]]],[[[3.332369,42.319049],[3.331916,42.320209],[3.332624,42.320016],[3.332369,42.319049]]],[[[3.322404,42.323445],[3.322223,42.322006],[3.324042,42.321158],[3.321757,42.321473],[3.318719,42.324549],[3.320352,42.323297],[3.322404,42.323445]]],[[[3.304359,42.327107],[3.305798,42.328152],[3.306711,42.327454],[3.304359,42.327107]]],[[[3.285556,42.332437],[3.285567,42.332184],[3.28518,42.332314],[3.285556,42.332437]]],[[[3.287185,42.332104],[3.286186,42.333275],[3.287498,42.33269],[3.287185,42.332104]]],[[[3.244005,42.339388],[3.242259,42.339771],[3.242942,42.340166],[3.244005,42.339388]]],[[[3.18343,42.353134],[3.182735,42.353595],[3.183924,42.353584],[3.18343,42.353134]]],[[[3.167623,42.367662],[3.16799,42.367435],[3.167743,42.367268],[3.167623,42.367662]]],[[[3.167974,42.368264],[3.16811,42.367915],[3.167707,42.368143],[3.167974,42.368264]]]]}}
]
}
