{
"type": "FeatureCollection",
"name": "cod_prov_03",
"crs": { "type": "name", "properties": { "name": "urn:ogc:def:crs:OGC:1.3:CRS84" } },
"xy_coordinate_resolution": 1e-15,
"features": [
{"type":"Feature","properties":{"fid":40,"cod_ccaa":"10","provincia":"Alicante","cod_prov":"03"},"geometry":{"type":"MultiPolygon","coordinates":[[[[-0.758488,37.867806],[-0.761137,37.865153],[-0.762209,37.847015],[-0.771315,37.843899],[-0.781708,37.844807],[-0.790443,37.84836],[-0.797521,37.853007],[-0.803908,37.859146],[-0.809921,37.859907],[-0.830725,37.86442],[-0.841477,37.87225],[-0.851307,37.881748],[-0.857221,37.885217],[-0.90018,37.923129],[-0.922364,37.946466],[-0.934187,37.968888],[-0.957711,37.996965],[-0.966022,38.01269],[-0.981946,38.029275],[-0.981863,38.030643],[-0.998626,38.051422],[-1.000713,38.051773],[-1.0019,38.053803],[-1.006609,38.054973],[-1.010417,38.059544],[-1.022599,38.075691],[-1.025936,38.088101],[-1.030335,38.097079],[-1.030607,38.115845],[-1.036762,38.13772],[-1.025923,38.147432],[-1.008812,38.166914],[-1.004893,38.17211],[-0.99946,38.18352],[-0.997563,38.184682],[-0.991688,38.196143],[-0.988546,38.199532],[-0.977812,38.238302],[-0.968597,38.25576],[-0.967677,38.27564],[-0.971492,38.290088],[-0.984489,38.307127],[-0.989035,38.320551],[-1.010923,38.331611],[-1.028421,38.338566],[-1.058576,38.345558],[-1.084384,38.346217],[-1.088062,38.367769],[-1.086696,38.39787],[-1.088109,38.402048],[-1.087764,38.406872],[-1.085366,38.429153],[-1.077206,38.43147],[-1.085567,38.434581],[-1.094162,38.437929],[-1.082094,38.441129],[-1.059303,38.455748],[-1.034865,38.474525],[-1.013877,38.497058],[-1.017578,38.502176],[-1.026062,38.522819],[-1.015886,38.537091],[-1.009471,38.557941],[-1.001569,38.572675],[-1.012044,38.606121],[-1.01592,38.635057],[-1.023964,38.639987],[-1.026922,38.655503],[-1.014904,38.657296],[-1.010844,38.656569],[-1.009085,38.658269],[-0.991546,38.655068],[-0.962466,38.656925],[-0.929973,38.679899],[-0.915793,38.695965],[-0.927541,38.706815],[-0.928649,38.709466],[-0.927728,38.71308],[-0.934627,38.723123],[-0.937951,38.725912],[-0.939509,38.731742],[-0.945912,38.736721],[-0.947123,38.742211],[-0.955672,38.757913],[-0.961429,38.774792],[-0.950009,38.77606],[-0.928938,38.783834],[-0.914907,38.781412],[-0.917556,38.776207],[-0.913225,38.769606],[-0.904989,38.76708],[-0.887827,38.769095],[-0.885129,38.771587],[-0.882537,38.772045],[-0.861693,38.77089],[-0.860173,38.769367],[-0.84119,38.746194],[-0.83575,38.741174],[-0.837559,38.736495],[-0.834622,38.732431],[-0.831677,38.732439],[-0.824117,38.736281],[-0.817417,38.737949],[-0.81038,38.738196],[-0.807747,38.736642],[-0.806638,38.735315],[-0.801059,38.737165],[-0.792657,38.739169],[-0.787586,38.746543],[-0.783733,38.748353],[-0.779585,38.746688],[-0.770477,38.750614],[-0.765746,38.751047],[-0.761458,38.749063],[-0.758062,38.750224],[-0.756502,38.752635],[-0.752078,38.75538],[-0.747232,38.754709],[-0.74336,38.755635],[-0.745751,38.758636],[-0.744788,38.759258],[-0.737159,38.756668],[-0.734931,38.759445],[-0.731994,38.756262],[-0.736025,38.753592],[-0.733289,38.751701],[-0.722215,38.753675],[-0.717193,38.750576],[-0.712856,38.742968],[-0.708385,38.739231],[-0.707189,38.733819],[-0.688785,38.741268],[-0.686772,38.737688],[-0.677571,38.729107],[-0.674999,38.7293],[-0.671058,38.731645],[-0.653195,38.730548],[-0.64344,38.727766],[-0.643555,38.718335],[-0.640012,38.707172],[-0.642469,38.70414],[-0.63958,38.701424],[-0.638116,38.697682],[-0.629472,38.689624],[-0.6287,38.686554],[-0.618051,38.686653],[-0.616801,38.689691],[-0.608929,38.694422],[-0.603735,38.695388],[-0.596657,38.69973],[-0.593788,38.699887],[-0.590704,38.704094],[-0.587857,38.704279],[-0.58416,38.708563],[-0.577863,38.710803],[-0.571484,38.711049],[-0.551234,38.717113],[-0.537448,38.731401],[-0.530286,38.734619],[-0.524548,38.735552],[-0.523311,38.738057],[-0.515869,38.739701],[-0.514168,38.742305],[-0.51141,38.743219],[-0.507115,38.742975],[-0.50747,38.755263],[-0.515296,38.755231],[-0.520884,38.756692],[-0.525193,38.760189],[-0.525848,38.763888],[-0.529627,38.767095],[-0.53152,38.767225],[-0.54187,38.763803],[-0.541813,38.761766],[-0.556458,38.757505],[-0.556879,38.75528],[-0.559908,38.753856],[-0.563015,38.755534],[-0.565642,38.755427],[-0.571046,38.760972],[-0.576561,38.764285],[-0.584261,38.768364],[-0.588647,38.774482],[-0.590356,38.77841],[-0.589292,38.780262],[-0.591071,38.782812],[-0.589977,38.784538],[-0.591626,38.784797],[-0.592695,38.788252],[-0.596298,38.790317],[-0.593529,38.792215],[-0.59451,38.79456],[-0.596147,38.794805],[-0.580227,38.80087],[-0.567602,38.801705],[-0.560197,38.804119],[-0.548261,38.805653],[-0.546679,38.805449],[-0.535306,38.810363],[-0.525637,38.810582],[-0.51583,38.806833],[-0.479462,38.804648],[-0.477539,38.805291],[-0.474493,38.803856],[-0.461876,38.807645],[-0.461361,38.810463],[-0.460618,38.814862],[-0.453541,38.817276],[-0.447455,38.819693],[-0.444305,38.820498],[-0.443342,38.81908],[-0.44027,38.823824],[-0.432242,38.826423],[-0.431534,38.826551],[-0.404066,38.833125],[-0.404351,38.838924],[-0.402211,38.839787],[-0.393159,38.836243],[-0.38237,38.834542],[-0.369782,38.842926],[-0.355173,38.849795],[-0.351336,38.856329],[-0.349892,38.857342],[-0.354089,38.857905],[-0.35335,38.858573],[-0.348261,38.861557],[-0.34475,38.861766],[-0.335712,38.864037],[-0.33135,38.862946],[-0.323667,38.863491],[-0.322447,38.866526],[-0.317383,38.868807],[-0.315909,38.87307],[-0.312713,38.874988],[-0.310808,38.881511],[-0.299252,38.881695],[-0.289107,38.872622],[-0.282402,38.869817],[-0.27338,38.864021],[-0.260273,38.859931],[-0.245837,38.858654],[-0.242099,38.860574],[-0.240678,38.858883],[-0.230539,38.85349],[-0.196316,38.859438],[-0.197637,38.866318],[-0.180066,38.878758],[-0.167562,38.879888],[-0.162327,38.882833],[-0.160832,38.887391],[-0.15465,38.873629],[-0.153762,38.871886],[-0.155093,38.860477],[-0.148076,38.858431],[-0.102096,38.875028],[-0.095441,38.874872],[-0.092085,38.871527],[-0.090734,38.872736],[-0.092173,38.874466],[-0.089706,38.875891],[-0.089789,38.879235],[-0.086158,38.88037],[-0.082698,38.879851],[-0.0801,38.881381],[-0.07828,38.880515],[-0.078697,38.88412],[-0.076596,38.883635],[-0.070944,38.885701],[-0.069697,38.885183],[-0.067988,38.883572],[-0.067525,38.879705],[-0.06523,38.878629],[-0.06489,38.874846],[-0.056957,38.869061],[-0.045895,38.864583],[-0.042152,38.856452],[-0.034679,38.856893],[-0.027397,38.8616],[-0.028418,38.867247],[-0.027625,38.870245],[-0.024795,38.872335],[-0.02624,38.873894],[-0.029327,38.873937],[-0.033358,38.879265],[-0.037107,38.880576],[-0.037694,38.886421],[-0.030366,38.88081],[-0.012761,38.871028],[0.006163,38.866956],[0.013862,38.863991],[0.020686,38.86513],[0.03322,38.860183],[0.036503,38.859882],[0.042848,38.860077],[0.050466,38.863346],[0.054574,38.863212],[0.078574,38.8565],[0.094514,38.85424],[0.102309,38.848286],[0.107084,38.847105],[0.111267,38.84766],[0.119741,38.844929],[0.125714,38.848499],[0.119849,38.844755],[0.111012,38.84736],[0.108839,38.846923],[0.108992,38.845946],[0.116615,38.837427],[0.120038,38.836156],[0.12158,38.838502],[0.120692,38.843219],[0.122012,38.844184],[0.120921,38.843204],[0.121865,38.83844],[0.12039,38.836038],[0.124615,38.833358],[0.129484,38.832254],[0.133521,38.834767],[0.139713,38.832574],[0.147348,38.831503],[0.150765,38.828015],[0.154472,38.827725],[0.156778,38.824663],[0.159377,38.8238],[0.160946,38.820748],[0.166759,38.817825],[0.168084,38.817734],[0.173775,38.813643],[0.181072,38.812525],[0.190392,38.808514],[0.19918,38.802417],[0.19699,38.800297],[0.190322,38.799975],[0.187792,38.795405],[0.188446,38.799216],[0.185814,38.799054],[0.183228,38.797079],[0.18435,38.796941],[0.18268,38.794842],[0.183479,38.787703],[0.191306,38.776355],[0.19069,38.773129],[0.192603,38.771896],[0.194229,38.772761],[0.206916,38.762098],[0.210189,38.760675],[0.214952,38.761445],[0.219773,38.760168],[0.220965,38.760567],[0.221026,38.762944],[0.224842,38.764388],[0.221786,38.757599],[0.225987,38.754564],[0.223984,38.751232],[0.226044,38.744608],[0.233105,38.745575],[0.231483,38.739971],[0.23333,38.739361],[0.231692,38.736947],[0.232878,38.735455],[0.2309,38.733663],[0.231938,38.731436],[0.226351,38.733284],[0.222446,38.730834],[0.218862,38.730942],[0.21524,38.727889],[0.21358,38.732403],[0.201509,38.73123],[0.199061,38.728964],[0.196374,38.728524],[0.199487,38.726141],[0.198946,38.725084],[0.190261,38.72425],[0.185809,38.722146],[0.184732,38.720167],[0.182547,38.720929],[0.179347,38.716801],[0.175141,38.713222],[0.167064,38.710504],[0.164352,38.703506],[0.157989,38.697895],[0.155907,38.698075],[0.156823,38.696647],[0.155575,38.687112],[0.153154,38.685629],[0.153751,38.684028],[0.149646,38.679282],[0.148619,38.6792],[0.147161,38.683138],[0.146872,38.687335],[0.138846,38.686787],[0.138461,38.68579],[0.138189,38.687069],[0.136703,38.687224],[0.136637,38.686658],[0.137876,38.686526],[0.137746,38.685592],[0.137848,38.686487],[0.137369,38.68563],[0.137019,38.686577],[0.13688,38.685682],[0.136984,38.686579],[0.13637,38.685738],[0.135083,38.686782],[0.13486,38.685643],[0.139379,38.68489],[0.134768,38.685354],[0.134048,38.686871],[0.131628,38.686392],[0.131588,38.687144],[0.125352,38.684995],[0.121063,38.68197],[0.115315,38.673702],[0.108538,38.675077],[0.098485,38.672758],[0.097856,38.670955],[0.094743,38.66992],[0.093384,38.667443],[0.088192,38.664553],[0.088634,38.662028],[0.084869,38.659534],[0.078,38.652877],[0.079135,38.650955],[0.075131,38.647331],[0.07345,38.642141],[0.073868,38.640887],[0.07562,38.64103],[0.076706,38.636091],[0.080276,38.634952],[0.082875,38.632343],[0.082502,38.631164],[0.075213,38.63286],[0.073379,38.632143],[0.071612,38.633261],[0.071235,38.635731],[0.06996,38.635719],[0.071584,38.637433],[0.07037,38.639411],[0.055121,38.641955],[0.045929,38.641087],[0.039292,38.63707],[0.034886,38.635825],[0.034317,38.633794],[0.030346,38.63114],[0.031299,38.628945],[0.029522,38.628468],[0.030573,38.6259],[0.010109,38.63279],[0.00572,38.630011],[0.005646,38.628517],[0.0022,38.630705],[-0.003718,38.630902],[-0.006481,38.630198],[-0.006507,38.629297],[-0.007899,38.629792],[-0.016674,38.626458],[-0.023168,38.621083],[-0.028648,38.618808],[-0.03221,38.615691],[-0.032969,38.612602],[-0.039302,38.606303],[-0.041774,38.606519],[-0.043134,38.604977],[-0.042399,38.603318],[-0.053749,38.593334],[-0.052854,38.589402],[-0.055441,38.591539],[-0.064021,38.577051],[-0.064102,38.571702],[-0.048942,38.563572],[-0.053123,38.559542],[-0.05918,38.558451],[-0.066947,38.550285],[-0.068297,38.547283],[-0.068725,38.543798],[-0.073619,38.541362],[-0.07491,38.538683],[-0.079113,38.537697],[-0.085264,38.533941],[-0.089699,38.529222],[-0.094823,38.527286],[-0.097395,38.523512],[-0.104037,38.527479],[-0.105873,38.526596],[-0.10661,38.528525],[-0.108914,38.528852],[-0.107717,38.531534],[-0.109372,38.533152],[-0.126551,38.534981],[-0.129964,38.534245],[-0.131331,38.532467],[-0.131614,38.534285],[-0.134488,38.533554],[-0.132968,38.53485],[-0.133852,38.535682],[-0.141662,38.536603],[-0.149759,38.535765],[-0.153769,38.534133],[-0.161271,38.528882],[-0.161923,38.526898],[-0.160233,38.524965],[-0.163897,38.523333],[-0.166209,38.524028],[-0.167714,38.523119],[-0.174097,38.515633],[-0.178598,38.515201],[-0.180244,38.516808],[-0.186754,38.513947],[-0.18862,38.515199],[-0.199648,38.514427],[-0.211604,38.510379],[-0.216845,38.506792],[-0.215299,38.508828],[-0.216745,38.509682],[-0.222857,38.508485],[-0.227351,38.506735],[-0.232121,38.502226],[-0.233279,38.502524],[-0.237597,38.499364],[-0.248474,38.49853],[-0.26517,38.494534],[-0.276975,38.489746],[-0.279021,38.48992],[-0.281313,38.487802],[-0.285878,38.48834],[-0.301444,38.481934],[-0.316284,38.474626],[-0.31887,38.471045],[-0.334012,38.462886],[-0.341075,38.4581],[-0.342913,38.455493],[-0.352145,38.452458],[-0.357374,38.448585],[-0.360596,38.448496],[-0.362019,38.446861],[-0.363346,38.447557],[-0.363719,38.446124],[-0.372478,38.443753],[-0.377381,38.439647],[-0.375988,38.438904],[-0.376771,38.437822],[-0.381455,38.436918],[-0.38355,38.431883],[-0.386719,38.431683],[-0.38935,38.427012],[-0.391357,38.421867],[-0.39025,38.418571],[-0.391902,38.41468],[-0.401271,38.412086],[-0.405147,38.401053],[-0.408882,38.382276],[-0.409853,38.359984],[-0.408841,38.357444],[-0.402897,38.352793],[-0.412202,38.352041],[-0.414061,38.353256],[-0.415402,38.352472],[-0.420193,38.353692],[-0.425583,38.353446],[-0.426725,38.354935],[-0.434105,38.355305],[-0.434896,38.360254],[-0.437763,38.361377],[-0.4404,38.360813],[-0.438452,38.361284],[-0.440214,38.361248],[-0.442254,38.362952],[-0.444932,38.362864],[-0.451094,38.358675],[-0.462441,38.354626],[-0.466234,38.35079],[-0.468023,38.35124],[-0.474094,38.348104],[-0.478498,38.343868],[-0.477587,38.337076],[-0.4895,38.327989],[-0.478566,38.337188],[-0.479188,38.339944],[-0.481637,38.338959],[-0.479793,38.340554],[-0.480374,38.343557],[-0.484812,38.342179],[-0.482981,38.341625],[-0.484706,38.342011],[-0.484496,38.340971],[-0.485287,38.341797],[-0.487365,38.339288],[-0.485651,38.337836],[-0.482923,38.338613],[-0.48253,38.337903],[-0.485175,38.337024],[-0.485074,38.335842],[-0.486188,38.336684],[-0.490398,38.335279],[-0.489349,38.334427],[-0.487586,38.335615],[-0.486481,38.334906],[-0.489627,38.332363],[-0.490232,38.334273],[-0.49186,38.33414],[-0.492182,38.335177],[-0.497969,38.334325],[-0.496638,38.332157],[-0.494404,38.332583],[-0.49196,38.330587],[-0.493611,38.329291],[-0.498251,38.333003],[-0.499577,38.332372],[-0.502561,38.334567],[-0.504983,38.333377],[-0.51085,38.32558],[-0.516937,38.309899],[-0.517589,38.303419],[-0.519973,38.297724],[-0.519444,38.296786],[-0.52014,38.29125],[-0.5198,38.290671],[-0.519866,38.279358],[-0.519753,38.279055],[-0.519463,38.274879],[-0.522147,38.274849],[-0.520902,38.274785],[-0.519436,38.27488],[-0.515142,38.240262],[-0.511542,38.231274],[-0.510434,38.224241],[-0.507453,38.218222],[-0.507814,38.2083],[-0.509959,38.202011],[-0.516457,38.195256],[-0.525351,38.191227],[-0.536691,38.18878],[-0.538474,38.185673],[-0.537589,38.188204],[-0.538603,38.188955],[-0.548555,38.189749],[-0.556436,38.18895],[-0.56078,38.185021],[-0.556703,38.19019],[-0.561231,38.191198],[-0.59344,38.188543],[-0.600854,38.184577],[-0.612558,38.175417],[-0.617603,38.165968],[-0.62601,38.154478],[-0.63425,38.142462],[-0.638526,38.128374],[-0.646071,38.090941],[-0.650573,38.05469],[-0.65194,38.03401],[-0.650448,38.029583],[-0.650608,38.029032],[-0.652105,38.028638],[-0.653238,38.025021],[-0.652776,38.00876],[-0.647628,38.004273],[-0.648386,37.99986],[-0.653262,37.997821],[-0.654271,37.994174],[-0.655549,37.993808],[-0.654229,37.992745],[-0.656409,37.991468],[-0.654946,37.990466],[-0.656659,37.986616],[-0.655578,37.985302],[-0.657864,37.984491],[-0.656357,37.983195],[-0.659032,37.983947],[-0.661626,37.983057],[-0.664912,37.980482],[-0.664864,37.978061],[-0.666656,37.976106],[-0.669513,37.977302],[-0.678151,37.974234],[-0.68083,37.9687],[-0.687794,37.964439],[-0.681269,37.968862],[-0.680325,37.97288],[-0.682115,37.975294],[-0.682456,37.974494],[-0.683918,37.975005],[-0.682879,37.973998],[-0.685738,37.973825],[-0.683862,37.973968],[-0.684904,37.974993],[-0.683972,37.975209],[-0.687922,37.975909],[-0.694361,37.972692],[-0.693934,37.9708],[-0.695968,37.970962],[-0.69847,37.968271],[-0.70446,37.956913],[-0.706367,37.946173],[-0.705798,37.9416],[-0.705091,37.940759],[-0.710447,37.941611],[-0.717067,37.93728],[-0.718363,37.935106],[-0.722493,37.920723],[-0.719231,37.91218],[-0.720113,37.91089],[-0.724161,37.910897],[-0.728984,37.913838],[-0.732127,37.912628],[-0.736076,37.908856],[-0.740805,37.90892],[-0.745458,37.902926],[-0.746533,37.899388],[-0.748236,37.900204],[-0.750508,37.898058],[-0.75209,37.888311],[-0.753957,37.880732],[-0.75261,37.879057],[-0.754692,37.873014],[-0.753973,37.871973],[-0.756215,37.869673],[-0.755245,37.867528],[-0.758488,37.867806]]],[[[-0.481336,38.164887],[-0.487511,38.167056],[-0.48086,38.167343],[-0.480443,38.16698],[-0.479467,38.167032],[-0.479452,38.166449],[-0.478079,38.166368],[-0.478687,38.167635],[-0.477827,38.166643],[-0.477596,38.16609],[-0.476346,38.165743],[-0.472031,38.166665],[-0.464763,38.162872],[-0.466642,38.163354],[-0.471108,38.162021],[-0.472572,38.163152],[-0.475906,38.162829],[-0.47821,38.165465],[-0.481336,38.164887]]],[[[-0.48545,38.164986],[-0.485594,38.164988],[-0.485462,38.165069],[-0.48545,38.164986]]],[[[-0.484687,38.165781],[-0.484793,38.165794],[-0.484554,38.165898],[-0.484687,38.165781]]],[[[-0.477063,38.166299],[-0.477074,38.166154],[-0.477223,38.166141],[-0.477063,38.166299]]],[[[-0.480717,38.167317],[-0.480698,38.167299],[-0.480787,38.167301],[-0.480717,38.167317]]],[[[-0.380992,38.431339],[-0.382864,38.431849],[-0.382825,38.432623],[-0.380992,38.431339]]],[[[-0.128216,38.501776],[-0.12941,38.501148],[-0.132401,38.502068],[-0.130717,38.504054],[-0.128216,38.501776]]],[[[0.219131,38.725917],[0.215837,38.727854],[0.218221,38.727167],[0.219131,38.725917]]],[[[0.228514,38.753963],[0.229538,38.757285],[0.231462,38.756575],[0.23077,38.753747],[0.228514,38.753963]]]]}}
]
}
