{
"type": "FeatureCollection",
"name": "cod_prov_02",
"crs": { "type": "name", "properties": { "name": "urn:ogc:def:crs:OGC:1.3:CRS84" } },
"xy_coordinate_resolution": 1e-15,
"features": [
{"type":"Feature","properties":{"fid":47,"cod_ccaa":"08","provincia":"Albacete","cod_prov":"02"},"geometry":{"type":"MultiPolygon","coordinates":[[[[-2.222567,38.183754],[-2.221346,38.180421],[-2.222108,38.177479],[-2.231563,38.162201],[-2.237591,38.157734],[-2.245599,38.148233],[-2.251011,38.139119],[-2.249604,38.135001],[-2.250402,38.128345],[-2.261647,38.11296],[-2.272836,38.105071],[-2.293356,38.087333],[-2.312044,38.079008],[-2.325801,38.069661],[-2.329898,38.065403],[-2.329782,38.060653],[-2.337803,38.048441],[-2.344407,38.02993],[-2.341628,38.026003],[-2.352352,38.024467],[-2.357918,38.022443],[-2.373075,38.023282],[-2.397192,38.031952],[-2.422112,38.033366],[-2.424078,38.03407],[-2.431699,38.043165],[-2.436096,38.043411],[-2.458538,38.050826],[-2.46235,38.050186],[-2.47164,38.056384],[-2.4784,38.053088],[-2.480702,38.053116],[-2.481769,38.055257],[-2.491454,38.059112],[-2.504398,38.068324],[-2.52256,38.069941],[-2.531186,38.074085],[-2.539305,38.07574],[-2.546796,38.079347],[-2.54975,38.082891],[-2.551294,38.084096],[-2.548365,38.087482],[-2.548533,38.089835],[-2.545867,38.089519],[-2.539666,38.092613],[-2.536962,38.098271],[-2.526956,38.102521],[-2.524887,38.106749],[-2.520272,38.107767],[-2.519598,38.111315],[-2.51541,38.116823],[-2.516542,38.119819],[-2.51205,38.122892],[-2.512927,38.126492],[-2.510634,38.126401],[-2.508506,38.129006],[-2.498584,38.131713],[-2.485924,38.148764],[-2.481872,38.150477],[-2.480368,38.153327],[-2.476929,38.153862],[-2.474119,38.155778],[-2.472981,38.160081],[-2.468493,38.164982],[-2.468459,38.172804],[-2.467083,38.173636],[-2.463171,38.17315],[-2.457965,38.176253],[-2.4557,38.179884],[-2.44946,38.182198],[-2.446274,38.185193],[-2.447577,38.191121],[-2.445576,38.204937],[-2.447302,38.207784],[-2.452993,38.210469],[-2.454341,38.214972],[-2.4537,38.21825],[-2.453257,38.219465],[-2.450154,38.220342],[-2.442862,38.231267],[-2.4406,38.232644],[-2.44259,38.235457],[-2.442239,38.242503],[-2.443414,38.244239],[-2.446325,38.244586],[-2.442738,38.247507],[-2.444262,38.251399],[-2.43981,38.258182],[-2.440206,38.260112],[-2.436459,38.259905],[-2.437143,38.26309],[-2.43539,38.265019],[-2.436604,38.272127],[-2.439084,38.273752],[-2.44078,38.285106],[-2.441894,38.285905],[-2.446499,38.287783],[-2.473692,38.292396],[-2.481484,38.294945],[-2.485253,38.300387],[-2.48416,38.315884],[-2.484758,38.320149],[-2.481044,38.324459],[-2.480087,38.328636],[-2.481243,38.333454],[-2.478958,38.348809],[-2.486039,38.354131],[-2.490919,38.363272],[-2.490033,38.365449],[-2.492385,38.3713],[-2.481593,38.39308],[-2.482941,38.393509],[-2.48207,38.395281],[-2.483403,38.397855],[-2.491871,38.398739],[-2.512167,38.40006],[-2.515831,38.400174],[-2.520363,38.404059],[-2.524239,38.405147],[-2.531364,38.404978],[-2.534917,38.406254],[-2.54421,38.405659],[-2.545573,38.405565],[-2.545585,38.405562],[-2.550056,38.403104],[-2.554848,38.404051],[-2.558156,38.406334],[-2.558048,38.408966],[-2.563786,38.412898],[-2.571888,38.414127],[-2.575542,38.420025],[-2.577384,38.426187],[-2.575316,38.431073],[-2.576982,38.434287],[-2.569438,38.440812],[-2.568961,38.441909],[-2.571,38.443963],[-2.57036,38.447475],[-2.566967,38.453464],[-2.567405,38.460658],[-2.57332,38.468277],[-2.576797,38.477319],[-2.575721,38.482894],[-2.572608,38.487704],[-2.566629,38.490467],[-2.580084,38.503547],[-2.58513,38.503475],[-2.587539,38.507449],[-2.593722,38.511291],[-2.603536,38.5129],[-2.6043,38.512887],[-2.618605,38.512565],[-2.636215,38.50752],[-2.64398,38.507399],[-2.658182,38.502053],[-2.664058,38.501222],[-2.664993,38.499837],[-2.672726,38.496624],[-2.697436,38.500196],[-2.702512,38.501092],[-2.709844,38.505869],[-2.728103,38.511906],[-2.733347,38.514612],[-2.739031,38.52224],[-2.747899,38.525567],[-2.753783,38.525922],[-2.754589,38.528357],[-2.762078,38.532752],[-2.764249,38.535478],[-2.762561,38.535763],[-2.758627,38.535395],[-2.755166,38.537605],[-2.752127,38.543609],[-2.74896,38.543458],[-2.746791,38.546815],[-2.752287,38.550459],[-2.75229,38.552748],[-2.756348,38.55437],[-2.755662,38.557],[-2.757008,38.559273],[-2.759498,38.559558],[-2.76057,38.568383],[-2.7655,38.573854],[-2.760124,38.578187],[-2.756909,38.585057],[-2.754357,38.592666],[-2.754614,38.601337],[-2.750097,38.615566],[-2.757283,38.620258],[-2.763691,38.627886],[-2.762069,38.628496],[-2.744897,38.624314],[-2.737339,38.617593],[-2.729048,38.617141],[-2.728247,38.616076],[-2.717587,38.62217],[-2.717586,38.625126],[-2.706276,38.626495],[-2.702251,38.62479],[-2.699825,38.625361],[-2.697641,38.628374],[-2.686856,38.635429],[-2.682182,38.642626],[-2.682486,38.644123],[-2.674929,38.648175],[-2.668857,38.649222],[-2.660464,38.666861],[-2.655557,38.671434],[-2.654684,38.680767],[-2.649025,38.692997],[-2.649711,38.700822],[-2.646752,38.715484],[-2.641824,38.721146],[-2.637891,38.734625],[-2.640156,38.741742],[-2.643458,38.746384],[-2.662987,38.753525],[-2.666058,38.758842],[-2.674574,38.761615],[-2.681185,38.768346],[-2.685529,38.775225],[-2.696283,38.782931],[-2.710229,38.78494],[-2.711619,38.785953],[-2.722116,38.783807],[-2.732244,38.781848],[-2.732762,38.790969],[-2.73452,38.795289],[-2.743622,38.803294],[-2.750277,38.807111],[-2.752681,38.814731],[-2.752387,38.823156],[-2.749328,38.831531],[-2.751147,38.84835],[-2.755236,38.858884],[-2.756404,38.86779],[-2.760922,38.867943],[-2.762309,38.880769],[-2.772176,38.88506],[-2.780416,38.886113],[-2.790651,38.891574],[-2.792962,38.897796],[-2.792466,38.905554],[-2.798221,38.905727],[-2.799287,38.908053],[-2.803162,38.908132],[-2.835808,38.905975],[-2.839954,38.908405],[-2.842821,38.915645],[-2.850719,38.923089],[-2.857666,38.927379],[-2.865693,38.929037],[-2.870197,38.926699],[-2.876221,38.925507],[-2.879329,38.936009],[-2.882891,38.938491],[-2.880942,38.951114],[-2.877402,38.956129],[-2.872594,38.959972],[-2.871206,38.961439],[-2.870968,38.965548],[-2.865506,38.966524],[-2.858656,38.975059],[-2.844593,38.986359],[-2.838145,39.003742],[-2.837463,39.013852],[-2.832266,39.023243],[-2.821211,39.023145],[-2.816769,39.025292],[-2.809934,39.02383],[-2.806912,39.043371],[-2.809414,39.053801],[-2.805986,39.069213],[-2.807713,39.071712],[-2.805011,39.078944],[-2.815469,39.094019],[-2.822469,39.092642],[-2.831169,39.105306],[-2.834195,39.112294],[-2.833596,39.120854],[-2.842658,39.134491],[-2.824903,39.151001],[-2.806926,39.177844],[-2.793458,39.186886],[-2.781106,39.19719],[-2.773215,39.20934],[-2.76955,39.217965],[-2.759835,39.230389],[-2.732371,39.253019],[-2.722456,39.266332],[-2.724072,39.279816],[-2.726795,39.286364],[-2.735955,39.295639],[-2.739648,39.309876],[-2.743697,39.315994],[-2.742251,39.318153],[-2.731974,39.320878],[-2.718252,39.320359],[-2.704139,39.321892],[-2.69942,39.321141],[-2.691755,39.317877],[-2.683835,39.322163],[-2.677786,39.320704],[-2.665142,39.322957],[-2.662339,39.321949],[-2.653641,39.326104],[-2.648124,39.325142],[-2.643557,39.326623],[-2.634971,39.326759],[-2.628782,39.334191],[-2.619258,39.340143],[-2.593675,39.339417],[-2.585138,39.336846],[-2.567979,39.327043],[-2.548777,39.323455],[-2.532522,39.328888],[-2.529444,39.327578],[-2.511046,39.342153],[-2.494301,39.327637],[-2.483219,39.31519],[-2.466459,39.305788],[-2.452531,39.290577],[-2.441177,39.28353],[-2.431663,39.27706],[-2.418464,39.26374],[-2.396874,39.249636],[-2.385462,39.243873],[-2.374077,39.232783],[-2.369276,39.237046],[-2.364723,39.244707],[-2.361091,39.246553],[-2.361467,39.248528],[-2.359617,39.251843],[-2.361158,39.257005],[-2.34989,39.278542],[-2.344163,39.282159],[-2.329192,39.28611],[-2.321191,39.283739],[-2.319923,39.278172],[-2.314556,39.276834],[-2.30183,39.263612],[-2.300253,39.259079],[-2.302608,39.25184],[-2.297511,39.241167],[-2.291801,39.235105],[-2.288677,39.226661],[-2.280756,39.23082],[-2.278869,39.230718],[-2.245395,39.244914],[-2.218928,39.261517],[-2.208055,39.261624],[-2.205972,39.266422],[-2.181851,39.269309],[-2.181929,39.273482],[-2.178627,39.27827],[-2.168682,39.281074],[-2.152154,39.27581],[-2.136537,39.27492],[-2.121493,39.274618],[-2.095101,39.269704],[-2.075001,39.266041],[-2.055265,39.265765],[-2.050964,39.266676],[-2.050963,39.266676],[-2.058871,39.27257],[-2.057564,39.27757],[-2.057495,39.280128],[-2.060067,39.283699],[-2.059499,39.285443],[-2.065099,39.286353],[-2.067427,39.289165],[-2.066171,39.293741],[-2.066868,39.298026],[-2.06986,39.298915],[-2.070231,39.301567],[-2.074786,39.304424],[-2.077273,39.307597],[-2.077085,39.31302],[-2.073192,39.317089],[-2.073696,39.321121],[-2.07584,39.322156],[-2.077427,39.325863],[-2.078522,39.332548],[-2.082502,39.333454],[-2.087288,39.338321],[-2.088522,39.343377],[-2.086346,39.347441],[-2.088252,39.349015],[-2.09113,39.349001],[-2.090799,39.352144],[-2.096259,39.358917],[-2.081175,39.358583],[-2.074206,39.356257],[-2.066684,39.355494],[-2.054565,39.356468],[-2.044361,39.359169],[-2.020333,39.351824],[-2.028937,39.338065],[-2.018822,39.325411],[-2.006489,39.316458],[-1.995077,39.309809],[-1.9898,39.29368],[-1.966595,39.300036],[-1.955834,39.300715],[-1.93687,39.303958],[-1.909643,39.303643],[-1.886983,39.304943],[-1.871127,39.294959],[-1.845192,39.286118],[-1.816436,39.286199],[-1.786382,39.283484],[-1.769854,39.280508],[-1.766659,39.293476],[-1.763108,39.301494],[-1.739282,39.32116],[-1.735185,39.321944],[-1.716603,39.32494],[-1.696264,39.337589],[-1.674002,39.345519],[-1.660688,39.350376],[-1.647411,39.353422],[-1.62493,39.361709],[-1.612905,39.36818],[-1.598327,39.378547],[-1.58146,39.385316],[-1.560442,39.398943],[-1.555679,39.401848],[-1.534762,39.40747],[-1.529969,39.410608],[-1.515948,39.416143],[-1.505175,39.417996],[-1.497521,39.415239],[-1.492173,39.420864],[-1.48453,39.422982],[-1.482083,39.420643],[-1.483657,39.41824],[-1.488449,39.417392],[-1.487435,39.41218],[-1.489872,39.405806],[-1.488138,39.40063],[-1.481748,39.401267],[-1.478418,39.405927],[-1.474547,39.408777],[-1.470567,39.407509],[-1.466674,39.402295],[-1.467437,39.400881],[-1.475232,39.398623],[-1.476736,39.393057],[-1.473305,39.391147],[-1.466709,39.390645],[-1.462277,39.399975],[-1.459902,39.4008],[-1.455978,39.400712],[-1.45218,39.397589],[-1.454477,39.39297],[-1.452343,39.390203],[-1.458157,39.389307],[-1.457588,39.387209],[-1.452813,39.385245],[-1.453261,39.383377],[-1.456076,39.383108],[-1.459121,39.386148],[-1.463785,39.387381],[-1.468193,39.383331],[-1.462613,39.379392],[-1.457709,39.380138],[-1.448789,39.37819],[-1.448863,39.376416],[-1.45227,39.373029],[-1.449466,39.366495],[-1.455673,39.363496],[-1.455104,39.360849],[-1.444267,39.361759],[-1.44293,39.367606],[-1.438559,39.37308],[-1.432175,39.372517],[-1.434179,39.376373],[-1.432294,39.377582],[-1.428612,39.376127],[-1.42786,39.371341],[-1.432015,39.36409],[-1.429349,39.361883],[-1.424719,39.363397],[-1.422226,39.366336],[-1.42299,39.373654],[-1.425864,39.379585],[-1.422321,39.381195],[-1.418079,39.380075],[-1.414679,39.380298],[-1.411647,39.378825],[-1.409706,39.375861],[-1.410027,39.372982],[-1.407677,39.371688],[-1.401011,39.376886],[-1.396438,39.374778],[-1.399061,39.369227],[-1.40153,39.368351],[-1.407374,39.369143],[-1.409149,39.36769],[-1.407788,39.365779],[-1.401177,39.363508],[-1.39193,39.367363],[-1.384791,39.366701],[-1.382998,39.365581],[-1.38163,39.35949],[-1.385174,39.354277],[-1.3775,39.356405],[-1.372463,39.355893],[-1.366834,39.355895],[-1.362111,39.348936],[-1.357564,39.347349],[-1.355549,39.342202],[-1.350972,39.33948],[-1.342718,39.340174],[-1.338524,39.33742],[-1.339095,39.33586],[-1.336297,39.333973],[-1.333738,39.335738],[-1.330058,39.336307],[-1.330909,39.338068],[-1.334842,39.339539],[-1.333996,39.340509],[-1.328163,39.342308],[-1.321805,39.339369],[-1.318429,39.343186],[-1.312744,39.343167],[-1.309829,39.340394],[-1.299137,39.337743],[-1.299007,39.335921],[-1.301688,39.333978],[-1.298032,39.331158],[-1.293566,39.331597],[-1.291135,39.334724],[-1.285301,39.332287],[-1.285325,39.330818],[-1.284157,39.329251],[-1.281362,39.328706],[-1.277459,39.332711],[-1.273746,39.333197],[-1.271406,39.330243],[-1.268287,39.328746],[-1.262608,39.329914],[-1.259546,39.32803],[-1.254917,39.327113],[-1.250844,39.322502],[-1.249275,39.323082],[-1.248563,39.327432],[-1.247154,39.328574],[-1.244277,39.32161],[-1.238429,39.322594],[-1.227777,39.319504],[-1.223327,39.316112],[-1.219306,39.316447],[-1.214645,39.319078],[-1.213315,39.323491],[-1.210684,39.326117],[-1.207909,39.326237],[-1.203556,39.320917],[-1.20382,39.317839],[-1.197647,39.313577],[-1.194216,39.316015],[-1.191555,39.314397],[-1.188579,39.315576],[-1.168465,39.312513],[-1.165003,39.310512],[-1.161889,39.305418],[-1.166496,39.293336],[-1.174736,39.279239],[-1.17447,39.268468],[-1.175853,39.26566],[-1.17689,39.246666],[-1.176376,39.23025],[-1.180663,39.212297],[-1.189182,39.19942],[-1.192037,39.194652],[-1.194498,39.18041],[-1.197092,39.176729],[-1.210529,39.162222],[-1.226997,39.151707],[-1.232354,39.133687],[-1.24051,39.113735],[-1.255721,39.10617],[-1.255815,39.084024],[-1.265701,39.075468],[-1.263772,39.068339],[-1.265236,39.052466],[-1.26675,39.05102],[-1.263903,39.045094],[-1.259257,39.041348],[-1.252046,39.039546],[-1.239548,39.030555],[-1.226538,39.024672],[-1.208597,39.005053],[-1.201812,38.993],[-1.193263,38.98821],[-1.174775,38.967685],[-1.160888,38.954816],[-1.15453,38.939677],[-1.152731,38.939198],[-1.146654,38.929352],[-1.138325,38.927589],[-1.129105,38.929451],[-1.10592,38.928527],[-1.091123,38.931404],[-1.06992,38.933966],[-1.054215,38.934543],[-1.042628,38.9368],[-1.034595,38.934448],[-1.013443,38.939181],[-1.007076,38.946136],[-0.998794,38.949355],[-0.991825,38.94728],[-0.987774,38.947724],[-0.9773,38.942767],[-0.95941,38.944582],[-0.957548,38.933097],[-0.958646,38.928206],[-0.955973,38.923267],[-0.956524,38.920123],[-0.953429,38.919474],[-0.950487,38.911475],[-0.946668,38.908345],[-0.940855,38.899619],[-0.924537,38.891753],[-0.927585,38.884896],[-0.931932,38.879675],[-0.932574,38.867883],[-0.93075,38.863616],[-0.935697,38.855937],[-0.932297,38.841649],[-0.931189,38.829781],[-0.924879,38.823362],[-0.927784,38.815719],[-0.932796,38.811267],[-0.933848,38.793976],[-0.929013,38.786808],[-0.928938,38.783834],[-0.950009,38.77606],[-0.961429,38.774792],[-0.955672,38.757913],[-0.947123,38.742211],[-0.945912,38.736721],[-0.939509,38.731742],[-0.937951,38.725912],[-0.934627,38.723123],[-0.927728,38.71308],[-0.928649,38.709466],[-0.927541,38.706815],[-0.915793,38.695965],[-0.929973,38.679899],[-0.962466,38.656925],[-0.991546,38.655068],[-1.009085,38.658269],[-1.010844,38.656569],[-1.014904,38.657296],[-1.026922,38.655503],[-1.034103,38.656566],[-1.042985,38.661256],[-1.072823,38.682522],[-1.081596,38.686775],[-1.1156,38.711387],[-1.116773,38.732401],[-1.119671,38.737719],[-1.149851,38.746067],[-1.183634,38.755085],[-1.197315,38.749188],[-1.208873,38.747131],[-1.227572,38.745695],[-1.242599,38.740561],[-1.246139,38.738334],[-1.249757,38.738614],[-1.263812,38.729272],[-1.271528,38.718871],[-1.283819,38.707077],[-1.306568,38.696758],[-1.312546,38.695313],[-1.320139,38.689268],[-1.328159,38.685021],[-1.329248,38.682181],[-1.344323,38.677052],[-1.366666,38.704002],[-1.383771,38.699176],[-1.395879,38.692512],[-1.402754,38.690471],[-1.421665,38.676995],[-1.428208,38.667982],[-1.447698,38.649517],[-1.443291,38.636924],[-1.447986,38.614639],[-1.452001,38.581459],[-1.466682,38.575789],[-1.487695,38.563309],[-1.492432,38.551335],[-1.498732,38.532055],[-1.488413,38.514792],[-1.487091,38.505097],[-1.481573,38.489336],[-1.47987,38.479834],[-1.479926,38.466777],[-1.476522,38.44716],[-1.477697,38.421276],[-1.474885,38.408984],[-1.478547,38.376383],[-1.488299,38.373166],[-1.505903,38.359324],[-1.516243,38.357392],[-1.519467,38.353621],[-1.541094,38.343511],[-1.548379,38.332255],[-1.558197,38.325203],[-1.58954,38.309994],[-1.588732,38.312733],[-1.596002,38.311757],[-1.600605,38.313885],[-1.611466,38.312932],[-1.614165,38.311153],[-1.624856,38.310116],[-1.628679,38.308737],[-1.634489,38.31058],[-1.635696,38.309036],[-1.670246,38.311649],[-1.669358,38.315812],[-1.672776,38.319717],[-1.672544,38.32176],[-1.675443,38.322135],[-1.678809,38.325093],[-1.683958,38.326331],[-1.684791,38.328981],[-1.687048,38.330719],[-1.687951,38.335811],[-1.692732,38.33782],[-1.691539,38.342439],[-1.692411,38.346766],[-1.690711,38.347765],[-1.684921,38.347096],[-1.681512,38.349572],[-1.685267,38.352012],[-1.681938,38.360148],[-1.687558,38.365825],[-1.69227,38.368555],[-1.697398,38.369243],[-1.699669,38.374062],[-1.701944,38.374925],[-1.707408,38.371462],[-1.711794,38.372024],[-1.712728,38.364555],[-1.713954,38.363171],[-1.716741,38.363517],[-1.718307,38.364273],[-1.717856,38.368432],[-1.723804,38.369308],[-1.729437,38.372568],[-1.733845,38.371192],[-1.734116,38.374007],[-1.734784,38.37578],[-1.74172,38.380487],[-1.745119,38.381235],[-1.751683,38.379674],[-1.751714,38.375854],[-1.75384,38.373407],[-1.76678,38.37923],[-1.771348,38.378548],[-1.770028,38.366567],[-1.771144,38.364857],[-1.77912,38.365707],[-1.780547,38.368605],[-1.782472,38.368508],[-1.784357,38.365996],[-1.785604,38.366044],[-1.792751,38.369912],[-1.795756,38.370268],[-1.796955,38.364927],[-1.790613,38.359446],[-1.784304,38.356154],[-1.79484,38.353037],[-1.811027,38.351373],[-1.821903,38.336252],[-1.827297,38.333864],[-1.843102,38.334292],[-1.854242,38.33022],[-1.868718,38.317509],[-1.893224,38.30299],[-1.907538,38.297961],[-1.938611,38.292389],[-1.948856,38.289318],[-1.96286,38.287919],[-1.969494,38.284598],[-1.982631,38.28137],[-2.000157,38.283963],[-2.01031,38.291556],[-2.011332,38.293782],[-2.013929,38.293714],[-2.021032,38.300352],[-2.02678,38.300706],[-2.030058,38.2993],[-2.048992,38.305782],[-2.063772,38.297592],[-2.07622,38.282776],[-2.083526,38.265539],[-2.099298,38.250052],[-2.113728,38.238202],[-2.139173,38.231605],[-2.149308,38.230625],[-2.152138,38.228978],[-2.159694,38.228645],[-2.169054,38.22644],[-2.175251,38.223988],[-2.186794,38.214389],[-2.197282,38.211153],[-2.20347,38.207221],[-2.206659,38.207026],[-2.213523,38.201809],[-2.215825,38.193731],[-2.222567,38.183754]]]]}}
]
}
