{
"type": "FeatureCollection",
"name": "cod_prov_34",
"crs": { "type": "name", "properties": { "name": "urn:ogc:def:crs:OGC:1.3:CRS84" } },
"xy_coordinate_resolution": 1e-15,
"features": [
{"type":"Feature","properties":{"fid":29,"cod_ccaa":"07","provincia":"Palencia","cod_prov":"34"},"geometry":{"type":"MultiPolygon","coordinates":[[[[-4.701094,41.887282],[-4.717296,41.874305],[-4.728247,41.868827],[-4.731443,41.865366],[-4.732298,41.861777],[-4.72644,41.854516],[-4.748058,41.840553],[-4.755364,41.832435],[-4.758421,41.825786],[-4.769237,41.825854],[-4.770089,41.823121],[-4.789249,41.818024],[-4.788928,41.819497],[-4.793394,41.822048],[-4.795484,41.830022],[-4.799198,41.834098],[-4.801868,41.84127],[-4.80716,41.848248],[-4.809738,41.856386],[-4.813828,41.862995],[-4.822895,41.867444],[-4.828828,41.874402],[-4.832386,41.880398],[-4.832461,41.886809],[-4.838269,41.898533],[-4.856101,41.913187],[-4.857908,41.913104],[-4.855942,41.915594],[-4.859159,41.91511],[-4.860567,41.917474],[-4.863026,41.918281],[-4.867697,41.917601],[-4.86932,41.923213],[-4.869086,41.931728],[-4.873961,41.933044],[-4.889779,41.932785],[-4.899848,41.928241],[-4.911798,41.915659],[-4.915782,41.916232],[-4.916638,41.917839],[-4.927937,41.915029],[-4.929605,41.916352],[-4.930028,41.917975],[-4.928069,41.918999],[-4.932448,41.926652],[-4.942069,41.929732],[-4.943067,41.93121],[-4.949587,41.933829],[-4.95544,41.931153],[-4.957197,41.928277],[-4.967037,41.924669],[-4.971915,41.919379],[-4.973289,41.920166],[-4.977399,41.918528],[-4.975767,41.91798],[-4.976451,41.9136],[-4.983091,41.911892],[-4.983684,41.910026],[-4.986925,41.913446],[-4.987099,41.921774],[-4.990039,41.925569],[-4.997342,41.928891],[-5.00485,41.937947],[-5.0019,41.940826],[-5.001505,41.943211],[-5.005105,41.947228],[-5.002462,41.947968],[-5.000146,41.951061],[-4.995379,41.957989],[-4.994074,41.962569],[-4.983269,41.966683],[-4.983019,41.969911],[-4.976109,41.973615],[-4.974403,41.977382],[-4.971491,41.988996],[-4.975495,41.993547],[-4.970263,41.998519],[-4.969764,41.997591],[-4.96554,42.007056],[-4.951009,42.012069],[-4.936007,42.017916],[-4.938131,42.019879],[-4.9497,42.051016],[-4.947625,42.054311],[-4.927747,42.073497],[-4.916759,42.07831],[-4.904177,42.078393],[-4.917824,42.090793],[-4.912132,42.091293],[-4.920197,42.096499],[-4.924262,42.110552],[-4.928707,42.118313],[-4.925077,42.120688],[-4.928993,42.130511],[-4.929796,42.14461],[-4.927497,42.150214],[-4.938588,42.151162],[-4.94424,42.152741],[-4.960942,42.151556],[-4.962443,42.149604],[-4.963706,42.151293],[-4.965638,42.151548],[-4.966398,42.155759],[-4.979903,42.151033],[-4.982267,42.148821],[-4.981249,42.146849],[-4.988482,42.144382],[-4.990184,42.145406],[-4.994307,42.144902],[-4.995112,42.147797],[-4.999187,42.146555],[-5.002402,42.149093],[-5.005805,42.149565],[-5.008536,42.148652],[-5.015294,42.153775],[-5.015027,42.156797],[-5.026966,42.153912],[-5.026037,42.1646],[-5.031894,42.173628],[-5.019504,42.17881],[-5.012393,42.18976],[-5.014556,42.193414],[-5.012948,42.194631],[-5.020383,42.205613],[-5.024899,42.217295],[-5.024667,42.219893],[-5.010341,42.228115],[-5.008972,42.242252],[-5.015505,42.248351],[-5.018808,42.253858],[-5.016546,42.258968],[-5.00866,42.261457],[-5.009914,42.266569],[-5.006202,42.275297],[-5.005926,42.281129],[-5.002141,42.289129],[-4.994784,42.293129],[-4.989928,42.291854],[-4.986679,42.293856],[-4.973502,42.288689],[-4.972292,42.290727],[-4.953447,42.297155],[-4.953985,42.299227],[-4.950628,42.308397],[-4.947987,42.310874],[-4.947114,42.3164],[-4.949192,42.318851],[-4.94614,42.322199],[-4.946197,42.324044],[-4.946018,42.325326],[-4.942432,42.327503],[-4.942288,42.329919],[-4.94074,42.335636],[-4.942496,42.346549],[-4.952914,42.346606],[-4.954248,42.344196],[-4.982111,42.337675],[-4.984205,42.337873],[-4.983487,42.342451],[-4.97715,42.349045],[-4.977704,42.355474],[-4.97174,42.367825],[-4.972552,42.374385],[-4.970002,42.374789],[-4.968769,42.377296],[-4.964496,42.379737],[-4.961262,42.376118],[-4.944827,42.376471],[-4.945643,42.377718],[-4.943299,42.379297],[-4.946305,42.381462],[-4.941578,42.382568],[-4.936195,42.382119],[-4.933301,42.384798],[-4.915582,42.382565],[-4.911422,42.381562],[-4.903239,42.386526],[-4.911251,42.392345],[-4.908377,42.396941],[-4.914314,42.401191],[-4.912596,42.40466],[-4.914826,42.414448],[-4.906433,42.419811],[-4.904984,42.424554],[-4.908698,42.428374],[-4.909923,42.43391],[-4.923985,42.436142],[-4.920933,42.437328],[-4.914247,42.440565],[-4.906351,42.44881],[-4.899999,42.450681],[-4.896043,42.465876],[-4.896845,42.469069],[-4.893383,42.476916],[-4.89251,42.486287],[-4.891913,42.491916],[-4.888398,42.499665],[-4.887874,42.508949],[-4.890287,42.509053],[-4.891234,42.518259],[-4.887989,42.537026],[-4.897297,42.537989],[-4.910456,42.541436],[-4.914514,42.544718],[-4.915732,42.549894],[-4.915232,42.56024],[-4.902219,42.57899],[-4.901088,42.594715],[-4.904805,42.599102],[-4.904806,42.603136],[-4.894658,42.623863],[-4.898404,42.635589],[-4.89728,42.643938],[-4.896184,42.655681],[-4.900416,42.669245],[-4.890575,42.692831],[-4.884973,42.69648],[-4.880129,42.701855],[-4.879724,42.704194],[-4.877586,42.704157],[-4.872398,42.707051],[-4.871669,42.707991],[-4.883811,42.712582],[-4.884883,42.718157],[-4.891284,42.72341],[-4.897261,42.724373],[-4.911038,42.718786],[-4.915892,42.72056],[-4.915425,42.723639],[-4.918463,42.734232],[-4.92833,42.736903],[-4.93636,42.744467],[-4.933484,42.753368],[-4.93556,42.756458],[-4.928636,42.75544],[-4.925103,42.759335],[-4.920621,42.757466],[-4.913662,42.769982],[-4.909636,42.77421],[-4.909088,42.779433],[-4.902787,42.784455],[-4.901631,42.783051],[-4.896208,42.784411],[-4.896615,42.799758],[-4.898999,42.801735],[-4.899191,42.80601],[-4.902859,42.809974],[-4.896968,42.817294],[-4.895909,42.827082],[-4.894762,42.829992],[-4.892041,42.832234],[-4.890395,42.838844],[-4.888556,42.841134],[-4.895737,42.847481],[-4.899426,42.849239],[-4.900808,42.851594],[-4.900937,42.85821],[-4.898371,42.863134],[-4.880486,42.865941],[-4.86848,42.862797],[-4.865584,42.860548],[-4.860648,42.870236],[-4.858436,42.878107],[-4.859463,42.883772],[-4.855501,42.891707],[-4.845998,42.897498],[-4.838389,42.895315],[-4.835979,42.899946],[-4.837858,42.906733],[-4.830454,42.91193],[-4.831078,42.913145],[-4.828375,42.917042],[-4.819723,42.922376],[-4.814533,42.923395],[-4.813083,42.927434],[-4.809235,42.930341],[-4.810896,42.936015],[-4.805146,42.941824],[-4.802649,42.949508],[-4.806521,42.95657],[-4.805179,42.961841],[-4.807251,42.967707],[-4.800496,42.970263],[-4.795671,42.973868],[-4.794816,42.986651],[-4.788024,42.992664],[-4.782909,42.993536],[-4.780773,42.998144],[-4.766934,43.001564],[-4.762401,43.009937],[-4.758546,43.012031],[-4.756988,43.015504],[-4.751778,43.015674],[-4.744284,43.017995],[-4.738836,43.018447],[-4.737005,43.020987],[-4.731088,43.022247],[-4.728707,43.018744],[-4.719707,43.01725],[-4.714484,43.019652],[-4.708816,43.025022],[-4.699509,43.026656],[-4.695757,43.025901],[-4.682421,43.025675],[-4.67552,43.02329],[-4.673173,43.021371],[-4.651436,43.020849],[-4.640379,43.01719],[-4.638132,43.016673],[-4.629563,43.023972],[-4.621451,43.025861],[-4.612549,43.029976],[-4.606084,43.035767],[-4.590607,43.025871],[-4.57431,43.026925],[-4.558449,43.019515],[-4.552108,43.025535],[-4.52092,43.047377],[-4.495852,43.038414],[-4.493979,43.039654],[-4.475714,43.038702],[-4.476463,43.041286],[-4.47115,43.051692],[-4.462459,43.059557],[-4.463098,43.060062],[-4.461062,43.060709],[-4.456763,43.057045],[-4.449416,43.057409],[-4.447552,43.05854],[-4.44248,43.055902],[-4.431866,43.045689],[-4.42243,43.042754],[-4.414984,43.041414],[-4.413954,43.041985],[-4.403983,43.038137],[-4.398115,43.034868],[-4.392273,43.02733],[-4.389169,43.025738],[-4.38619,43.01604],[-4.377634,43.00992],[-4.374358,43.00607],[-4.374834,42.998797],[-4.373072,42.995657],[-4.366972,42.99112],[-4.362886,42.984928],[-4.360492,42.982624],[-4.347324,42.972154],[-4.335034,42.970344],[-4.331999,42.971181],[-4.315474,42.969688],[-4.301908,42.96661],[-4.299026,42.966562],[-4.290719,42.969213],[-4.278035,42.965465],[-4.273256,42.966203],[-4.262226,42.965271],[-4.24596,42.959416],[-4.24025,42.956533],[-4.23849,42.954373],[-4.239172,42.93151],[-4.236703,42.917111],[-4.230986,42.913624],[-4.222566,42.910977],[-4.225127,42.906087],[-4.230817,42.903279],[-4.229665,42.900167],[-4.230612,42.896689],[-4.224274,42.880899],[-4.222846,42.865587],[-4.224002,42.861513],[-4.2257,42.858884],[-4.224679,42.856769],[-4.219497,42.850944],[-4.214234,42.847173],[-4.208986,42.844779],[-4.207298,42.845418],[-4.199694,42.84457],[-4.193497,42.850677],[-4.185601,42.854443],[-4.181203,42.858694],[-4.177541,42.859254],[-4.172012,42.85814],[-4.167619,42.859544],[-4.149902,42.871133],[-4.14426,42.868614],[-4.148994,42.865757],[-4.145256,42.862219],[-4.141223,42.861881],[-4.139094,42.859309],[-4.12612,42.856636],[-4.125502,42.854292],[-4.127778,42.852901],[-4.128477,42.846266],[-4.137029,42.839428],[-4.137372,42.833481],[-4.140962,42.830392],[-4.140447,42.829001],[-4.145036,42.82973],[-4.145572,42.828959],[-4.148568,42.830172],[-4.150548,42.831386],[-4.15196,42.835604],[-4.157751,42.837743],[-4.161819,42.836081],[-4.163261,42.834067],[-4.163212,42.830105],[-4.165452,42.828209],[-4.178567,42.826247],[-4.183215,42.821733],[-4.18543,42.817297],[-4.182705,42.810346],[-4.178825,42.810881],[-4.173657,42.808575],[-4.16036,42.796652],[-4.155774,42.795329],[-4.149916,42.78931],[-4.144402,42.79131],[-4.140432,42.791521],[-4.137511,42.79028],[-4.122672,42.794596],[-4.112938,42.794547],[-4.098486,42.791183],[-4.098313,42.786268],[-4.099714,42.784597],[-4.095896,42.780212],[-4.094075,42.773322],[-4.09079,42.772066],[-4.085364,42.77218],[-4.083042,42.768681],[-4.08134,42.761465],[-4.08526,42.764085],[-4.08882,42.751723],[-4.109556,42.733882],[-4.123988,42.736173],[-4.120007,42.745109],[-4.120271,42.746205],[-4.125953,42.74823],[-4.124781,42.751655],[-4.125949,42.752075],[-4.139939,42.753333],[-4.146137,42.752136],[-4.151422,42.747878],[-4.158616,42.747697],[-4.164644,42.745979],[-4.167096,42.743793],[-4.166817,42.74194],[-4.173896,42.737077],[-4.175061,42.737912],[-4.180509,42.737901],[-4.185387,42.736184],[-4.191006,42.729759],[-4.193205,42.728493],[-4.195714,42.724297],[-4.201086,42.721026],[-4.201435,42.7176],[-4.215141,42.713998],[-4.216553,42.711281],[-4.215187,42.708864],[-4.218573,42.704685],[-4.226966,42.703038],[-4.230096,42.700194],[-4.234639,42.699596],[-4.237067,42.69767],[-4.246102,42.697094],[-4.248923,42.698378],[-4.247679,42.69415],[-4.257043,42.688113],[-4.263917,42.694242],[-4.267642,42.694273],[-4.266694,42.705298],[-4.269235,42.704756],[-4.280504,42.699975],[-4.284065,42.695648],[-4.293172,42.690899],[-4.286754,42.686901],[-4.285965,42.683568],[-4.287032,42.683223],[-4.288069,42.6844],[-4.290174,42.682882],[-4.289396,42.678316],[-4.282365,42.674108],[-4.276034,42.673071],[-4.275834,42.66685],[-4.272941,42.662028],[-4.274059,42.660026],[-4.271752,42.656998],[-4.277304,42.652227],[-4.274251,42.652702],[-4.273285,42.6454],[-4.277194,42.643267],[-4.274268,42.63678],[-4.270795,42.63572],[-4.269917,42.633352],[-4.26752,42.631811],[-4.270506,42.623331],[-4.263873,42.617956],[-4.273925,42.616953],[-4.28247,42.609725],[-4.284898,42.609815],[-4.286181,42.607594],[-4.292597,42.605964],[-4.29446,42.602935],[-4.288747,42.598416],[-4.287935,42.593292],[-4.285311,42.591358],[-4.286146,42.589304],[-4.282436,42.586689],[-4.28606,42.58392],[-4.285435,42.581982],[-4.281315,42.581344],[-4.275076,42.583133],[-4.270812,42.581388],[-4.27575,42.580352],[-4.282568,42.57589],[-4.293793,42.574233],[-4.299306,42.570361],[-4.305346,42.570806],[-4.297637,42.560375],[-4.301148,42.558768],[-4.303103,42.559061],[-4.303006,42.554956],[-4.299788,42.552507],[-4.277691,42.544686],[-4.278943,42.542763],[-4.277417,42.535414],[-4.279613,42.533822],[-4.277511,42.529838],[-4.275358,42.528754],[-4.272148,42.519983],[-4.274,42.518278],[-4.273682,42.51639],[-4.27665,42.514502],[-4.286203,42.511973],[-4.28388,42.510855],[-4.273073,42.510399],[-4.262646,42.511839],[-4.252286,42.503217],[-4.25006,42.497811],[-4.247042,42.494718],[-4.246107,42.492396],[-4.250904,42.481492],[-4.250325,42.478725],[-4.244853,42.472111],[-4.252648,42.470757],[-4.254392,42.467919],[-4.252237,42.465979],[-4.247467,42.467139],[-4.245621,42.463602],[-4.247198,42.459703],[-4.245765,42.458584],[-4.243704,42.458921],[-4.242593,42.456241],[-4.253316,42.456664],[-4.268844,42.453495],[-4.277151,42.45533],[-4.282366,42.455236],[-4.284775,42.453489],[-4.289174,42.454511],[-4.306723,42.455105],[-4.307027,42.453354],[-4.317092,42.458931],[-4.323089,42.444534],[-4.335342,42.430613],[-4.333276,42.423145],[-4.335018,42.419909],[-4.333291,42.416426],[-4.330393,42.414978],[-4.328347,42.40963],[-4.330072,42.404432],[-4.328486,42.395472],[-4.330954,42.390949],[-4.321586,42.379899],[-4.305444,42.383461],[-4.293452,42.388127],[-4.28182,42.389041],[-4.27595,42.391925],[-4.277591,42.386585],[-4.272727,42.38572],[-4.271392,42.380962],[-4.271656,42.377807],[-4.273776,42.375136],[-4.27689,42.377128],[-4.280339,42.377702],[-4.280846,42.37159],[-4.276639,42.368341],[-4.2765,42.365064],[-4.278823,42.36584],[-4.280257,42.362924],[-4.274243,42.358578],[-4.273238,42.357527],[-4.269466,42.357127],[-4.26482,42.352514],[-4.26454,42.351256],[-4.266629,42.349495],[-4.266377,42.34721],[-4.270037,42.34327],[-4.269701,42.33923],[-4.268163,42.337599],[-4.267153,42.338079],[-4.267358,42.335618],[-4.263346,42.328619],[-4.256881,42.324539],[-4.256774,42.322847],[-4.25866,42.322493],[-4.25891,42.324661],[-4.262207,42.325678],[-4.265122,42.32334],[-4.263327,42.321586],[-4.263572,42.31989],[-4.2613,42.319771],[-4.264924,42.318326],[-4.263152,42.312258],[-4.261888,42.309687],[-4.251884,42.310004],[-4.25248,42.305188],[-4.249675,42.29524],[-4.252749,42.290587],[-4.24651,42.284855],[-4.249248,42.280394],[-4.246421,42.278489],[-4.246213,42.274078],[-4.241907,42.272179],[-4.241048,42.269811],[-4.242519,42.261348],[-4.244105,42.259403],[-4.240053,42.259249],[-4.231432,42.256099],[-4.228613,42.249537],[-4.229301,42.241875],[-4.237028,42.237235],[-4.237399,42.235763],[-4.234219,42.233059],[-4.228066,42.231972],[-4.226929,42.229562],[-4.227547,42.225845],[-4.232071,42.217322],[-4.230486,42.211791],[-4.231438,42.208448],[-4.228806,42.20763],[-4.228106,42.209051],[-4.220696,42.20859],[-4.215284,42.206891],[-4.212068,42.200864],[-4.205758,42.197103],[-4.205839,42.192446],[-4.199496,42.188757],[-4.190958,42.18101],[-4.191341,42.179484],[-4.188643,42.176378],[-4.19148,42.16302],[-4.197206,42.15725],[-4.200263,42.157002],[-4.206101,42.153987],[-4.200777,42.150251],[-4.203435,42.146774],[-4.204482,42.142638],[-4.203544,42.139117],[-4.205418,42.134612],[-4.203067,42.132503],[-4.200554,42.132034],[-4.186897,42.126421],[-4.178315,42.13076],[-4.176772,42.125858],[-4.168118,42.129603],[-4.154146,42.131744],[-4.147889,42.13033],[-4.144058,42.129215],[-4.141586,42.123602],[-4.142083,42.119625],[-4.139666,42.12046],[-4.137706,42.11975],[-4.132459,42.123368],[-4.126021,42.122531],[-4.123915,42.123893],[-4.123187,42.127188],[-4.121526,42.12833],[-4.115208,42.124789],[-4.108393,42.119001],[-4.107591,42.113938],[-4.103779,42.109687],[-4.092486,42.107832],[-4.085659,42.103214],[-4.076395,42.105381],[-4.063874,42.102301],[-4.063093,42.101182],[-4.056207,42.100913],[-4.060521,42.093452],[-4.060376,42.091282],[-4.066144,42.089121],[-4.066504,42.086047],[-4.077486,42.082675],[-4.094629,42.086818],[-4.103036,42.087044],[-4.104106,42.061626],[-4.100961,42.059378],[-4.097433,42.051693],[-4.092211,42.049518],[-4.088856,42.043354],[-4.084418,42.038901],[-4.079888,42.036783],[-4.067822,42.042813],[-4.06368,42.043644],[-4.061354,42.043287],[-4.056982,42.039743],[-4.047884,42.039052],[-4.047743,42.047393],[-4.045878,42.050814],[-4.039249,42.053351],[-4.031694,42.049484],[-4.010905,42.051515],[-3.999626,42.048921],[-3.996314,42.044969],[-3.988741,42.046727],[-3.982104,42.051279],[-3.980177,42.043045],[-3.976242,42.040953],[-3.971074,42.033215],[-3.9735,42.031447],[-3.979901,42.02108],[-3.983228,42.02379],[-3.985289,42.02352],[-3.994779,42.005407],[-4.014777,41.998585],[-4.021716,41.984752],[-4.029093,41.976562],[-4.027493,41.975397],[-4.027396,41.973137],[-4.031809,41.96609],[-4.032979,41.954083],[-4.024219,41.954116],[-4.019605,41.958363],[-4.015627,41.957795],[-4.005048,41.959599],[-3.990703,41.959751],[-3.982897,41.965312],[-3.978543,41.964737],[-3.973237,41.966547],[-3.972586,41.968967],[-3.956231,41.98102],[-3.950849,41.979497],[-3.924547,41.990304],[-3.914852,41.992012],[-3.910202,41.996966],[-3.891471,41.996644],[-3.892112,41.994973],[-3.889625,41.987994],[-3.893938,41.971812],[-3.891064,41.961296],[-3.892399,41.957566],[-3.902353,41.957479],[-3.905568,41.956175],[-3.910982,41.955898],[-3.913087,41.956296],[-3.914795,41.958453],[-3.920169,41.959545],[-3.922861,41.960451],[-3.936603,41.956989],[-3.945882,41.946402],[-3.944419,41.944487],[-3.947156,41.939493],[-3.952184,41.935308],[-3.981341,41.930703],[-3.983817,41.926971],[-3.984584,41.918021],[-3.983137,41.913305],[-3.9807,41.900617],[-3.987881,41.896395],[-3.998234,41.892414],[-4.007113,41.885158],[-4.017388,41.879466],[-4.035218,41.873795],[-4.037576,41.872774],[-4.041474,41.873918],[-4.047425,41.873747],[-4.059987,41.874785],[-4.062047,41.876955],[-4.066329,41.876483],[-4.069961,41.876008],[-4.072654,41.874154],[-4.079655,41.874125],[-4.088827,41.870652],[-4.084974,41.864438],[-4.080946,41.86208],[-4.07932,41.84845],[-4.088049,41.844666],[-4.090815,41.838722],[-4.090068,41.830866],[-4.058714,41.804833],[-4.056724,41.80531],[-4.048882,41.802779],[-4.042988,41.791124],[-4.037997,41.789854],[-4.039543,41.781266],[-4.0389,41.772706],[-4.040875,41.768356],[-4.048203,41.76992],[-4.055403,41.773925],[-4.061457,41.774734],[-4.063952,41.772135],[-4.064077,41.770198],[-4.071628,41.770623],[-4.083792,41.778561],[-4.089093,41.779628],[-4.096616,41.774809],[-4.099532,41.774394],[-4.104152,41.781357],[-4.108624,41.78534],[-4.110356,41.794366],[-4.117897,41.800274],[-4.123195,41.80731],[-4.135716,41.80326],[-4.150732,41.798869],[-4.153863,41.796216],[-4.16351,41.801244],[-4.170268,41.800194],[-4.178827,41.80352],[-4.186004,41.802401],[-4.191228,41.801725],[-4.194413,41.804034],[-4.213947,41.799407],[-4.232927,41.808121],[-4.236024,41.813969],[-4.236337,41.811444],[-4.24744,41.80293],[-4.256235,41.806374],[-4.260234,41.805258],[-4.269678,41.7934],[-4.278741,41.788598],[-4.286579,41.774883],[-4.291686,41.774565],[-4.304022,41.776488],[-4.30679,41.775925],[-4.313444,41.769464],[-4.315543,41.769728],[-4.317991,41.767646],[-4.31764,41.763444],[-4.329457,41.768856],[-4.333856,41.772146],[-4.337922,41.771541],[-4.341609,41.772975],[-4.344294,41.772457],[-4.353927,41.773983],[-4.37909,41.781502],[-4.382615,41.783711],[-4.380327,41.786459],[-4.383194,41.787163],[-4.389297,41.787774],[-4.394957,41.785192],[-4.403962,41.783173],[-4.421416,41.768133],[-4.442185,41.758652],[-4.446843,41.758215],[-4.454238,41.759166],[-4.484633,41.769532],[-4.497029,41.770208],[-4.501183,41.771406],[-4.4924,41.778654],[-4.493655,41.780358],[-4.487341,41.820096],[-4.483662,41.820342],[-4.479148,41.818302],[-4.474012,41.818539],[-4.468546,41.820635],[-4.467042,41.81961],[-4.461147,41.82036],[-4.478313,41.828589],[-4.473335,41.832048],[-4.474138,41.83347],[-4.471962,41.836785],[-4.471807,41.840552],[-4.473297,41.843028],[-4.475591,41.842188],[-4.475323,41.843101],[-4.478411,41.843332],[-4.479377,41.838194],[-4.484686,41.839135],[-4.491884,41.838411],[-4.499434,41.833206],[-4.503671,41.83207],[-4.50859,41.832311],[-4.505308,41.829986],[-4.505583,41.82683],[-4.509074,41.826262],[-4.509665,41.824263],[-4.512123,41.823303],[-4.520958,41.823178],[-4.529472,41.827766],[-4.54384,41.829357],[-4.54573,41.830827],[-4.549155,41.831015],[-4.550149,41.828822],[-4.545496,41.82612],[-4.54807,41.818988],[-4.553314,41.816269],[-4.564647,41.818376],[-4.567292,41.816232],[-4.566083,41.812574],[-4.583809,41.823995],[-4.59105,41.83681],[-4.60379,41.838641],[-4.60888,41.842326],[-4.611061,41.846204],[-4.615248,41.849352],[-4.618078,41.85123],[-4.624063,41.853983],[-4.626975,41.857193],[-4.626411,41.858246],[-4.632801,41.863163],[-4.629533,41.868271],[-4.631966,41.868227],[-4.633574,41.870816],[-4.635002,41.87103],[-4.633713,41.875768],[-4.636498,41.879124],[-4.63472,41.882689],[-4.637305,41.88811],[-4.639502,41.888223],[-4.639995,41.889576],[-4.643895,41.891249],[-4.651508,41.891509],[-4.658217,41.894592],[-4.658431,41.896813],[-4.669679,41.900505],[-4.678378,41.899865],[-4.677907,41.898007],[-4.685105,41.891606],[-4.701094,41.887282]],[[-4.251333,42.726549],[-4.24506,42.735974],[-4.24781,42.736043],[-4.260633,42.738893],[-4.262267,42.7333],[-4.26315,42.730481],[-4.251333,42.726549]]],[[[-4.102733,42.137239],[-4.110037,42.143185],[-4.111843,42.158577],[-4.1093,42.159214],[-4.107779,42.158022],[-4.101134,42.158761],[-4.094228,42.157719],[-4.076292,42.167859],[-4.068984,42.163127],[-4.065637,42.1635],[-4.067102,42.162027],[-4.067563,42.157052],[-4.069952,42.155931],[-4.074483,42.156122],[-4.072776,42.151797],[-4.06453,42.142976],[-4.063869,42.138893],[-4.059795,42.136202],[-4.062137,42.131578],[-4.067753,42.133093],[-4.070041,42.136773],[-4.073044,42.136872],[-4.083477,42.141268],[-4.09006,42.141989],[-4.095922,42.140141],[-4.099459,42.137549],[-4.102733,42.137239]]],[[[-4.045911,42.766612],[-4.049696,42.772935],[-4.049359,42.781224],[-4.043753,42.788794],[-4.037832,42.790802],[-4.033568,42.786608],[-4.029868,42.788344],[-4.028348,42.790329],[-4.031789,42.793594],[-4.032919,42.801257],[-4.022263,42.806945],[-4.017905,42.807479],[-4.014182,42.806377],[-4.020779,42.81935],[-4.011038,42.830377],[-4.003554,42.831407],[-4.001605,42.829668],[-4.000035,42.824098],[-4.000869,42.809799],[-3.997058,42.803231],[-3.996512,42.798958],[-3.997556,42.787819],[-3.995941,42.786221],[-3.99965,42.768979],[-4.002526,42.768467],[-4.003091,42.763356],[-4.009375,42.765688],[-4.018525,42.763941],[-4.030433,42.76641],[-4.034579,42.765823],[-4.040862,42.767306],[-4.045911,42.766612]]],[[[-4.111742,42.81863],[-4.112444,42.822315],[-4.109192,42.825138],[-4.107036,42.827762],[-4.098008,42.82367],[-4.094871,42.824051],[-4.088522,42.818492],[-4.089043,42.809833],[-4.087709,42.805595],[-4.089064,42.799891],[-4.101042,42.793968],[-4.10892,42.803078],[-4.105316,42.808786],[-4.113077,42.81669],[-4.111742,42.81863]]],[[[-4.182345,42.820346],[-4.17925,42.822908],[-4.174616,42.823082],[-4.163077,42.820948],[-4.159886,42.815154],[-4.161096,42.813115],[-4.164456,42.812289],[-4.174559,42.811618],[-4.182345,42.820346]]]]}}
]
}
