{
"type": "FeatureCollection",
"name": "cod_prov_39",
"crs": { "type": "name", "properties": { "name": "urn:ogc:def:crs:OGC:1.3:CRS84" } },
"xy_coordinate_resolution": 1e-15,
"features": [
{"type":"Feature","properties":{"fid":22,"cod_ccaa":"06","provincia":"Cantabria","cod_prov":"39"},"geometry":{"type":"MultiPolygon","coordinates":[[[[-4.172012,42.85814],[-4.177541,42.859254],[-4.181203,42.858694],[-4.185601,42.854443],[-4.193497,42.850677],[-4.199694,42.84457],[-4.207298,42.845418],[-4.208986,42.844779],[-4.214234,42.847173],[-4.219497,42.850944],[-4.224679,42.856769],[-4.2257,42.858884],[-4.224002,42.861513],[-4.222846,42.865587],[-4.224274,42.880899],[-4.230612,42.896689],[-4.229665,42.900167],[-4.230817,42.903279],[-4.225127,42.906087],[-4.222566,42.910977],[-4.230986,42.913624],[-4.236703,42.917111],[-4.239172,42.93151],[-4.23849,42.954373],[-4.24025,42.956533],[-4.24596,42.959416],[-4.262226,42.965271],[-4.273256,42.966203],[-4.278035,42.965465],[-4.290719,42.969213],[-4.299026,42.966562],[-4.301908,42.96661],[-4.315474,42.969688],[-4.331999,42.971181],[-4.335034,42.970344],[-4.347324,42.972154],[-4.360492,42.982624],[-4.362886,42.984928],[-4.366972,42.99112],[-4.373072,42.995657],[-4.374834,42.998797],[-4.374358,43.00607],[-4.377634,43.00992],[-4.38619,43.01604],[-4.389169,43.025738],[-4.392273,43.02733],[-4.398115,43.034868],[-4.403983,43.038137],[-4.413954,43.041985],[-4.414984,43.041414],[-4.42243,43.042754],[-4.431866,43.045689],[-4.44248,43.055902],[-4.447552,43.05854],[-4.449416,43.057409],[-4.456763,43.057045],[-4.461062,43.060709],[-4.463098,43.060062],[-4.462459,43.059557],[-4.47115,43.051692],[-4.476463,43.041286],[-4.475714,43.038702],[-4.493979,43.039654],[-4.495852,43.038414],[-4.52092,43.047377],[-4.552108,43.025535],[-4.558449,43.019515],[-4.57431,43.026925],[-4.590607,43.025871],[-4.606084,43.035767],[-4.612549,43.029976],[-4.621451,43.025861],[-4.629563,43.023972],[-4.638132,43.016673],[-4.640379,43.01719],[-4.651436,43.020849],[-4.673173,43.021371],[-4.67552,43.02329],[-4.682421,43.025675],[-4.695757,43.025901],[-4.699509,43.026656],[-4.708816,43.025022],[-4.714484,43.019652],[-4.719707,43.01725],[-4.728707,43.018744],[-4.731088,43.022247],[-4.737005,43.020987],[-4.739931,43.022906],[-4.743258,43.028159],[-4.73885,43.040707],[-4.734217,43.047071],[-4.743986,43.05645],[-4.749741,43.055867],[-4.752911,43.057223],[-4.756588,43.056113],[-4.766115,43.055633],[-4.767351,43.063187],[-4.766499,43.074547],[-4.773275,43.079088],[-4.784438,43.083615],[-4.78849,43.083975],[-4.796834,43.087825],[-4.800727,43.087781],[-4.807479,43.09179],[-4.816904,43.092658],[-4.817337,43.096055],[-4.821489,43.099339],[-4.830249,43.100946],[-4.832807,43.102661],[-4.835053,43.108712],[-4.836341,43.111114],[-4.835808,43.116291],[-4.844321,43.120648],[-4.845796,43.123884],[-4.851427,43.125945],[-4.842698,43.133326],[-4.843854,43.146022],[-4.838597,43.147043],[-4.834567,43.157463],[-4.840656,43.162371],[-4.838853,43.166742],[-4.851736,43.172872],[-4.84872,43.177693],[-4.841024,43.18078],[-4.8341,43.180468],[-4.830918,43.178601],[-4.82113,43.179631],[-4.819043,43.178962],[-4.817521,43.184046],[-4.81114,43.18132],[-4.805453,43.182094],[-4.787096,43.18639],[-4.778609,43.192042],[-4.754316,43.184772],[-4.745807,43.184119],[-4.741706,43.186162],[-4.738426,43.186383],[-4.734156,43.189879],[-4.733527,43.194607],[-4.736916,43.199526],[-4.736076,43.208984],[-4.72833,43.216729],[-4.73197,43.220915],[-4.731101,43.222837],[-4.724117,43.228867],[-4.721659,43.22949],[-4.719602,43.236454],[-4.720739,43.239238],[-4.722804,43.240395],[-4.729391,43.249471],[-4.730945,43.257336],[-4.728803,43.256089],[-4.725704,43.256316],[-4.723331,43.258225],[-4.711617,43.260967],[-4.706041,43.266868],[-4.704888,43.265291],[-4.696783,43.265835],[-4.693391,43.263949],[-4.689876,43.266477],[-4.685313,43.265455],[-4.681141,43.267893],[-4.675606,43.267795],[-4.669374,43.265211],[-4.659941,43.264493],[-4.653743,43.265871],[-4.65025,43.268821],[-4.631883,43.267652],[-4.634882,43.268771],[-4.636206,43.270805],[-4.636585,43.275761],[-4.634547,43.277429],[-4.631192,43.277783],[-4.630393,43.279695],[-4.626747,43.281656],[-4.623906,43.288368],[-4.619806,43.288057],[-4.618516,43.290552],[-4.614961,43.291286],[-4.607594,43.295235],[-4.606551,43.300553],[-4.599159,43.298865],[-4.590937,43.293235],[-4.58242,43.291849],[-4.580266,43.289592],[-4.573235,43.289419],[-4.571324,43.291795],[-4.569513,43.291847],[-4.555241,43.288098],[-4.550875,43.284609],[-4.552855,43.28053],[-4.552784,43.271941],[-4.547773,43.268686],[-4.537721,43.269326],[-4.532671,43.275319],[-4.530806,43.276109],[-4.529398,43.275507],[-4.52496,43.27743],[-4.521712,43.280625],[-4.51857,43.294038],[-4.519101,43.309924],[-4.520169,43.314655],[-4.527029,43.327611],[-4.522349,43.335778],[-4.522999,43.338092],[-4.539456,43.343959],[-4.536789,43.344364],[-4.537443,43.346831],[-4.534109,43.353098],[-4.538808,43.355925],[-4.535734,43.358317],[-4.530809,43.358788],[-4.530998,43.360875],[-4.535352,43.364706],[-4.534444,43.368338],[-4.530148,43.368333],[-4.520911,43.366151],[-4.522959,43.3686],[-4.521333,43.371683],[-4.516384,43.376647],[-4.510836,43.379908],[-4.513077,43.389621],[-4.512279,43.393287],[-4.509386,43.393127],[-4.506037,43.395008],[-4.501039,43.395146],[-4.495444,43.397597],[-4.491125,43.397194],[-4.48916,43.395139],[-4.490054,43.393804],[-4.487438,43.392884],[-4.484087,43.393188],[-4.483123,43.394659],[-4.484931,43.395374],[-4.482928,43.396292],[-4.481794,43.395865],[-4.483023,43.395111],[-4.482131,43.393997],[-4.476696,43.395427],[-4.475508,43.394317],[-4.47241,43.394348],[-4.473791,43.392223],[-4.472665,43.392138],[-4.472482,43.390196],[-4.473993,43.389366],[-4.472304,43.388946],[-4.469299,43.391335],[-4.464157,43.392644],[-4.459416,43.391083],[-4.459137,43.393905],[-4.457623,43.39306],[-4.455399,43.393503],[-4.453761,43.392128],[-4.453503,43.394778],[-4.451209,43.394898],[-4.450649,43.393689],[-4.450333,43.395422],[-4.447771,43.396211],[-4.445731,43.395093],[-4.443235,43.39761],[-4.439463,43.39582],[-4.441424,43.393608],[-4.439239,43.393653],[-4.437612,43.395321],[-4.438484,43.396184],[-4.436826,43.396034],[-4.436345,43.397084],[-4.433387,43.393673],[-4.431032,43.393306],[-4.430273,43.394117],[-4.431964,43.396167],[-4.431005,43.396881],[-4.427043,43.396408],[-4.415466,43.398245],[-4.397575,43.396745],[-4.396042,43.395611],[-4.397314,43.393966],[-4.391336,43.394975],[-4.391934,43.394166],[-4.389954,43.394515],[-4.3911,43.393834],[-4.390376,43.39297],[-4.385132,43.395293],[-4.388754,43.392773],[-4.390541,43.390474],[-4.389418,43.389947],[-4.384996,43.393674],[-4.38604,43.391249],[-4.376501,43.390932],[-4.369792,43.39239],[-4.357003,43.39916],[-4.354601,43.402223],[-4.356188,43.40306],[-4.350356,43.403462],[-4.346653,43.405802],[-4.344565,43.405178],[-4.340554,43.4059],[-4.338732,43.405588],[-4.339885,43.404098],[-4.3378,43.401403],[-4.339274,43.399333],[-4.338692,43.397026],[-4.333262,43.392119],[-4.326566,43.389702],[-4.32008,43.389489],[-4.319111,43.390941],[-4.317721,43.390021],[-4.314259,43.39151],[-4.312504,43.389729],[-4.311143,43.391915],[-4.311624,43.390721],[-4.307591,43.39264],[-4.305815,43.390454],[-4.302199,43.391684],[-4.301461,43.390648],[-4.300649,43.391359],[-4.295942,43.390665],[-4.295814,43.391603],[-4.29465,43.39086],[-4.293703,43.391627],[-4.293463,43.394304],[-4.291383,43.393454],[-4.288842,43.394167],[-4.288084,43.393356],[-4.289997,43.392146],[-4.289504,43.39099],[-4.281983,43.388598],[-4.280966,43.387223],[-4.279518,43.388788],[-4.272934,43.389825],[-4.271973,43.393473],[-4.267961,43.393518],[-4.264978,43.391408],[-4.265497,43.393797],[-4.262008,43.395853],[-4.252266,43.397085],[-4.252614,43.395965],[-4.248891,43.3957],[-4.246543,43.397373],[-4.237948,43.398592],[-4.233245,43.400524],[-4.226052,43.398972],[-4.227989,43.400734],[-4.227101,43.400176],[-4.223839,43.397636],[-4.223434,43.39837],[-4.222341,43.39559],[-4.219077,43.395427],[-4.209399,43.401166],[-4.200406,43.399154],[-4.194084,43.402326],[-4.182857,43.403523],[-4.180659,43.405437],[-4.176245,43.401322],[-4.174597,43.401069],[-4.172467,43.403083],[-4.169565,43.403447],[-4.15887,43.409194],[-4.155347,43.408382],[-4.152277,43.41158],[-4.150735,43.411888],[-4.150552,43.411122],[-4.143399,43.413424],[-4.139667,43.413229],[-4.141159,43.412067],[-4.137339,43.413656],[-4.137436,43.411774],[-4.134567,43.411307],[-4.132508,43.412979],[-4.133635,43.414125],[-4.125724,43.414848],[-4.120261,43.417307],[-4.115598,43.417349],[-4.115792,43.418076],[-4.111246,43.418924],[-4.112929,43.419552],[-4.11221,43.419964],[-4.105755,43.421308],[-4.105006,43.423406],[-4.101631,43.424259],[-4.10085,43.425735],[-4.098327,43.42473],[-4.0978,43.426558],[-4.094308,43.427465],[-4.095115,43.429771],[-4.093257,43.432931],[-4.089487,43.433507],[-4.081417,43.438293],[-4.080292,43.438286],[-4.081703,43.433536],[-4.076752,43.430954],[-4.054921,43.433886],[-4.052611,43.436788],[-4.049082,43.437073],[-4.047121,43.438685],[-4.046605,43.440337],[-4.049321,43.442311],[-4.046625,43.444335],[-4.047047,43.445177],[-4.042171,43.441917],[-4.042111,43.440585],[-4.043865,43.439804],[-4.043867,43.43703],[-4.040581,43.43562],[-4.035286,43.435281],[-4.035754,43.438095],[-4.034176,43.435381],[-4.0312,43.436938],[-4.033962,43.438795],[-4.033045,43.439335],[-4.034103,43.440523],[-4.023981,43.441226],[-4.022965,43.443252],[-4.024587,43.444165],[-4.022685,43.4442],[-4.019815,43.446981],[-4.021735,43.448756],[-4.019387,43.448021],[-4.013935,43.447907],[-4.007844,43.443549],[-4.004045,43.442475],[-4.002852,43.439865],[-4.000571,43.439408],[-4.000287,43.439446],[-4.000089,43.439385],[-3.999065,43.43952],[-3.99876,43.439748],[-3.998586,43.44047],[-3.99081,43.443257],[-3.98707,43.445837],[-3.985157,43.445989],[-3.98392,43.443649],[-3.982003,43.443522],[-3.982053,43.44127],[-3.967768,43.4491],[-3.967639,43.450308],[-3.967,43.449737],[-3.958582,43.454382],[-3.948765,43.464486],[-3.951093,43.463935],[-3.944634,43.469103],[-3.947943,43.468842],[-3.947659,43.469619],[-3.944852,43.470398],[-3.943614,43.46949],[-3.936341,43.470081],[-3.9354,43.468423],[-3.93292,43.46793],[-3.930179,43.469744],[-3.932169,43.471331],[-3.928717,43.47117],[-3.923852,43.473208],[-3.916244,43.474566],[-3.91467,43.473543],[-3.911687,43.474161],[-3.910666,43.472846],[-3.908034,43.47456],[-3.904258,43.474283],[-3.897307,43.476616],[-3.892059,43.477081],[-3.89103,43.475234],[-3.892973,43.474525],[-3.89292,43.473436],[-3.890605,43.47322],[-3.892378,43.471919],[-3.885034,43.476172],[-3.881713,43.474811],[-3.883054,43.476015],[-3.876942,43.477469],[-3.879505,43.477683],[-3.878587,43.479212],[-3.879891,43.479607],[-3.878108,43.480322],[-3.875363,43.480343],[-3.87646,43.476671],[-3.873147,43.477551],[-3.872441,43.476628],[-3.866712,43.47724],[-3.865571,43.47697],[-3.865989,43.475957],[-3.861983,43.475906],[-3.85104,43.479474],[-3.846088,43.483464],[-3.842164,43.484059],[-3.840281,43.481166],[-3.8385,43.481114],[-3.839995,43.477448],[-3.835732,43.480361],[-3.83766,43.482086],[-3.836042,43.483122],[-3.835171,43.481867],[-3.832782,43.483489],[-3.833728,43.484796],[-3.829604,43.488031],[-3.828703,43.487264],[-3.825992,43.487967],[-3.826891,43.488574],[-3.825254,43.490989],[-3.820429,43.490818],[-3.819663,43.492785],[-3.815289,43.493098],[-3.812074,43.494947],[-3.803058,43.493173],[-3.800996,43.49245],[-3.796415,43.49305],[-3.795661,43.4922],[-3.788067,43.491197],[-3.785256,43.491855],[-3.786036,43.489104],[-3.784624,43.488953],[-3.787713,43.485825],[-3.778428,43.486032],[-3.784135,43.483624],[-3.788158,43.480149],[-3.784143,43.474692],[-3.775019,43.469145],[-3.771262,43.471202],[-3.766614,43.47109],[-3.763213,43.467198],[-3.765,43.466117],[-3.768608,43.467762],[-3.771543,43.467816],[-3.779598,43.465466],[-3.78091,43.463667],[-3.784993,43.463195],[-3.787007,43.461781],[-3.790783,43.461333],[-3.791009,43.462129],[-3.796017,43.462708],[-3.796946,43.462056],[-3.792316,43.461468],[-3.80156,43.461245],[-3.808928,43.456646],[-3.814266,43.449475],[-3.820899,43.449689],[-3.821912,43.451568],[-3.818491,43.452404],[-3.819012,43.453441],[-3.825372,43.451624],[-3.823691,43.448556],[-3.818196,43.447979],[-3.82644,43.446827],[-3.832448,43.443773],[-3.831213,43.442963],[-3.827277,43.444322],[-3.829359,43.442895],[-3.820697,43.442057],[-3.831937,43.441669],[-3.83318,43.443137],[-3.83532,43.441456],[-3.833995,43.441249],[-3.830734,43.435943],[-3.827217,43.438118],[-3.820252,43.437529],[-3.827235,43.437561],[-3.830401,43.435079],[-3.828572,43.433274],[-3.835939,43.433454],[-3.836594,43.431694],[-3.819966,43.430949],[-3.814411,43.42763],[-3.814211,43.429271],[-3.812691,43.426526],[-3.804596,43.424431],[-3.805928,43.421441],[-3.80929,43.421606],[-3.810203,43.420592],[-3.809135,43.420149],[-3.814397,43.415519],[-3.817195,43.414149],[-3.82013,43.41474],[-3.821983,43.412881],[-3.819313,43.406472],[-3.818464,43.406099],[-3.817248,43.40749],[-3.818209,43.406165],[-3.816658,43.405792],[-3.819028,43.404797],[-3.816554,43.405507],[-3.818543,43.404342],[-3.816846,43.404815],[-3.815922,43.402146],[-3.814453,43.402129],[-3.808681,43.408338],[-3.806517,43.412792],[-3.807233,43.417407],[-3.802396,43.41501],[-3.798162,43.41431],[-3.788841,43.419417],[-3.784501,43.420068],[-3.782715,43.421413],[-3.77896,43.421474],[-3.779553,43.424379],[-3.783145,43.425111],[-3.788386,43.428146],[-3.791268,43.432178],[-3.784898,43.43169],[-3.778645,43.43357],[-3.776919,43.437706],[-3.772776,43.440363],[-3.772739,43.443245],[-3.770903,43.445661],[-3.772335,43.448398],[-3.775714,43.448781],[-3.771093,43.448902],[-3.769216,43.449031],[-3.765484,43.446121],[-3.759948,43.448166],[-3.755492,43.447619],[-3.754945,43.441391],[-3.760055,43.438935],[-3.762516,43.434164],[-3.757221,43.430634],[-3.755206,43.43161],[-3.752409,43.43017],[-3.746242,43.432038],[-3.744309,43.430583],[-3.742526,43.432296],[-3.741884,43.433417],[-3.744282,43.435446],[-3.752651,43.435742],[-3.7482,43.44058],[-3.745165,43.44801],[-3.746301,43.451947],[-3.7516,43.449733],[-3.74686,43.45225],[-3.747279,43.453084],[-3.749644,43.454438],[-3.76283,43.455215],[-3.769501,43.457926],[-3.772404,43.457753],[-3.772663,43.458643],[-3.770682,43.459386],[-3.753255,43.45662],[-3.73267,43.459265],[-3.725144,43.462609],[-3.726637,43.469614],[-3.722845,43.47405],[-3.718659,43.474454],[-3.705724,43.479667],[-3.699904,43.478964],[-3.694263,43.479764],[-3.695579,43.478054],[-3.693979,43.476569],[-3.687548,43.475374],[-3.684257,43.478446],[-3.681371,43.478067],[-3.679192,43.481159],[-3.674872,43.479645],[-3.67425,43.480396],[-3.676595,43.482201],[-3.673258,43.48567],[-3.670041,43.485598],[-3.669977,43.486508],[-3.669007,43.486009],[-3.660782,43.490451],[-3.657105,43.490112],[-3.655128,43.492546],[-3.654098,43.494505],[-3.653952,43.493597],[-3.65159,43.49361],[-3.649108,43.49628],[-3.646508,43.496043],[-3.644741,43.498529],[-3.637307,43.498552],[-3.633749,43.496618],[-3.630079,43.498115],[-3.630512,43.496897],[-3.625652,43.498202],[-3.623965,43.497734],[-3.622222,43.500265],[-3.620765,43.496887],[-3.618936,43.497023],[-3.61627,43.501242],[-3.614648,43.499945],[-3.614852,43.498035],[-3.61169,43.49852],[-3.610768,43.501533],[-3.60717,43.504118],[-3.604096,43.508501],[-3.598871,43.510581],[-3.59684,43.512906],[-3.594362,43.512514],[-3.589882,43.513662],[-3.57991,43.51238],[-3.582304,43.510459],[-3.580492,43.507191],[-3.578469,43.506507],[-3.570298,43.508547],[-3.567834,43.508262],[-3.567353,43.507121],[-3.564014,43.509902],[-3.562032,43.508255],[-3.553702,43.507827],[-3.549494,43.509035],[-3.546404,43.507933],[-3.545393,43.504237],[-3.54075,43.503746],[-3.541243,43.502141],[-3.539801,43.501418],[-3.541256,43.499458],[-3.539721,43.497961],[-3.540146,43.497095],[-3.54156,43.497457],[-3.539849,43.495691],[-3.544533,43.495183],[-3.542475,43.493275],[-3.536438,43.491754],[-3.53559,43.492353],[-3.536575,43.493257],[-3.534268,43.493943],[-3.531902,43.492162],[-3.533746,43.49219],[-3.533079,43.49095],[-3.529701,43.490714],[-3.523533,43.494065],[-3.522916,43.495589],[-3.521737,43.493731],[-3.518692,43.494834],[-3.513056,43.492428],[-3.514954,43.488728],[-3.513343,43.483989],[-3.514693,43.481309],[-3.511149,43.480451],[-3.512175,43.478916],[-3.510591,43.478797],[-3.508966,43.476697],[-3.503693,43.476],[-3.495916,43.471531],[-3.484363,43.470806],[-3.475508,43.468925],[-3.475883,43.467062],[-3.469159,43.465903],[-3.454302,43.464753],[-3.44713,43.467125],[-3.446708,43.465973],[-3.44062,43.464486],[-3.435326,43.464574],[-3.43103,43.461943],[-3.427133,43.457635],[-3.427182,43.455009],[-3.426276,43.455419],[-3.427293,43.453843],[-3.426362,43.452526],[-3.427577,43.452036],[-3.425492,43.45137],[-3.426692,43.451087],[-3.425902,43.450354],[-3.427773,43.447666],[-3.425624,43.444114],[-3.438465,43.437115],[-3.449367,43.439323],[-3.459048,43.438724],[-3.46173,43.439768],[-3.462012,43.441891],[-3.463054,43.441476],[-3.46199,43.439416],[-3.4633,43.441615],[-3.463395,43.442659],[-3.463187,43.441793],[-3.46142,43.442491],[-3.46165,43.444323],[-3.463412,43.443263],[-3.463522,43.444746],[-3.465036,43.444683],[-3.46564,43.442897],[-3.463481,43.436837],[-3.471382,43.432753],[-3.473293,43.433853],[-3.473954,43.43303],[-3.484022,43.4328],[-3.487545,43.429831],[-3.491556,43.423241],[-3.487011,43.424935],[-3.482151,43.432096],[-3.469242,43.430817],[-3.462484,43.432546],[-3.461707,43.431126],[-3.45943,43.430631],[-3.464855,43.404937],[-3.464712,43.403911],[-3.462685,43.403784],[-3.4602,43.403425],[-3.456018,43.415517],[-3.455128,43.428622],[-3.452805,43.433566],[-3.453593,43.433148],[-3.45118,43.436012],[-3.447831,43.434359],[-3.436901,43.419607],[-3.426606,43.413585],[-3.416023,43.413948],[-3.416364,43.415045],[-3.418276,43.414687],[-3.419958,43.414996],[-3.418117,43.414976],[-3.41883,43.416306],[-3.418404,43.417208],[-3.416441,43.415468],[-3.415529,43.415814],[-3.416628,43.417548],[-3.415553,43.419308],[-3.414496,43.418285],[-3.412093,43.419212],[-3.408903,43.418782],[-3.408656,43.416856],[-3.411058,43.41773],[-3.411099,43.416415],[-3.409216,43.415647],[-3.401311,43.415702],[-3.401332,43.417008],[-3.399562,43.416501],[-3.399472,43.417816],[-3.398144,43.416902],[-3.393921,43.417222],[-3.392949,43.415911],[-3.389154,43.417311],[-3.386603,43.416275],[-3.384569,43.416966],[-3.382187,43.415398],[-3.371513,43.417162],[-3.369737,43.415529],[-3.370674,43.413229],[-3.365936,43.412065],[-3.358464,43.412223],[-3.344247,43.416526],[-3.337439,43.413854],[-3.335175,43.415481],[-3.332939,43.415407],[-3.333846,43.416485],[-3.326531,43.415992],[-3.32346,43.419216],[-3.322994,43.417551],[-3.324826,43.415952],[-3.327127,43.414271],[-3.324631,43.40946],[-3.325813,43.406413],[-3.321128,43.403392],[-3.315382,43.40276],[-3.312918,43.40391],[-3.313887,43.404988],[-3.313598,43.406474],[-3.312163,43.406037],[-3.313368,43.404998],[-3.312344,43.405091],[-3.311706,43.406056],[-3.310693,43.405924],[-3.311878,43.408199],[-3.311043,43.409246],[-3.30424,43.409732],[-3.299593,43.408997],[-3.297459,43.407048],[-3.29296,43.406286],[-3.294266,43.405724],[-3.289806,43.405438],[-3.286971,43.403933],[-3.270476,43.402163],[-3.256797,43.403338],[-3.246206,43.398498],[-3.239266,43.398513],[-3.229933,43.395849],[-3.228231,43.3965],[-3.220861,43.393489],[-3.222559,43.392054],[-3.222506,43.391028],[-3.221247,43.391093],[-3.226758,43.388759],[-3.225064,43.38499],[-3.222891,43.384823],[-3.219662,43.38654],[-3.214968,43.385711],[-3.214457,43.384398],[-3.208594,43.381041],[-3.214146,43.383849],[-3.216576,43.383196],[-3.217369,43.383897],[-3.218156,43.382932],[-3.217033,43.383177],[-3.214186,43.377627],[-3.211352,43.379073],[-3.213243,43.376287],[-3.208955,43.374944],[-3.209469,43.373575],[-3.207603,43.376666],[-3.205224,43.373951],[-3.201325,43.374445],[-3.198224,43.373513],[-3.196785,43.371427],[-3.195155,43.371259],[-3.194158,43.364246],[-3.192515,43.363834],[-3.189844,43.366],[-3.189183,43.363957],[-3.186424,43.365744],[-3.184633,43.365441],[-3.182059,43.358899],[-3.175586,43.356793],[-3.173482,43.358795],[-3.171545,43.358888],[-3.168812,43.356875],[-3.168992,43.355299],[-3.165819,43.354574],[-3.161738,43.351104],[-3.156968,43.35329],[-3.153536,43.352817],[-3.150898,43.348868],[-3.151284,43.345202],[-3.15432,43.340822],[-3.149666,43.319416],[-3.151851,43.306572],[-3.157326,43.30132],[-3.171324,43.299832],[-3.1736,43.300436],[-3.17409,43.2994],[-3.180243,43.299724],[-3.18422,43.298151],[-3.185665,43.298914],[-3.193209,43.298451],[-3.197564,43.29567],[-3.199083,43.292858],[-3.205278,43.290947],[-3.209411,43.28355],[-3.21836,43.286885],[-3.217953,43.291735],[-3.224009,43.295982],[-3.225014,43.297898],[-3.224168,43.302438],[-3.225228,43.308937],[-3.246418,43.304274],[-3.249136,43.302801],[-3.249707,43.300711],[-3.252405,43.300047],[-3.254326,43.296666],[-3.261046,43.29404],[-3.264494,43.296022],[-3.268632,43.295067],[-3.279445,43.290053],[-3.29112,43.290366],[-3.294608,43.292815],[-3.292728,43.296548],[-3.294943,43.300756],[-3.313407,43.297448],[-3.316067,43.294514],[-3.323687,43.292458],[-3.329235,43.297152],[-3.332405,43.301879],[-3.334102,43.298812],[-3.337894,43.297901],[-3.342954,43.294455],[-3.339532,43.282228],[-3.340125,43.27803],[-3.341482,43.277508],[-3.359563,43.272028],[-3.368648,43.274593],[-3.378077,43.270807],[-3.382992,43.270494],[-3.385382,43.266407],[-3.388436,43.264217],[-3.391689,43.252635],[-3.39895,43.245821],[-3.406632,43.250683],[-3.413463,43.249903],[-3.410549,43.247067],[-3.418441,43.241069],[-3.423016,43.239945],[-3.430372,43.242096],[-3.432841,43.241223],[-3.436755,43.237381],[-3.436406,43.235077],[-3.437451,43.234776],[-3.441508,43.235427],[-3.445711,43.237589],[-3.448742,43.23611],[-3.448449,43.234814],[-3.449275,43.233145],[-3.446731,43.230508],[-3.44388,43.221172],[-3.432955,43.206752],[-3.435077,43.197766],[-3.435717,43.191875],[-3.433454,43.171046],[-3.432446,43.171221],[-3.431806,43.16601],[-3.429868,43.164972],[-3.429048,43.160266],[-3.427127,43.160057],[-3.425965,43.155658],[-3.422117,43.152295],[-3.417647,43.133429],[-3.417647,43.133428],[-3.421906,43.13235],[-3.429674,43.133672],[-3.434565,43.131655],[-3.442308,43.13285],[-3.444757,43.131534],[-3.451135,43.134472],[-3.460346,43.136254],[-3.480339,43.1361],[-3.486968,43.133263],[-3.496755,43.134698],[-3.502107,43.136655],[-3.504804,43.135599],[-3.50844,43.136583],[-3.530738,43.142902],[-3.543709,43.148163],[-3.561296,43.14951],[-3.572815,43.152866],[-3.585585,43.154504],[-3.599606,43.151928],[-3.603544,43.149638],[-3.604922,43.155961],[-3.607343,43.158227],[-3.607344,43.162045],[-3.61245,43.169519],[-3.622865,43.173875],[-3.631999,43.173078],[-3.633612,43.175563],[-3.641024,43.176071],[-3.645045,43.179345],[-3.647984,43.179148],[-3.648756,43.180089],[-3.651018,43.18104],[-3.658156,43.177649],[-3.655163,43.17157],[-3.656101,43.170727],[-3.660964,43.168763],[-3.662243,43.165262],[-3.666756,43.162841],[-3.667954,43.15762],[-3.676623,43.155084],[-3.676505,43.151131],[-3.681719,43.146643],[-3.684949,43.140644],[-3.685611,43.137183],[-3.683781,43.136257],[-3.695863,43.126045],[-3.703886,43.123411],[-3.702927,43.118086],[-3.704677,43.116275],[-3.714275,43.113982],[-3.719249,43.10835],[-3.729121,43.104443],[-3.738463,43.102546],[-3.752054,43.101503],[-3.755982,43.099109],[-3.756249,43.096847],[-3.759816,43.092114],[-3.757014,43.085066],[-3.760558,43.083519],[-3.767594,43.080302],[-3.775804,43.082534],[-3.780426,43.079873],[-3.790281,43.078131],[-3.801108,43.083207],[-3.802021,43.082588],[-3.806308,43.083449],[-3.810207,43.086655],[-3.815329,43.085601],[-3.818596,43.081841],[-3.82326,43.080582],[-3.835753,43.080555],[-3.844391,43.082455],[-3.846961,43.084399],[-3.850783,43.08004],[-3.850717,43.07705],[-3.846015,43.070998],[-3.840747,43.069254],[-3.838944,43.066763],[-3.831768,43.063826],[-3.833991,43.062909],[-3.834503,43.058061],[-3.842687,43.051301],[-3.845593,43.050938],[-3.849757,43.048395],[-3.849153,43.041105],[-3.851114,43.039092],[-3.855807,43.039327],[-3.861511,43.043408],[-3.864908,43.042239],[-3.866919,43.043827],[-3.871634,43.043854],[-3.878084,43.042427],[-3.87844,43.041569],[-3.89105,43.041661],[-3.892819,43.039171],[-3.893061,43.035585],[-3.909261,43.016097],[-3.924699,43.010354],[-3.945464,43.005773],[-3.956292,42.997461],[-3.960815,42.992453],[-3.968679,42.977627],[-3.971665,42.97491],[-3.974031,42.968595],[-3.98383,42.945539],[-3.98717,42.94054],[-3.987248,42.93619],[-3.989574,42.93372],[-3.990978,42.931087],[-3.987793,42.925838],[-3.977577,42.918316],[-3.974616,42.912353],[-3.972854,42.911692],[-3.953957,42.911293],[-3.945781,42.909406],[-3.937788,42.910643],[-3.93453,42.913128],[-3.92964,42.914698],[-3.936366,42.90816],[-3.937601,42.904809],[-3.935341,42.900325],[-3.933542,42.899601],[-3.928661,42.904098],[-3.92635,42.904432],[-3.923419,42.915667],[-3.918209,42.916294],[-3.911998,42.921342],[-3.911489,42.92339],[-3.907501,42.924718],[-3.891567,42.925248],[-3.890612,42.928714],[-3.888827,42.929862],[-3.889687,42.935142],[-3.888021,42.936893],[-3.886861,42.942314],[-3.887382,42.948766],[-3.877721,42.947787],[-3.870135,42.9497],[-3.867093,42.954829],[-3.854233,42.948577],[-3.839538,42.939779],[-3.837342,42.93423],[-3.829926,42.927692],[-3.831147,42.920966],[-3.833545,42.917985],[-3.838312,42.916231],[-3.843982,42.916946],[-3.847225,42.919371],[-3.852084,42.918948],[-3.855899,42.913957],[-3.857415,42.907561],[-3.860351,42.904559],[-3.858979,42.903678],[-3.866378,42.899326],[-3.868603,42.899075],[-3.879022,42.901301],[-3.883266,42.904286],[-3.885036,42.903029],[-3.891366,42.902809],[-3.902745,42.909474],[-3.907817,42.914522],[-3.908005,42.912269],[-3.910582,42.910925],[-3.907042,42.907558],[-3.898642,42.903644],[-3.89322,42.889467],[-3.895583,42.891105],[-3.892932,42.887362],[-3.902775,42.886267],[-3.909254,42.889701],[-3.910328,42.891962],[-3.91651,42.889256],[-3.920278,42.890658],[-3.924347,42.88922],[-3.922186,42.888004],[-3.908625,42.886869],[-3.90251,42.884918],[-3.897471,42.880284],[-3.900941,42.874674],[-3.90243,42.875238],[-3.903544,42.871862],[-3.908533,42.868923],[-3.912794,42.868096],[-3.914747,42.866054],[-3.915784,42.862507],[-3.91483,42.860083],[-3.912771,42.859082],[-3.899233,42.859936],[-3.896439,42.856302],[-3.887792,42.856829],[-3.885709,42.85408],[-3.880187,42.851385],[-3.873722,42.852902],[-3.8685,42.856697],[-3.873867,42.863194],[-3.873573,42.870185],[-3.870975,42.874338],[-3.874047,42.875116],[-3.868053,42.885977],[-3.863734,42.88981],[-3.860723,42.887248],[-3.85423,42.885315],[-3.851829,42.883469],[-3.836789,42.87878],[-3.825352,42.868633],[-3.834128,42.85571],[-3.833774,42.852173],[-3.816511,42.835926],[-3.816693,42.830251],[-3.819671,42.827843],[-3.816231,42.819286],[-3.815788,42.812607],[-3.816031,42.810561],[-3.820573,42.806278],[-3.82221,42.799638],[-3.829046,42.798724],[-3.854243,42.787562],[-3.863373,42.786458],[-3.868672,42.788534],[-3.876638,42.794174],[-3.88605,42.798244],[-3.894444,42.804537],[-3.897384,42.799786],[-3.900472,42.789279],[-3.907801,42.787943],[-3.909662,42.786442],[-3.908803,42.777029],[-3.910951,42.768385],[-3.926475,42.770125],[-3.930586,42.774486],[-3.938393,42.770937],[-3.944019,42.770342],[-3.948791,42.767502],[-3.94658,42.761909],[-3.95397,42.76165],[-3.956545,42.762214],[-3.965692,42.758598],[-3.978882,42.758081],[-3.981586,42.768306],[-3.985245,42.769401],[-3.990661,42.770984],[-3.994559,42.768609],[-3.99965,42.768979],[-3.995941,42.786221],[-3.997556,42.787819],[-3.996512,42.798958],[-3.997058,42.803231],[-4.000869,42.809799],[-4.000035,42.824098],[-4.001605,42.829668],[-4.003554,42.831407],[-4.011038,42.830377],[-4.020779,42.81935],[-4.014182,42.806377],[-4.017905,42.807479],[-4.022263,42.806945],[-4.032919,42.801257],[-4.031789,42.793594],[-4.028348,42.790329],[-4.029868,42.788344],[-4.033568,42.786608],[-4.037832,42.790802],[-4.043753,42.788794],[-4.049359,42.781224],[-4.049696,42.772935],[-4.045911,42.766612],[-4.054687,42.763029],[-4.07173,42.760538],[-4.08134,42.761465],[-4.083042,42.768681],[-4.085364,42.77218],[-4.09079,42.772066],[-4.094075,42.773322],[-4.095896,42.780212],[-4.099714,42.784597],[-4.098313,42.786268],[-4.098486,42.791183],[-4.112938,42.794547],[-4.122672,42.794596],[-4.137511,42.79028],[-4.140432,42.791521],[-4.144402,42.79131],[-4.149916,42.78931],[-4.155774,42.795329],[-4.16036,42.796652],[-4.173657,42.808575],[-4.178825,42.810881],[-4.182705,42.810346],[-4.18543,42.817297],[-4.183215,42.821733],[-4.178567,42.826247],[-4.165452,42.828209],[-4.163212,42.830105],[-4.163261,42.834067],[-4.161819,42.836081],[-4.157751,42.837743],[-4.15196,42.835604],[-4.150548,42.831386],[-4.148568,42.830172],[-4.145572,42.828959],[-4.145036,42.82973],[-4.140447,42.829001],[-4.140962,42.830392],[-4.137372,42.833481],[-4.137029,42.839428],[-4.128477,42.846266],[-4.127778,42.852901],[-4.125502,42.854292],[-4.12612,42.856636],[-4.139094,42.859309],[-4.141223,42.861881],[-4.145256,42.862219],[-4.148994,42.865757],[-4.14426,42.868614],[-4.149902,42.871133],[-4.167619,42.859544],[-4.172012,42.85814]],[[-4.089064,42.799891],[-4.087709,42.805595],[-4.089043,42.809833],[-4.088522,42.818492],[-4.094871,42.824051],[-4.098008,42.82367],[-4.107036,42.827762],[-4.109192,42.825138],[-4.112444,42.822315],[-4.111742,42.81863],[-4.113077,42.81669],[-4.105316,42.808786],[-4.10892,42.803078],[-4.101042,42.793968],[-4.089064,42.799891]],[[-4.163077,42.820948],[-4.174616,42.823082],[-4.17925,42.822908],[-4.182345,42.820346],[-4.174559,42.811618],[-4.164456,42.812289],[-4.161096,42.813115],[-4.159886,42.815154],[-4.163077,42.820948]]],[[[-3.770204,43.465906],[-3.77033,43.465579],[-3.771745,43.465125],[-3.770204,43.465906]]],[[[-3.729223,43.476945],[-3.727005,43.47451],[-3.728205,43.470405],[-3.730244,43.469357],[-3.731795,43.472823],[-3.729223,43.476945]]],[[[-3.249201,43.259687],[-3.252512,43.246078],[-3.2573,43.239674],[-3.269375,43.233564],[-3.270828,43.230269],[-3.267919,43.226868],[-3.268375,43.224859],[-3.266662,43.222814],[-3.271554,43.218328],[-3.269342,43.214213],[-3.270382,43.212788],[-3.265857,43.206675],[-3.267107,43.203791],[-3.275279,43.201147],[-3.283026,43.200004],[-3.285677,43.197867],[-3.291077,43.203643],[-3.296659,43.206416],[-3.29747,43.208399],[-3.294326,43.211207],[-3.292517,43.219109],[-3.296717,43.221917],[-3.297139,43.230569],[-3.294849,43.232925],[-3.29287,43.240976],[-3.294666,43.24311],[-3.296173,43.243205],[-3.298091,43.247378],[-3.305613,43.252572],[-3.304052,43.254928],[-3.303398,43.256629],[-3.296536,43.260302],[-3.287388,43.262128],[-3.279465,43.261967],[-3.269799,43.266844],[-3.263802,43.265917],[-3.249201,43.259687]]],[[[-3.458903,43.411498],[-3.458997,43.417468],[-3.45738,43.422571],[-3.456822,43.41727],[-3.458903,43.411498]]]]}}
]
}
