{
"type": "FeatureCollection",
"name": "cod_prov_41",
"crs": { "type": "name", "properties": { "name": "urn:ogc:def:crs:OGC:1.3:CRS84" } },
"xy_coordinate_resolution": 1e-15,
"features": [
{"type":"Feature","properties":{"fid":11,"cod_ccaa":"01","provincia":"Sevilla","cod_prov":"41"},"geometry":{"type":"MultiPolygon","coordinates":[[[[-5.837262,36.914382],[-5.845507,36.915212],[-5.859909,36.89997],[-5.869604,36.893699],[-5.87652,36.894712],[-5.893584,36.851583],[-5.888828,36.84677],[-5.890352,36.844372],[-5.888787,36.843301],[-5.891055,36.842192],[-5.925351,36.853068],[-5.941342,36.851925],[-5.952848,36.853126],[-5.960995,36.851266],[-5.973123,36.844186],[-5.977681,36.845505],[-6.021249,36.847469],[-6.036381,36.849328],[-6.050594,36.853442],[-6.076566,36.853521],[-6.080537,36.855229],[-6.085699,36.854491],[-6.105239,36.857425],[-6.121992,36.863789],[-6.130502,36.869791],[-6.143204,36.876232],[-6.156153,36.885647],[-6.183678,36.891526],[-6.187163,36.893586],[-6.208685,36.89343],[-6.229186,36.895947],[-6.231002,36.898105],[-6.243018,36.894417],[-6.251131,36.893672],[-6.260796,36.896453],[-6.272548,36.90787],[-6.278292,36.910846],[-6.296952,36.905185],[-6.331007,36.898802],[-6.334655,36.90324],[-6.345613,36.907518],[-6.356844,36.91904],[-6.369869,36.925852],[-6.37889,36.934705],[-6.373171,36.936589],[-6.363811,36.945801],[-6.359719,36.959721],[-6.361175,36.971897],[-6.355094,36.983278],[-6.353941,36.988491],[-6.359246,37.006181],[-6.378702,37.044416],[-6.380452,37.05852],[-6.383284,37.062801],[-6.385929,37.071978],[-6.385917,37.082079],[-6.380566,37.092998],[-6.376631,37.097588],[-6.3684,37.104256],[-6.356308,37.110645],[-6.356417,37.112597],[-6.360166,37.115446],[-6.360089,37.117286],[-6.353637,37.118189],[-6.349972,37.121041],[-6.345236,37.12031],[-6.343292,37.12114],[-6.34225,37.12353],[-6.343178,37.128009],[-6.345829,37.128664],[-6.348659,37.132368],[-6.351537,37.132304],[-6.355528,37.134507],[-6.359674,37.138426],[-6.358995,37.14113],[-6.3529,37.147357],[-6.352943,37.150374],[-6.34811,37.153079],[-6.336117,37.169617],[-6.346754,37.176435],[-6.350562,37.180562],[-6.353213,37.196722],[-6.352029,37.197945],[-6.353379,37.198943],[-6.349844,37.203053],[-6.350848,37.207412],[-6.347946,37.209296],[-6.345245,37.218283],[-6.359847,37.238096],[-6.355495,37.241851],[-6.35124,37.249612],[-6.35433,37.255498],[-6.349732,37.265169],[-6.342135,37.272078],[-6.337078,37.274744],[-6.338347,37.276663],[-6.341674,37.277966],[-6.342818,37.28115],[-6.340305,37.282707],[-6.338451,37.288202],[-6.336499,37.289455],[-6.333,37.299104],[-6.343986,37.313128],[-6.357967,37.31957],[-6.367124,37.326067],[-6.371462,37.327457],[-6.373717,37.330438],[-6.376579,37.330609],[-6.384572,37.337489],[-6.37822,37.346076],[-6.373949,37.34873],[-6.36843,37.349491],[-6.361938,37.355748],[-6.349099,37.362465],[-6.346039,37.365732],[-6.349532,37.368128],[-6.355137,37.37079],[-6.355366,37.373918],[-6.362081,37.375881],[-6.355639,37.385866],[-6.356531,37.386364],[-6.354275,37.39732],[-6.361922,37.401401],[-6.356259,37.412166],[-6.330744,37.415483],[-6.327931,37.417013],[-6.326989,37.416156],[-6.325059,37.419004],[-6.321329,37.420478],[-6.320428,37.419269],[-6.312632,37.418722],[-6.311911,37.422346],[-6.305613,37.42582],[-6.306631,37.435072],[-6.309345,37.437951],[-6.309196,37.440225],[-6.31161,37.442176],[-6.311933,37.445663],[-6.318642,37.450943],[-6.321249,37.451375],[-6.322186,37.454168],[-6.324999,37.455404],[-6.324912,37.457524],[-6.332766,37.464898],[-6.332575,37.470264],[-6.336064,37.478563],[-6.339277,37.48267],[-6.338355,37.485336],[-6.343546,37.489162],[-6.346653,37.493417],[-6.356184,37.496174],[-6.355596,37.499956],[-6.356676,37.500854],[-6.358093,37.499903],[-6.360477,37.504412],[-6.358082,37.504706],[-6.361991,37.510919],[-6.362165,37.513536],[-6.367242,37.518283],[-6.368514,37.528221],[-6.369778,37.529644],[-6.367299,37.531373],[-6.366478,37.535757],[-6.371414,37.540102],[-6.372895,37.544087],[-6.375342,37.546405],[-6.384287,37.55105],[-6.389081,37.551453],[-6.392401,37.554051],[-6.402429,37.579944],[-6.400202,37.583981],[-6.397625,37.584325],[-6.395271,37.582844],[-6.395532,37.585106],[-6.393384,37.585664],[-6.393246,37.588109],[-6.399578,37.591414],[-6.398201,37.594012],[-6.400213,37.594684],[-6.398279,37.595478],[-6.399213,37.598334],[-6.402092,37.5989],[-6.400434,37.601029],[-6.397261,37.600219],[-6.397803,37.601438],[-6.394257,37.604126],[-6.395627,37.609792],[-6.395257,37.611187],[-6.397502,37.610501],[-6.399325,37.612728],[-6.409636,37.614565],[-6.413281,37.619487],[-6.417372,37.619279],[-6.424059,37.62185],[-6.427825,37.621227],[-6.431191,37.620292],[-6.43533,37.622595],[-6.438681,37.621344],[-6.443825,37.623347],[-6.446442,37.620892],[-6.45427,37.62069],[-6.456433,37.623113],[-6.461298,37.621042],[-6.464965,37.621484],[-6.466246,37.619789],[-6.467342,37.621207],[-6.471982,37.620143],[-6.473867,37.622448],[-6.476566,37.619341],[-6.481217,37.619744],[-6.481414,37.621063],[-6.484222,37.620313],[-6.485109,37.616017],[-6.489102,37.617863],[-6.490043,37.621024],[-6.496552,37.617083],[-6.49748,37.61947],[-6.499883,37.618318],[-6.501013,37.619699],[-6.497959,37.621006],[-6.498639,37.622706],[-6.501079,37.621598],[-6.504009,37.624421],[-6.50442,37.62303],[-6.508212,37.621052],[-6.508586,37.624672],[-6.511248,37.622521],[-6.513253,37.623713],[-6.512827,37.624771],[-6.514991,37.625265],[-6.516469,37.6225],[-6.518848,37.622997],[-6.520513,37.62083],[-6.522623,37.621857],[-6.522392,37.618882],[-6.526411,37.61814],[-6.528281,37.61576],[-6.530321,37.61914],[-6.532309,37.618549],[-6.53256,37.620262],[-6.535211,37.621489],[-6.536976,37.620959],[-6.536358,37.623455],[-6.538515,37.62666],[-6.533958,37.62922],[-6.533421,37.633191],[-6.530514,37.634224],[-6.529602,37.636504],[-6.532418,37.639267],[-6.536601,37.640528],[-6.533561,37.645944],[-6.536089,37.650976],[-6.533248,37.657025],[-6.529445,37.658067],[-6.525363,37.664234],[-6.52192,37.664526],[-6.519314,37.662145],[-6.515964,37.665353],[-6.511829,37.664656],[-6.508867,37.668186],[-6.504439,37.666093],[-6.502339,37.66675],[-6.500526,37.670362],[-6.500924,37.677152],[-6.49813,37.682334],[-6.501423,37.688705],[-6.493566,37.68846],[-6.494062,37.691293],[-6.490782,37.69484],[-6.49119,37.696531],[-6.488314,37.698301],[-6.485466,37.696817],[-6.484918,37.69769],[-6.484841,37.701142],[-6.479504,37.705336],[-6.478672,37.711775],[-6.476505,37.71201],[-6.474979,37.708956],[-6.473365,37.709355],[-6.475669,37.714494],[-6.480766,37.715812],[-6.483683,37.719987],[-6.483042,37.720817],[-6.480589,37.720754],[-6.481045,37.722507],[-6.473783,37.725334],[-6.462082,37.721048],[-6.458168,37.721748],[-6.456449,37.720402],[-6.454292,37.721339],[-6.449994,37.718898],[-6.430882,37.727465],[-6.423485,37.734068],[-6.39003,37.747693],[-6.376081,37.750085],[-6.360199,37.754909],[-6.353001,37.75533],[-6.348796,37.757441],[-6.329248,37.759815],[-6.319889,37.763953],[-6.311022,37.76487],[-6.303207,37.761656],[-6.278494,37.75841],[-6.271214,37.758774],[-6.266177,37.761401],[-6.257836,37.760632],[-6.252318,37.763145],[-6.247452,37.757504],[-6.244665,37.747751],[-6.245483,37.746738],[-6.253892,37.747542],[-6.255003,37.745178],[-6.251668,37.74236],[-6.246596,37.74077],[-6.243516,37.740909],[-6.236323,37.744305],[-6.233836,37.743986],[-6.232996,37.742937],[-6.234814,37.738562],[-6.232484,37.738482],[-6.227058,37.741532],[-6.226938,37.739031],[-6.222234,37.739655],[-6.222018,37.741481],[-6.216999,37.743735],[-6.220406,37.748516],[-6.219893,37.754468],[-6.205697,37.766027],[-6.208907,37.769399],[-6.207571,37.771327],[-6.212291,37.786227],[-6.215528,37.791238],[-6.212164,37.79588],[-6.207308,37.798309],[-6.20839,37.800235],[-6.204486,37.802369],[-6.202397,37.805534],[-6.187663,37.80988],[-6.184238,37.80945],[-6.177873,37.798459],[-6.171982,37.798501],[-6.172847,37.79591],[-6.167755,37.795785],[-6.167423,37.792785],[-6.163113,37.794225],[-6.159089,37.790657],[-6.15725,37.790662],[-6.153925,37.794688],[-6.152434,37.794863],[-6.149998,37.793388],[-6.147105,37.793708],[-6.143849,37.790813],[-6.142996,37.787313],[-6.135562,37.789232],[-6.134016,37.787832],[-6.133859,37.790025],[-6.138198,37.79546],[-6.129073,37.795802],[-6.126428,37.797169],[-6.124296,37.804758],[-6.127133,37.811458],[-6.124525,37.812618],[-6.12166,37.816595],[-6.125945,37.818553],[-6.126213,37.824096],[-6.129079,37.82875],[-6.129594,37.832341],[-6.135418,37.834934],[-6.134579,37.841695],[-6.138429,37.844332],[-6.14216,37.855674],[-6.145667,37.856914],[-6.151726,37.853761],[-6.159035,37.854105],[-6.163619,37.857937],[-6.164294,37.86201],[-6.160232,37.865894],[-6.160638,37.870063],[-6.159191,37.873445],[-6.150841,37.87648],[-6.145983,37.883854],[-6.141417,37.884994],[-6.136313,37.895725],[-6.12539,37.900908],[-6.125095,37.90334],[-6.125237,37.905066],[-6.131119,37.90863],[-6.138354,37.909248],[-6.145213,37.920498],[-6.150483,37.915807],[-6.151473,37.91634],[-6.150969,37.919191],[-6.156897,37.916591],[-6.163745,37.917965],[-6.166785,37.911423],[-6.166586,37.909158],[-6.169969,37.909815],[-6.183938,37.92761],[-6.181585,37.935818],[-6.18227,37.938512],[-6.18024,37.941026],[-6.176799,37.946723],[-6.167944,37.951935],[-6.167815,37.955822],[-6.153807,37.957649],[-6.148781,37.962009],[-6.148988,37.966319],[-6.143025,37.965524],[-6.137637,37.971542],[-6.135567,37.972195],[-6.1301,37.973057],[-6.115627,37.981767],[-6.105173,37.982737],[-6.094767,37.981606],[-6.088222,37.98513],[-6.08227,37.985718],[-6.078172,37.984627],[-6.065145,37.988644],[-6.06212,37.991444],[-6.056395,37.991764],[-6.052029,37.996842],[-6.04647,37.997319],[-6.041056,37.994964],[-6.038156,37.995176],[-6.034333,37.997355],[-6.030745,37.997592],[-6.024226,37.993282],[-6.017102,37.991122],[-6.013051,37.993397],[-6.006276,37.991409],[-5.993503,37.999546],[-5.985502,37.997939],[-5.97198,37.999931],[-5.957819,37.998981],[-5.955827,37.998418],[-5.953688,37.995345],[-5.946738,38.003755],[-5.944603,38.011305],[-5.940568,38.014893],[-5.939658,38.019781],[-5.936461,38.02442],[-5.93692,38.02794],[-5.932688,38.031497],[-5.935916,38.036164],[-5.936977,38.04048],[-5.934287,38.044449],[-5.934224,38.046874],[-5.927507,38.05042],[-5.919278,38.049796],[-5.917912,38.056425],[-5.913128,38.059625],[-5.91168,38.062761],[-5.909172,38.062463],[-5.909848,38.063987],[-5.908045,38.068248],[-5.91081,38.078198],[-5.912902,38.078354],[-5.920752,38.084844],[-5.928345,38.087718],[-5.929305,38.089208],[-5.927866,38.091145],[-5.929192,38.096383],[-5.927588,38.097603],[-5.926378,38.105012],[-5.922833,38.107326],[-5.917921,38.115134],[-5.914102,38.117733],[-5.914488,38.120273],[-5.912519,38.122971],[-5.907335,38.123965],[-5.8953,38.130533],[-5.886395,38.132383],[-5.880665,38.13228],[-5.876961,38.137867],[-5.878182,38.138756],[-5.878685,38.146321],[-5.876836,38.148349],[-5.877377,38.155715],[-5.874294,38.158574],[-5.856237,38.161664],[-5.855581,38.168834],[-5.851524,38.171906],[-5.846549,38.17136],[-5.844349,38.173179],[-5.837857,38.174426],[-5.832441,38.17189],[-5.823095,38.169863],[-5.822482,38.17113],[-5.824236,38.172232],[-5.822775,38.175475],[-5.819787,38.174637],[-5.817562,38.177627],[-5.815387,38.176283],[-5.810749,38.177953],[-5.811929,38.174807],[-5.810628,38.173613],[-5.808717,38.174073],[-5.806611,38.177205],[-5.803137,38.178288],[-5.799434,38.174583],[-5.791159,38.177862],[-5.781705,38.18588],[-5.780008,38.184803],[-5.775275,38.185212],[-5.772123,38.183358],[-5.761132,38.182807],[-5.759159,38.180727],[-5.757281,38.180564],[-5.755345,38.181897],[-5.75752,38.183883],[-5.756727,38.185262],[-5.753962,38.184281],[-5.749609,38.187825],[-5.749475,38.190018],[-5.745846,38.189463],[-5.740823,38.194338],[-5.731481,38.195177],[-5.728163,38.197417],[-5.725076,38.195777],[-5.723228,38.192441],[-5.71473,38.188953],[-5.713496,38.185855],[-5.707879,38.1883],[-5.705935,38.185137],[-5.701015,38.186377],[-5.698019,38.184995],[-5.69473,38.186521],[-5.694562,38.183507],[-5.698791,38.182707],[-5.697868,38.179674],[-5.688612,38.181877],[-5.687491,38.179623],[-5.688837,38.171222],[-5.684351,38.161567],[-5.684243,38.157064],[-5.686143,38.161571],[-5.693077,38.167971],[-5.695735,38.171352],[-5.701998,38.167235],[-5.703894,38.16729],[-5.705786,38.169382],[-5.705562,38.163621],[-5.694711,38.150346],[-5.704414,38.143356],[-5.70897,38.142242],[-5.714787,38.134205],[-5.719781,38.136595],[-5.730797,38.137105],[-5.736002,38.135353],[-5.738817,38.132819],[-5.740738,38.126539],[-5.738397,38.123115],[-5.738268,38.119352],[-5.735533,38.115749],[-5.734102,38.109484],[-5.734069,38.098195],[-5.736052,38.094518],[-5.734901,38.086255],[-5.732896,38.087518],[-5.719569,38.08507],[-5.710426,38.081047],[-5.693631,38.08374],[-5.669356,38.101765],[-5.667033,38.10908],[-5.645958,38.125171],[-5.644259,38.129282],[-5.641312,38.132034],[-5.632501,38.138557],[-5.629371,38.137483],[-5.584789,38.131706],[-5.580985,38.128005],[-5.580504,38.119212],[-5.581684,38.115474],[-5.561742,38.108432],[-5.557346,38.10796],[-5.55084,38.101227],[-5.546319,38.099433],[-5.538782,38.093811],[-5.539575,38.082152],[-5.535401,38.079782],[-5.532075,38.075908],[-5.526851,38.075137],[-5.525214,38.07328],[-5.525612,38.068613],[-5.523708,38.065933],[-5.5161,38.062104],[-5.513107,38.059249],[-5.510428,38.053215],[-5.495126,38.041845],[-5.489968,38.033556],[-5.489026,38.028936],[-5.492036,38.013554],[-5.490567,38.00917],[-5.493711,38.000119],[-5.493511,37.996231],[-5.490344,37.992829],[-5.487365,37.993613],[-5.485273,37.99035],[-5.481533,37.989492],[-5.479065,37.98485],[-5.476551,37.983218],[-5.474649,37.975725],[-5.47002,37.974497],[-5.468937,37.970718],[-5.457908,37.969029],[-5.455144,37.96669],[-5.452258,37.967183],[-5.451633,37.96516],[-5.447828,37.963347],[-5.447264,37.961448],[-5.43588,37.958242],[-5.434173,37.955151],[-5.426557,37.950235],[-5.420628,37.948834],[-5.419026,37.945461],[-5.415611,37.943675],[-5.414379,37.941123],[-5.415285,37.938564],[-5.419203,37.935564],[-5.417962,37.934165],[-5.418769,37.931707],[-5.421066,37.929254],[-5.423231,37.930723],[-5.424266,37.92725],[-5.416509,37.928356],[-5.420202,37.92546],[-5.417205,37.922845],[-5.417242,37.921195],[-5.422076,37.918429],[-5.417965,37.916549],[-5.416347,37.912635],[-5.416733,37.90705],[-5.414157,37.906165],[-5.413707,37.901444],[-5.414527,37.898012],[-5.420798,37.893297],[-5.422063,37.888882],[-5.417924,37.887498],[-5.416417,37.885214],[-5.416881,37.881302],[-5.415329,37.879054],[-5.417553,37.877531],[-5.414634,37.876924],[-5.413783,37.87522],[-5.414937,37.869835],[-5.413776,37.869426],[-5.412472,37.871264],[-5.410906,37.87135],[-5.408191,37.868631],[-5.408461,37.866102],[-5.405021,37.862361],[-5.399349,37.863413],[-5.389047,37.85836],[-5.38176,37.851596],[-5.378574,37.852526],[-5.368451,37.850135],[-5.364117,37.848221],[-5.359908,37.844161],[-5.350496,37.843367],[-5.347862,37.840202],[-5.344511,37.839872],[-5.34509,37.836265],[-5.339765,37.833533],[-5.339114,37.831978],[-5.344926,37.827861],[-5.341842,37.823011],[-5.347636,37.812281],[-5.347334,37.805258],[-5.350044,37.794715],[-5.345304,37.792412],[-5.343348,37.78945],[-5.330933,37.785704],[-5.329451,37.781922],[-5.329393,37.778255],[-5.322896,37.776347],[-5.320622,37.776951],[-5.317194,37.774819],[-5.309754,37.773587],[-5.309915,37.766717],[-5.315125,37.764902],[-5.316045,37.759802],[-5.318024,37.759565],[-5.318675,37.758236],[-5.312889,37.75288],[-5.307717,37.736887],[-5.304889,37.73095],[-5.306209,37.72631],[-5.304094,37.721782],[-5.308796,37.715734],[-5.308874,37.711659],[-5.310927,37.709123],[-5.309114,37.705148],[-5.306716,37.703519],[-5.307065,37.70016],[-5.309382,37.69806],[-5.312025,37.698441],[-5.314595,37.701589],[-5.319005,37.701512],[-5.322895,37.694604],[-5.327099,37.69162],[-5.332748,37.695653],[-5.333477,37.700073],[-5.336862,37.705674],[-5.343463,37.705678],[-5.36277,37.697164],[-5.36816,37.691199],[-5.370382,37.684414],[-5.37513,37.67792],[-5.378733,37.677856],[-5.38415,37.681315],[-5.383641,37.693392],[-5.385902,37.696717],[-5.38825,37.697795],[-5.394122,37.693477],[-5.401073,37.693822],[-5.405494,37.691993],[-5.409402,37.688354],[-5.411909,37.683508],[-5.414195,37.67391],[-5.411519,37.669008],[-5.413009,37.665661],[-5.411006,37.661548],[-5.40632,37.658616],[-5.399532,37.66253],[-5.397215,37.662397],[-5.393599,37.656018],[-5.396633,37.650982],[-5.399542,37.649445],[-5.405552,37.647449],[-5.413604,37.6476],[-5.414393,37.64607],[-5.413017,37.644196],[-5.409873,37.645099],[-5.411317,37.641032],[-5.40696,37.641211],[-5.408765,37.639913],[-5.407941,37.638587],[-5.401663,37.636498],[-5.401161,37.631083],[-5.39812,37.627423],[-5.391774,37.623858],[-5.391445,37.620314],[-5.389338,37.619969],[-5.388105,37.617182],[-5.386221,37.616743],[-5.38439,37.614374],[-5.382028,37.614548],[-5.38091,37.610767],[-5.372265,37.609635],[-5.368529,37.606817],[-5.359933,37.605448],[-5.357857,37.602462],[-5.358409,37.598062],[-5.357026,37.596576],[-5.356772,37.588543],[-5.358148,37.585136],[-5.353987,37.584228],[-5.347573,37.585176],[-5.34377,37.587405],[-5.343503,37.593691],[-5.336654,37.597756],[-5.33107,37.604634],[-5.322924,37.611491],[-5.323304,37.61425],[-5.306326,37.621305],[-5.29738,37.623291],[-5.27452,37.625284],[-5.253635,37.636048],[-5.24616,37.641796],[-5.23536,37.650139],[-5.22511,37.654541],[-5.211943,37.663467],[-5.176768,37.680577],[-5.160117,37.671772],[-5.150054,37.660917],[-5.135752,37.668566],[-5.125823,37.665862],[-5.119265,37.667656],[-5.107921,37.662578],[-5.111168,37.670757],[-5.110061,37.674102],[-5.112656,37.677669],[-5.112535,37.68261],[-5.113226,37.688176],[-5.116234,37.69188],[-5.126682,37.696351],[-5.12971,37.698747],[-5.114843,37.701989],[-5.112727,37.702576],[-5.108184,37.70036],[-5.101224,37.69003],[-5.099968,37.68369],[-5.093453,37.674993],[-5.097879,37.670291],[-5.091157,37.667923],[-5.082079,37.661929],[-5.081657,37.660611],[-5.070516,37.660699],[-5.069438,37.659412],[-5.069816,37.661622],[-5.07218,37.663473],[-5.074001,37.662486],[-5.076805,37.664662],[-5.075629,37.66763],[-5.076435,37.668904],[-5.079842,37.671151],[-5.083146,37.670102],[-5.084112,37.671815],[-5.086626,37.672086],[-5.090762,37.677275],[-5.091251,37.681782],[-5.085829,37.688573],[-5.08905,37.694662],[-5.086743,37.695721],[-5.086154,37.698156],[-5.079928,37.701015],[-5.074391,37.700941],[-5.072003,37.708048],[-5.056413,37.713214],[-5.047747,37.718186],[-5.015767,37.710681],[-5.016033,37.709595],[-4.999822,37.70659],[-4.998374,37.702532],[-4.99657,37.69912],[-4.991701,37.69686],[-4.988787,37.693511],[-4.990632,37.692092],[-4.986952,37.689325],[-4.986673,37.685256],[-4.982693,37.676293],[-4.981289,37.676785],[-4.977422,37.673795],[-4.975929,37.67437],[-4.971546,37.67238],[-4.9649,37.663289],[-4.958861,37.658649],[-4.953767,37.652443],[-4.958162,37.62164],[-4.96523,37.611672],[-4.968194,37.612371],[-4.974698,37.60344],[-4.974283,37.600157],[-4.965658,37.610701],[-4.959765,37.609339],[-4.956976,37.611395],[-4.957751,37.612878],[-4.956742,37.613706],[-4.947863,37.615132],[-4.943763,37.61693],[-4.940148,37.621243],[-4.931708,37.617326],[-4.934597,37.608573],[-4.934892,37.599845],[-4.930329,37.589826],[-4.935187,37.586745],[-4.934989,37.583018],[-4.930217,37.57585],[-4.932429,37.572939],[-4.937655,37.571844],[-4.935536,37.568283],[-4.936932,37.567106],[-4.932068,37.564654],[-4.932844,37.56356],[-4.931506,37.563041],[-4.932359,37.561017],[-4.930861,37.559546],[-4.933042,37.558059],[-4.9334,37.556152],[-4.932463,37.553643],[-4.936041,37.550602],[-4.934557,37.547481],[-4.932026,37.545909],[-4.934299,37.540987],[-4.940883,37.536535],[-4.941674,37.533864],[-4.940066,37.52769],[-4.943517,37.52593],[-4.946321,37.522369],[-4.948935,37.521947],[-4.947043,37.520536],[-4.933945,37.51985],[-4.93501,37.51201],[-4.933243,37.51103],[-4.930706,37.513558],[-4.927577,37.512447],[-4.930466,37.510381],[-4.93127,37.506015],[-4.92621,37.502826],[-4.924609,37.500383],[-4.911311,37.49922],[-4.908203,37.501991],[-4.906021,37.499837],[-4.907775,37.494969],[-4.913381,37.495239],[-4.916155,37.492679],[-4.914361,37.487544],[-4.915202,37.48416],[-4.913443,37.483495],[-4.910166,37.488928],[-4.908494,37.488099],[-4.904469,37.489488],[-4.903633,37.487303],[-4.910182,37.47978],[-4.90578,37.472975],[-4.90409,37.467405],[-4.894313,37.459469],[-4.89066,37.461222],[-4.888491,37.460842],[-4.882207,37.452804],[-4.875343,37.450452],[-4.878723,37.446397],[-4.882662,37.445253],[-4.882487,37.440083],[-4.884741,37.437983],[-4.859781,37.437846],[-4.854326,37.439392],[-4.848609,37.438085],[-4.840635,37.436019],[-4.840113,37.427609],[-4.837645,37.423241],[-4.842066,37.415043],[-4.849811,37.410659],[-4.847188,37.408735],[-4.845209,37.403584],[-4.842238,37.404973],[-4.841011,37.404235],[-4.843823,37.399586],[-4.840517,37.399764],[-4.837806,37.398355],[-4.83097,37.390404],[-4.830151,37.384099],[-4.828052,37.382311],[-4.825197,37.383346],[-4.826019,37.379079],[-4.814689,37.377532],[-4.814728,37.372611],[-4.823613,37.368761],[-4.822127,37.358194],[-4.817266,37.354682],[-4.79993,37.344493],[-4.788631,37.335462],[-4.782225,37.328502],[-4.780085,37.335411],[-4.777511,37.335368],[-4.77565,37.333044],[-4.77246,37.336589],[-4.764058,37.337832],[-4.757101,37.333431],[-4.75274,37.333124],[-4.751518,37.331529],[-4.748727,37.330912],[-4.748602,37.331825],[-4.746406,37.331082],[-4.730092,37.335314],[-4.726322,37.338244],[-4.725934,37.341558],[-4.73295,37.34278],[-4.731446,37.344136],[-4.725884,37.344803],[-4.722614,37.346428],[-4.721473,37.349364],[-4.725355,37.351759],[-4.723051,37.356182],[-4.71961,37.358278],[-4.717208,37.358394],[-4.715986,37.354807],[-4.713248,37.352566],[-4.703927,37.35079],[-4.703532,37.348272],[-4.703522,37.345316],[-4.696897,37.346394],[-4.694674,37.345452],[-4.692413,37.341771],[-4.686743,37.34114],[-4.684354,37.338281],[-4.686773,37.331839],[-4.685654,37.330269],[-4.681531,37.330616],[-4.681036,37.334733],[-4.679315,37.336559],[-4.671176,37.334494],[-4.671539,37.331505],[-4.674073,37.33073],[-4.678421,37.331354],[-4.679576,37.329994],[-4.67109,37.326528],[-4.668057,37.323596],[-4.66807,37.320577],[-4.669547,37.318997],[-4.681965,37.323228],[-4.67964,37.317673],[-4.684069,37.315357],[-4.678712,37.308403],[-4.671705,37.310422],[-4.664961,37.308543],[-4.659006,37.305076],[-4.658696,37.3038],[-4.665772,37.299267],[-4.664708,37.297083],[-4.660611,37.294445],[-4.661576,37.293666],[-4.664251,37.294259],[-4.67118,37.297929],[-4.675248,37.301783],[-4.678528,37.297059],[-4.676078,37.290875],[-4.681091,37.290046],[-4.675263,37.2872],[-4.668835,37.28574],[-4.666308,37.287272],[-4.662114,37.283744],[-4.661319,37.280961],[-4.654003,37.271853],[-4.6552,37.262138],[-4.653348,37.255828],[-4.658757,37.257735],[-4.662048,37.25768],[-4.665399,37.253649],[-4.669424,37.255692],[-4.670032,37.252574],[-4.676535,37.25808],[-4.679487,37.256406],[-4.682586,37.256335],[-4.682667,37.254406],[-4.68511,37.254236],[-4.684513,37.252261],[-4.691033,37.251853],[-4.691408,37.253019],[-4.698833,37.256806],[-4.709282,37.255124],[-4.714033,37.252838],[-4.71543,37.253791],[-4.719691,37.259696],[-4.730036,37.253462],[-4.73343,37.250032],[-4.735746,37.244834],[-4.730296,37.242174],[-4.717945,37.239893],[-4.729194,37.230942],[-4.732308,37.226147],[-4.727209,37.211107],[-4.723502,37.212134],[-4.722996,37.210204],[-4.721596,37.210557],[-4.719726,37.207601],[-4.711269,37.206868],[-4.711327,37.204956],[-4.713615,37.203472],[-4.712092,37.202376],[-4.713631,37.201696],[-4.708606,37.197695],[-4.731932,37.18554],[-4.760015,37.177258],[-4.760106,37.17339],[-4.762251,37.170736],[-4.771281,37.169646],[-4.777422,37.166408],[-4.779839,37.166679],[-4.781085,37.159792],[-4.785676,37.156803],[-4.791138,37.160127],[-4.791913,37.154329],[-4.79419,37.153493],[-4.795988,37.154295],[-4.801122,37.159958],[-4.799219,37.172307],[-4.8041,37.173459],[-4.8064,37.171153],[-4.811686,37.175101],[-4.814599,37.180572],[-4.819449,37.179461],[-4.822655,37.180214],[-4.827424,37.186945],[-4.819346,37.192054],[-4.822319,37.195748],[-4.819282,37.196453],[-4.819414,37.197713],[-4.825908,37.200704],[-4.83678,37.200698],[-4.842285,37.201406],[-4.847067,37.198835],[-4.853866,37.198584],[-4.853701,37.193684],[-4.8589,37.19071],[-4.859076,37.184101],[-4.856833,37.184046],[-4.855891,37.178211],[-4.860185,37.175566],[-4.85779,37.175297],[-4.856701,37.173566],[-4.875501,37.158192],[-4.880447,37.163269],[-4.8893,37.155197],[-4.897619,37.156028],[-4.900301,37.159707],[-4.896268,37.163683],[-4.896111,37.167327],[-4.898155,37.170701],[-4.904035,37.175221],[-4.904385,37.177045],[-4.903183,37.177659],[-4.905114,37.181864],[-4.907127,37.179056],[-4.907574,37.174867],[-4.916982,37.175022],[-4.918822,37.173838],[-4.921926,37.175005],[-4.925161,37.170662],[-4.932801,37.174359],[-4.939604,37.175699],[-4.939795,37.167756],[-4.941608,37.166428],[-4.942666,37.157588],[-4.936559,37.15657],[-4.924679,37.148562],[-4.912024,37.14408],[-4.903312,37.138786],[-4.903086,37.136482],[-4.905796,37.131869],[-4.908369,37.114649],[-4.916965,37.111014],[-4.917147,37.107964],[-4.921959,37.106877],[-4.92141,37.104299],[-4.92262,37.103225],[-4.927015,37.103496],[-4.930739,37.099921],[-4.935727,37.100497],[-4.944004,37.097685],[-4.954543,37.091419],[-4.972285,37.075354],[-4.978422,37.073007],[-4.979714,37.069471],[-4.988291,37.064577],[-5.009591,37.054737],[-5.012191,37.055243],[-5.025909,37.051837],[-5.027656,37.049878],[-5.024078,37.045983],[-5.027963,37.044069],[-5.033579,37.04893],[-5.046786,37.039951],[-5.053089,37.030604],[-5.053824,37.032025],[-5.068476,37.032581],[-5.072679,37.031706],[-5.074605,37.029383],[-5.083307,37.031466],[-5.092178,37.027011],[-5.10265,37.025645],[-5.112226,37.019112],[-5.113758,37.021662],[-5.113489,37.024524],[-5.117531,37.024362],[-5.119939,37.028492],[-5.122839,37.027692],[-5.124193,37.023855],[-5.12604,37.023182],[-5.132216,37.014086],[-5.13252,37.011719],[-5.142116,37.006048],[-5.142381,37.003863],[-5.148,36.997083],[-5.158399,36.989324],[-5.162635,36.981423],[-5.173218,36.977859],[-5.181214,36.971909],[-5.189812,36.969732],[-5.19166,36.966408],[-5.196932,36.964607],[-5.20251,36.964459],[-5.20604,36.962636],[-5.213411,36.955748],[-5.215768,36.951847],[-5.220047,36.950703],[-5.222757,36.94465],[-5.225215,36.942297],[-5.234532,36.94105],[-5.252033,36.960384],[-5.256734,36.964044],[-5.259231,36.969864],[-5.26219,36.97307],[-5.262394,36.975779],[-5.26828,36.978433],[-5.274033,36.990571],[-5.285884,37.000636],[-5.293694,37.010363],[-5.300224,37.013742],[-5.301643,37.016481],[-5.301581,37.02335],[-5.302105,37.037363],[-5.314472,37.029237],[-5.321008,37.022755],[-5.329592,37.018234],[-5.330876,37.016136],[-5.336655,37.012508],[-5.339648,37.004563],[-5.345349,36.997394],[-5.349505,36.996987],[-5.352203,36.994086],[-5.355962,36.994318],[-5.356974,36.992892],[-5.359681,36.992486],[-5.360978,36.985007],[-5.365301,36.98566],[-5.373145,36.981782],[-5.374095,36.98233],[-5.375932,36.980005],[-5.382722,36.979084],[-5.392392,36.973284],[-5.400968,36.962729],[-5.413361,36.954015],[-5.413171,36.951198],[-5.416804,36.945348],[-5.41285,36.940661],[-5.418921,36.93878],[-5.423689,36.939025],[-5.433159,36.935659],[-5.438951,36.935288],[-5.44126,36.943964],[-5.446268,36.946439],[-5.445428,36.949682],[-5.447953,36.95419],[-5.445921,36.956674],[-5.454556,36.961201],[-5.457173,36.974142],[-5.460283,36.975141],[-5.460038,36.977985],[-5.456464,36.977924],[-5.452946,36.982412],[-5.449875,36.982638],[-5.448549,36.98436],[-5.444892,36.985589],[-5.442935,36.987287],[-5.442467,36.989856],[-5.435239,36.991122],[-5.427004,36.999627],[-5.425995,37.005704],[-5.421077,37.011149],[-5.420086,37.013557],[-5.421432,37.024461],[-5.427038,37.037441],[-5.427737,37.044573],[-5.431318,37.050394],[-5.433688,37.052445],[-5.441869,37.049501],[-5.447908,37.050215],[-5.458977,37.04238],[-5.462695,37.04123],[-5.464849,37.040762],[-5.473116,37.042942],[-5.488754,37.039839],[-5.496877,37.039696],[-5.510987,37.033603],[-5.503536,37.021324],[-5.49769,37.015779],[-5.495301,37.011467],[-5.487232,37.00732],[-5.487383,37.006064],[-5.483639,37.002556],[-5.473042,36.995234],[-5.469168,36.988015],[-5.469733,36.983948],[-5.481433,36.972367],[-5.489807,36.972894],[-5.493427,36.970917],[-5.498878,36.965872],[-5.502337,36.95832],[-5.50898,36.958531],[-5.51389,36.956543],[-5.515277,36.950224],[-5.520606,36.948047],[-5.520399,36.944834],[-5.524789,36.937333],[-5.532755,36.935847],[-5.533193,36.932468],[-5.535772,36.929979],[-5.546117,36.930181],[-5.546996,36.925882],[-5.550855,36.923123],[-5.539365,36.906994],[-5.533822,36.89345],[-5.547323,36.898938],[-5.564041,36.907626],[-5.575864,36.911156],[-5.583404,36.915092],[-5.585852,36.921455],[-5.58687,36.945603],[-5.587109,36.947013],[-5.588149,36.946891],[-5.594923,36.944671],[-5.60628,36.950793],[-5.607353,36.944705],[-5.61025,36.941424],[-5.614858,36.942548],[-5.618088,36.940161],[-5.626145,36.954438],[-5.632829,36.950604],[-5.649665,36.954321],[-5.656081,36.964127],[-5.666121,36.975743],[-5.668522,36.975662],[-5.672405,36.971709],[-5.67714,36.969971],[-5.685798,36.96226],[-5.690197,36.960907],[-5.694611,36.956779],[-5.695561,36.953144],[-5.693684,36.94577],[-5.696177,36.935278],[-5.702767,36.927972],[-5.7032,36.925601],[-5.717014,36.919519],[-5.72638,36.921557],[-5.736306,36.91822],[-5.744017,36.922944],[-5.756883,36.924899],[-5.767635,36.925812],[-5.774111,36.924255],[-5.786953,36.925846],[-5.798224,36.924347],[-5.805791,36.925322],[-5.828054,36.916062],[-5.831787,36.915648],[-5.837262,36.914382]],[[-5.024906,37.595289],[-5.028327,37.60408],[-5.029742,37.613645],[-5.033857,37.62164],[-5.033445,37.624801],[-5.029716,37.62728],[-5.030032,37.632213],[-5.026497,37.635158],[-5.029122,37.637095],[-5.031192,37.641521],[-5.033517,37.642003],[-5.034249,37.638521],[-5.046795,37.631942],[-5.04855,37.633552],[-5.048798,37.637197],[-5.05379,37.642373],[-5.08114,37.646553],[-5.084322,37.648083],[-5.084973,37.643791],[-5.047386,37.63076],[-5.040406,37.626195],[-5.043423,37.616797],[-5.04791,37.60814],[-5.031008,37.610604],[-5.030235,37.60384],[-5.026597,37.595423],[-5.024579,37.593673],[-5.018788,37.593123],[-5.018149,37.592107],[-5.01726,37.593582],[-5.024906,37.595289]]]]}}
]
}
