{
"type": "FeatureCollection",
"name": "cod_prov_13",
"crs": { "type": "name", "properties": { "name": "urn:ogc:def:crs:OGC:1.3:CRS84" } },
"xy_coordinate_resolution": 1e-15,
"features": [
{"type":"Feature","properties":{"fid":17,"cod_ccaa":"08","provincia":"Ciudad Real","cod_prov":"13"},"geometry":{"type":"MultiPolygon","coordinates":[[[[-4.160735,38.382743],[-4.175051,38.384412],[-4.188501,38.389827],[-4.199138,38.391224],[-4.223174,38.397419],[-4.241558,38.397704],[-4.247434,38.398416],[-4.254635,38.401629],[-4.257783,38.401577],[-4.267566,38.398417],[-4.272486,38.392307],[-4.276536,38.390849],[-4.276169,38.383589],[-4.27866,38.377488],[-4.276648,38.373058],[-4.27448,38.372199],[-4.274156,38.366074],[-4.272198,38.365419],[-4.270375,38.358005],[-4.272013,38.35613],[-4.270199,38.355123],[-4.26887,38.347171],[-4.272455,38.346699],[-4.274005,38.350278],[-4.276385,38.350892],[-4.275625,38.348017],[-4.278914,38.347656],[-4.28733,38.342761],[-4.289804,38.347402],[-4.294284,38.347082],[-4.296239,38.350206],[-4.302063,38.350168],[-4.306177,38.352385],[-4.309261,38.352693],[-4.311899,38.357448],[-4.31743,38.357008],[-4.320526,38.362371],[-4.322021,38.362751],[-4.324343,38.360787],[-4.327505,38.363482],[-4.331998,38.360664],[-4.335234,38.366116],[-4.383172,38.381844],[-4.38871,38.38587],[-4.394998,38.387202],[-4.406449,38.383127],[-4.409688,38.384872],[-4.416034,38.393843],[-4.420586,38.395897],[-4.429484,38.39596],[-4.435173,38.402235],[-4.443288,38.402027],[-4.449306,38.400565],[-4.452988,38.400871],[-4.456555,38.406873],[-4.462638,38.410952],[-4.464384,38.416887],[-4.471269,38.425983],[-4.483224,38.433051],[-4.487674,38.440006],[-4.491883,38.440763],[-4.49501,38.440678],[-4.49651,38.443417],[-4.500187,38.445019],[-4.503486,38.4505],[-4.505866,38.457535],[-4.512691,38.463854],[-4.523379,38.463022],[-4.535308,38.469994],[-4.541488,38.481898],[-4.544301,38.481582],[-4.550336,38.477519],[-4.558386,38.476556],[-4.559676,38.477945],[-4.5591,38.482053],[-4.563767,38.484775],[-4.565777,38.490777],[-4.568838,38.490222],[-4.571806,38.487497],[-4.576567,38.493416],[-4.58031,38.4926],[-4.584416,38.493211],[-4.587113,38.491742],[-4.588463,38.486362],[-4.590695,38.485674],[-4.594109,38.486628],[-4.596912,38.490519],[-4.608585,38.494702],[-4.611241,38.50019],[-4.619013,38.508238],[-4.621589,38.522908],[-4.624278,38.524124],[-4.631715,38.524309],[-4.639858,38.531837],[-4.64988,38.535174],[-4.667231,38.547769],[-4.679494,38.546639],[-4.682853,38.547988],[-4.694144,38.548969],[-4.701914,38.551965],[-4.705584,38.555787],[-4.700531,38.560492],[-4.701375,38.562706],[-4.705473,38.564205],[-4.70488,38.569215],[-4.706122,38.571251],[-4.709862,38.572638],[-4.72034,38.571106],[-4.733407,38.574644],[-4.740997,38.577604],[-4.747384,38.579672],[-4.755217,38.585511],[-4.761349,38.585563],[-4.770872,38.587663],[-4.779978,38.593779],[-4.787545,38.597052],[-4.801622,38.594746],[-4.816299,38.595321],[-4.821208,38.596488],[-4.835199,38.607524],[-4.851483,38.6129],[-4.86017,38.613979],[-4.86455,38.620775],[-4.867496,38.631631],[-4.864052,38.640129],[-4.868107,38.647661],[-4.867088,38.659733],[-4.869669,38.66618],[-4.868939,38.669481],[-4.87089,38.675135],[-4.86888,38.680934],[-4.87697,38.686094],[-4.88485,38.687605],[-4.891013,38.685039],[-4.899297,38.686598],[-4.910808,38.686699],[-4.91877,38.686091],[-4.923776,38.681981],[-4.940869,38.681528],[-4.955164,38.683434],[-5.004599,38.695094],[-5.000933,38.696779],[-5.000435,38.701212],[-5.002021,38.708177],[-5.004469,38.711829],[-5.012212,38.717715],[-5.017214,38.71889],[-5.024696,38.726438],[-5.03274,38.72537],[-5.035409,38.726188],[-5.041795,38.728672],[-5.046948,38.729087],[-5.038136,38.733503],[-5.029432,38.73324],[-5.015246,38.735638],[-5.009699,38.735157],[-5.003978,38.732985],[-4.989994,38.739757],[-4.987577,38.745123],[-4.983749,38.748558],[-4.983357,38.751457],[-4.972691,38.761098],[-4.96821,38.776005],[-4.960817,38.789772],[-4.960945,38.796545],[-4.957742,38.803618],[-4.958698,38.810342],[-4.953626,38.829961],[-4.944521,38.847134],[-4.943485,38.854378],[-4.934584,38.864833],[-4.92798,38.869934],[-4.924258,38.876799],[-4.91877,38.88061],[-4.914942,38.88744],[-4.900321,38.889075],[-4.895137,38.88752],[-4.889716,38.886544],[-4.879536,38.887862],[-4.876608,38.88654],[-4.865728,38.887092],[-4.853502,38.882908],[-4.849522,38.881466],[-4.847322,38.882402],[-4.842651,38.895271],[-4.846173,38.899901],[-4.844174,38.902437],[-4.845363,38.904698],[-4.840956,38.916671],[-4.841713,38.918317],[-4.836677,38.93056],[-4.831132,38.935612],[-4.832416,38.938908],[-4.834149,38.93988],[-4.843848,38.940178],[-4.843018,38.945093],[-4.851891,38.947313],[-4.872192,38.948818],[-4.876608,38.947819],[-4.885032,38.951351],[-4.891131,38.952469],[-4.890407,38.955174],[-4.89054,38.957127],[-4.894202,38.960312],[-4.905583,38.963397],[-4.913414,38.960647],[-4.918222,38.957045],[-4.93367,38.975577],[-4.936866,38.985273],[-4.937067,38.996874],[-4.945279,39.008784],[-4.951309,39.030705],[-4.961865,39.052341],[-4.962504,39.058727],[-4.948615,39.056248],[-4.941411,39.056504],[-4.935133,39.056419],[-4.930903,39.05384],[-4.914583,39.048595],[-4.902767,39.041004],[-4.885599,39.033633],[-4.875089,39.031991],[-4.867403,39.034043],[-4.86099,39.031784],[-4.852625,39.038811],[-4.849172,39.045506],[-4.842547,39.047593],[-4.838707,39.044752],[-4.832793,39.046161],[-4.832284,39.051503],[-4.82582,39.062552],[-4.836631,39.071239],[-4.84292,39.07351],[-4.84583,39.073383],[-4.850477,39.075616],[-4.858416,39.076832],[-4.873705,39.096337],[-4.874423,39.09902],[-4.870625,39.112362],[-4.856871,39.123277],[-4.856095,39.131651],[-4.858119,39.134682],[-4.85368,39.141024],[-4.855025,39.1473],[-4.853635,39.151656],[-4.84521,39.161359],[-4.838702,39.163894],[-4.834021,39.163247],[-4.831108,39.164726],[-4.831403,39.17611],[-4.821247,39.180909],[-4.813195,39.191027],[-4.811374,39.195858],[-4.809179,39.197874],[-4.810273,39.199416],[-4.77364,39.189501],[-4.742549,39.19452],[-4.714406,39.187622],[-4.676547,39.169593],[-4.675264,39.170657],[-4.661652,39.166229],[-4.64897,39.164905],[-4.647577,39.168727],[-4.649263,39.17201],[-4.65315,39.174892],[-4.662836,39.178665],[-4.663337,39.184217],[-4.665164,39.186119],[-4.672359,39.187296],[-4.677745,39.191768],[-4.682601,39.19296],[-4.686625,39.201425],[-4.689253,39.20382],[-4.699918,39.208134],[-4.708229,39.209868],[-4.705161,39.213743],[-4.710917,39.227102],[-4.714447,39.242205],[-4.713548,39.244317],[-4.733681,39.252543],[-4.731572,39.254917],[-4.754631,39.311488],[-4.761011,39.320789],[-4.734778,39.326643],[-4.713795,39.328666],[-4.70666,39.327726],[-4.705987,39.330583],[-4.710046,39.34575],[-4.704211,39.36445],[-4.694276,39.373596],[-4.695447,39.376426],[-4.693154,39.382406],[-4.687894,39.385789],[-4.687411,39.39368],[-4.682764,39.401325],[-4.674469,39.408941],[-4.672164,39.412641],[-4.669498,39.424536],[-4.673276,39.427077],[-4.67479,39.430605],[-4.677261,39.432398],[-4.677855,39.435354],[-4.68184,39.43681],[-4.686078,39.441029],[-4.687696,39.450294],[-4.65967,39.453923],[-4.640514,39.449825],[-4.618133,39.4544],[-4.611594,39.46014],[-4.614703,39.465926],[-4.613999,39.485262],[-4.618427,39.484651],[-4.590284,39.499744],[-4.585486,39.496881],[-4.573132,39.496724],[-4.571345,39.49792],[-4.567923,39.497281],[-4.568174,39.501738],[-4.557578,39.506889],[-4.554629,39.510776],[-4.559725,39.516528],[-4.560089,39.527101],[-4.562567,39.530708],[-4.561446,39.533137],[-4.542686,39.544001],[-4.542489,39.538274],[-4.531091,39.531604],[-4.534817,39.538096],[-4.532737,39.541376],[-4.529963,39.54225],[-4.529992,39.54516],[-4.528374,39.547263],[-4.531455,39.555079],[-4.527073,39.557434],[-4.524406,39.561631],[-4.522153,39.561337],[-4.521417,39.555904],[-4.504902,39.546758],[-4.493864,39.544918],[-4.48219,39.538796],[-4.48353,39.53559],[-4.492906,39.538182],[-4.501671,39.535096],[-4.503411,39.527847],[-4.511222,39.522124],[-4.506353,39.521845],[-4.499888,39.517685],[-4.496077,39.50812],[-4.493838,39.507293],[-4.492906,39.504521],[-4.488175,39.501932],[-4.485453,39.493687],[-4.483149,39.491986],[-4.48327,39.488354],[-4.480286,39.485815],[-4.461588,39.478546],[-4.46265,39.489318],[-4.459484,39.492484],[-4.453081,39.517288],[-4.446643,39.518125],[-4.443593,39.523109],[-4.439944,39.522731],[-4.432096,39.518998],[-4.422977,39.512218],[-4.424628,39.509305],[-4.421746,39.507151],[-4.409271,39.506276],[-4.404436,39.50355],[-4.39529,39.502155],[-4.377211,39.495983],[-4.370758,39.495482],[-4.36417,39.49638],[-4.359571,39.495487],[-4.346418,39.491838],[-4.344861,39.490126],[-4.340548,39.490176],[-4.331413,39.48738],[-4.327733,39.487692],[-4.320652,39.483412],[-4.298023,39.484522],[-4.272002,39.479503],[-4.256898,39.480739],[-4.246522,39.47986],[-4.242093,39.477898],[-4.237278,39.479129],[-4.204991,39.487902],[-4.203451,39.490359],[-4.196098,39.492814],[-4.193234,39.495384],[-4.166461,39.56689],[-4.158732,39.576761],[-4.14975,39.573625],[-4.14516,39.569228],[-4.135851,39.565184],[-4.130125,39.565267],[-4.124346,39.563557],[-4.10145,39.56583],[-4.089465,39.569196],[-4.081857,39.568068],[-4.078446,39.570343],[-4.072281,39.572157],[-4.054029,39.57318],[-4.041779,39.575354],[-4.039592,39.573905],[-4.039651,39.567714],[-4.037839,39.565649],[-4.039908,39.559224],[-4.036275,39.548985],[-4.03008,39.521974],[-4.034747,39.521265],[-4.03896,39.522156],[-4.043358,39.520657],[-4.050752,39.5226],[-4.060077,39.521443],[-4.064969,39.506612],[-4.068245,39.502546],[-4.065071,39.494213],[-4.067744,39.485737],[-4.063199,39.479715],[-4.062713,39.475304],[-4.058829,39.472186],[-4.06216,39.467209],[-4.064573,39.466881],[-4.064329,39.462297],[-4.068131,39.457054],[-4.075698,39.452497],[-4.081322,39.45167],[-4.099964,39.455379],[-4.103674,39.459191],[-4.108572,39.460217],[-4.111926,39.459896],[-4.118073,39.456882],[-4.118363,39.454663],[-4.116276,39.450619],[-4.120361,39.445885],[-4.120473,39.435432],[-4.124371,39.429277],[-4.129839,39.413924],[-4.127899,39.408852],[-4.130462,39.404277],[-4.135103,39.400376],[-4.132492,39.396923],[-4.142935,39.376467],[-4.142824,39.372476],[-4.147904,39.366551],[-4.148074,39.362765],[-4.143072,39.362797],[-4.140758,39.363955],[-4.134315,39.363171],[-4.128025,39.365448],[-4.125105,39.363566],[-4.120539,39.362619],[-4.115508,39.356459],[-4.114247,39.34792],[-4.108712,39.348703],[-4.104449,39.341112],[-4.085874,39.349486],[-4.079579,39.360537],[-4.073373,39.365334],[-4.047069,39.360582],[-4.041584,39.357847],[-4.03156,39.358918],[-4.025539,39.358286],[-4.01935,39.355746],[-4.00252,39.351612],[-3.972202,39.352175],[-3.972041,39.347239],[-3.967711,39.342076],[-3.968554,39.332518],[-3.964714,39.330874],[-3.96829,39.323482],[-3.965458,39.319145],[-3.966256,39.316444],[-3.95868,39.309568],[-3.958474,39.307218],[-3.966301,39.300297],[-3.966856,39.298553],[-3.965471,39.298177],[-3.952039,39.292827],[-3.950162,39.292942],[-3.940532,39.288208],[-3.92863,39.284267],[-3.922705,39.283413],[-3.91532,39.284363],[-3.90241,39.280283],[-3.89641,39.277112],[-3.894228,39.274147],[-3.876038,39.262057],[-3.854284,39.258416],[-3.846746,39.259985],[-3.841492,39.259681],[-3.837336,39.266883],[-3.828307,39.268966],[-3.815372,39.279185],[-3.815269,39.28225],[-3.812178,39.286713],[-3.809124,39.288348],[-3.792923,39.292244],[-3.765696,39.293318],[-3.756917,39.290059],[-3.744851,39.28282],[-3.740666,39.276323],[-3.730089,39.274795],[-3.724286,39.271939],[-3.722523,39.269607],[-3.720693,39.269789],[-3.720459,39.270692],[-3.701285,39.277594],[-3.688139,39.284863],[-3.683762,39.290232],[-3.679744,39.292066],[-3.680187,39.298281],[-3.674616,39.296647],[-3.65749,39.299331],[-3.638927,39.299785],[-3.623887,39.302696],[-3.622371,39.30046],[-3.611692,39.303382],[-3.607913,39.302213],[-3.595059,39.304595],[-3.586595,39.307665],[-3.577366,39.305233],[-3.574502,39.302571],[-3.57385,39.30079],[-3.568432,39.30051],[-3.567111,39.299327],[-3.556173,39.299047],[-3.548345,39.302093],[-3.532588,39.304158],[-3.531431,39.309236],[-3.525014,39.314996],[-3.514739,39.320187],[-3.492891,39.334572],[-3.485789,39.341135],[-3.476879,39.343145],[-3.473565,39.352484],[-3.470481,39.37214],[-3.447914,39.387007],[-3.427022,39.394356],[-3.419968,39.399275],[-3.412442,39.401239],[-3.410278,39.40459],[-3.401611,39.404169],[-3.349562,39.408311],[-3.339464,39.407548],[-3.33058,39.405375],[-3.309134,39.399153],[-3.311448,39.404932],[-3.309319,39.406893],[-3.309137,39.410281],[-3.311767,39.419231],[-3.315474,39.424717],[-3.316376,39.42886],[-3.314458,39.431289],[-3.31589,39.434529],[-3.313785,39.439256],[-3.303432,39.450168],[-3.302254,39.454614],[-3.299275,39.456586],[-3.294197,39.470844],[-3.284137,39.470031],[-3.269378,39.47149],[-3.255785,39.470917],[-3.228426,39.473443],[-3.213076,39.476076],[-3.200912,39.475431],[-3.187587,39.475138],[-3.185166,39.474151],[-3.184516,39.487965],[-3.157312,39.496114],[-3.143424,39.495529],[-3.121804,39.482209],[-3.110166,39.476012],[-3.105666,39.475241],[-3.100166,39.475345],[-3.097164,39.473789],[-3.075743,39.458064],[-3.069598,39.450273],[-3.061845,39.449872],[-3.055001,39.451263],[-3.049805,39.450716],[-3.022587,39.456996],[-3.014866,39.44504],[-2.999549,39.441644],[-3.000119,39.448898],[-2.994784,39.451376],[-2.977735,39.444679],[-2.966043,39.447947],[-2.956792,39.447214],[-2.955311,39.454863],[-2.931374,39.471485],[-2.93034,39.47079],[-2.929585,39.469673],[-2.927573,39.470618],[-2.931069,39.462754],[-2.931339,39.459969],[-2.929249,39.45749],[-2.932192,39.45542],[-2.931811,39.452824],[-2.928789,39.45285],[-2.926416,39.454308],[-2.927036,39.450695],[-2.925058,39.45246],[-2.92363,39.451305],[-2.921967,39.451953],[-2.921376,39.450286],[-2.914534,39.447397],[-2.912791,39.438404],[-2.907363,39.43038],[-2.902872,39.425934],[-2.901384,39.427221],[-2.903915,39.428377],[-2.904244,39.434207],[-2.90198,39.4327],[-2.902693,39.429637],[-2.899487,39.429076],[-2.898799,39.430814],[-2.897615,39.430363],[-2.898073,39.426885],[-2.899839,39.426418],[-2.900074,39.425004],[-2.893283,39.421375],[-2.889669,39.421921],[-2.88592,39.405609],[-2.87968,39.400016],[-2.877424,39.395337],[-2.874057,39.394738],[-2.870162,39.391112],[-2.870592,39.384399],[-2.875354,39.383819],[-2.883421,39.385386],[-2.886093,39.384839],[-2.887415,39.378452],[-2.896558,39.366773],[-2.893436,39.35894],[-2.888796,39.357359],[-2.886852,39.35369],[-2.882803,39.352496],[-2.882376,39.350883],[-2.871865,39.355179],[-2.864689,39.356828],[-2.859934,39.348983],[-2.860901,39.347209],[-2.858231,39.347404],[-2.853247,39.350138],[-2.848735,39.348807],[-2.84567,39.349299],[-2.829371,39.355926],[-2.824842,39.361578],[-2.816769,39.36835],[-2.813337,39.375436],[-2.812246,39.375227],[-2.809401,39.379845],[-2.803789,39.381061],[-2.802604,39.385645],[-2.798338,39.391288],[-2.79361,39.391685],[-2.790817,39.393617],[-2.792443,39.397549],[-2.77603,39.394761],[-2.776371,39.386282],[-2.772082,39.369595],[-2.762601,39.358511],[-2.756287,39.338188],[-2.746632,39.32238],[-2.742251,39.318153],[-2.743697,39.315994],[-2.739648,39.309876],[-2.735955,39.295639],[-2.726795,39.286364],[-2.724072,39.279816],[-2.722456,39.266332],[-2.732371,39.253019],[-2.759835,39.230389],[-2.76955,39.217965],[-2.773215,39.20934],[-2.781106,39.19719],[-2.793458,39.186886],[-2.806926,39.177844],[-2.824903,39.151001],[-2.842658,39.134491],[-2.833596,39.120854],[-2.834195,39.112294],[-2.831169,39.105306],[-2.822469,39.092642],[-2.815469,39.094019],[-2.805011,39.078944],[-2.807713,39.071712],[-2.805986,39.069213],[-2.809414,39.053801],[-2.806912,39.043371],[-2.809934,39.02383],[-2.816769,39.025292],[-2.821211,39.023145],[-2.832266,39.023243],[-2.837463,39.013852],[-2.838145,39.003742],[-2.844593,38.986359],[-2.858656,38.975059],[-2.865506,38.966524],[-2.870968,38.965548],[-2.871206,38.961439],[-2.872594,38.959972],[-2.877402,38.956129],[-2.880942,38.951114],[-2.882891,38.938491],[-2.879329,38.936009],[-2.876221,38.925507],[-2.870197,38.926699],[-2.865693,38.929037],[-2.857666,38.927379],[-2.850719,38.923089],[-2.842821,38.915645],[-2.839954,38.908405],[-2.835808,38.905975],[-2.803162,38.908132],[-2.799287,38.908053],[-2.798221,38.905727],[-2.792466,38.905554],[-2.792962,38.897796],[-2.790651,38.891574],[-2.780416,38.886113],[-2.772176,38.88506],[-2.762309,38.880769],[-2.760922,38.867943],[-2.756404,38.86779],[-2.755236,38.858884],[-2.751147,38.84835],[-2.749328,38.831531],[-2.752387,38.823156],[-2.752681,38.814731],[-2.750277,38.807111],[-2.743622,38.803294],[-2.73452,38.795289],[-2.732762,38.790969],[-2.732244,38.781848],[-2.722116,38.783807],[-2.711619,38.785953],[-2.710229,38.78494],[-2.696283,38.782931],[-2.685529,38.775225],[-2.681185,38.768346],[-2.674574,38.761615],[-2.666058,38.758842],[-2.662987,38.753525],[-2.643458,38.746384],[-2.640156,38.741742],[-2.637891,38.734625],[-2.641824,38.721146],[-2.646752,38.715484],[-2.649711,38.700822],[-2.649025,38.692997],[-2.654684,38.680767],[-2.655557,38.671434],[-2.660464,38.666861],[-2.668857,38.649222],[-2.674929,38.648175],[-2.682486,38.644123],[-2.682182,38.642626],[-2.686856,38.635429],[-2.697641,38.628374],[-2.699825,38.625361],[-2.702251,38.62479],[-2.706276,38.626495],[-2.717586,38.625126],[-2.717587,38.62217],[-2.728247,38.616076],[-2.729048,38.617141],[-2.737339,38.617593],[-2.744897,38.624314],[-2.762069,38.628496],[-2.763691,38.627886],[-2.757283,38.620258],[-2.750097,38.615566],[-2.754614,38.601337],[-2.754357,38.592666],[-2.756909,38.585057],[-2.760124,38.578187],[-2.7655,38.573854],[-2.76057,38.568383],[-2.759498,38.559558],[-2.757008,38.559273],[-2.755662,38.557],[-2.756348,38.55437],[-2.75229,38.552748],[-2.752287,38.550459],[-2.746791,38.546815],[-2.74896,38.543458],[-2.752127,38.543609],[-2.755166,38.537605],[-2.758627,38.535395],[-2.762561,38.535763],[-2.764249,38.535478],[-2.762078,38.532752],[-2.763606,38.532098],[-2.766827,38.532969],[-2.767987,38.532746],[-2.767318,38.530339],[-2.771817,38.529681],[-2.773806,38.528252],[-2.774179,38.526495],[-2.770783,38.523109],[-2.77016,38.520656],[-2.774304,38.519736],[-2.776538,38.516811],[-2.780016,38.516043],[-2.778715,38.513878],[-2.779208,38.510301],[-2.780576,38.50933],[-2.782157,38.51009],[-2.783658,38.514355],[-2.787405,38.515534],[-2.785718,38.512079],[-2.786905,38.510108],[-2.793759,38.507777],[-2.791628,38.503258],[-2.795383,38.501345],[-2.79932,38.50456],[-2.801224,38.50423],[-2.800836,38.499615],[-2.804485,38.503037],[-2.806595,38.503049],[-2.80824,38.501123],[-2.808193,38.497203],[-2.810068,38.495124],[-2.813885,38.495905],[-2.812968,38.491299],[-2.817514,38.493829],[-2.819792,38.490886],[-2.825236,38.487361],[-2.823281,38.48497],[-2.829673,38.487557],[-2.831968,38.486569],[-2.832607,38.483155],[-2.829879,38.478086],[-2.831063,38.476456],[-2.834145,38.477281],[-2.835944,38.482835],[-2.838222,38.484388],[-2.840624,38.481913],[-2.839591,38.477424],[-2.844456,38.480954],[-2.849868,38.480447],[-2.854895,38.478038],[-2.850706,38.474581],[-2.856439,38.474255],[-2.860897,38.475135],[-2.86184,38.473649],[-2.860195,38.470357],[-2.863964,38.471624],[-2.867577,38.470826],[-2.869379,38.469422],[-2.870235,38.465133],[-2.879225,38.463629],[-2.88001,38.46007],[-2.877838,38.456877],[-2.880062,38.456771],[-2.883268,38.45873],[-2.884805,38.457623],[-2.88149,38.452645],[-2.889771,38.45588],[-2.896489,38.462402],[-2.901736,38.464443],[-2.90218,38.466687],[-2.905787,38.469908],[-2.909638,38.470019],[-2.911234,38.468019],[-2.93136,38.47208],[-2.932897,38.471432],[-2.938442,38.474742],[-2.94803,38.469944],[-2.949451,38.470584],[-2.956583,38.468577],[-2.963585,38.471455],[-2.967026,38.468428],[-2.968759,38.462219],[-2.976934,38.454894],[-2.993508,38.45012],[-2.996327,38.443523],[-2.993383,38.436124],[-2.994541,38.432167],[-2.992227,38.428589],[-2.994129,38.423777],[-2.996753,38.421074],[-2.996787,38.418045],[-3.001266,38.414215],[-3.001071,38.40897],[-3.002514,38.408258],[-3.006696,38.41645],[-3.044487,38.455808],[-3.064965,38.478248],[-3.068324,38.477336],[-3.077213,38.470769],[-3.094398,38.462186],[-3.106226,38.454273],[-3.107728,38.454443],[-3.115021,38.449389],[-3.118068,38.448692],[-3.127191,38.442572],[-3.130198,38.438766],[-3.138287,38.438577],[-3.149921,38.440058],[-3.180024,38.449921],[-3.219537,38.452909],[-3.232218,38.454759],[-3.246153,38.457696],[-3.257648,38.457329],[-3.262538,38.459391],[-3.280009,38.460405],[-3.285183,38.464556],[-3.286309,38.467996],[-3.288966,38.470368],[-3.290487,38.469427],[-3.296762,38.470565],[-3.305259,38.479276],[-3.310297,38.480497],[-3.318204,38.479656],[-3.326493,38.482121],[-3.335348,38.480501],[-3.349035,38.477739],[-3.375012,38.475235],[-3.374892,38.469666],[-3.377532,38.465981],[-3.378114,38.458904],[-3.380422,38.455409],[-3.380374,38.450552],[-3.380694,38.446018],[-3.375656,38.442411],[-3.376684,38.439596],[-3.388674,38.433997],[-3.401898,38.423949],[-3.405136,38.423307],[-3.408304,38.424368],[-3.410396,38.423559],[-3.417609,38.4149],[-3.422526,38.411503],[-3.424824,38.406799],[-3.433238,38.40803],[-3.43789,38.404588],[-3.442321,38.404383],[-3.446954,38.401752],[-3.453163,38.400205],[-3.459668,38.400225],[-3.472595,38.397956],[-3.477611,38.401505],[-3.485473,38.404032],[-3.496225,38.403726],[-3.505921,38.40801],[-3.509718,38.4073],[-3.524254,38.409101],[-3.528443,38.408641],[-3.528128,38.411004],[-3.533346,38.415089],[-3.534365,38.419663],[-3.534964,38.423256],[-3.532661,38.426286],[-3.532146,38.431118],[-3.535164,38.439414],[-3.543843,38.446313],[-3.552589,38.446533],[-3.567357,38.452032],[-3.578071,38.450385],[-3.583076,38.451469],[-3.586361,38.433951],[-3.585846,38.405602],[-3.598236,38.398474],[-3.602888,38.398792],[-3.614536,38.39483],[-3.620472,38.393987],[-3.644177,38.401898],[-3.645969,38.403826],[-3.65166,38.405011],[-3.699277,38.412883],[-3.730009,38.424366],[-3.739664,38.413987],[-3.764915,38.42436],[-3.785614,38.425268],[-3.801181,38.419954],[-3.807857,38.421818],[-3.811307,38.419866],[-3.816374,38.419227],[-3.818679,38.41539],[-3.82429,38.416297],[-3.830058,38.412795],[-3.832553,38.399674],[-3.830563,38.392902],[-3.83813,38.385774],[-3.854287,38.37514],[-3.859887,38.373342],[-3.861747,38.375779],[-3.874183,38.37703],[-3.88033,38.375001],[-3.88966,38.374138],[-3.896373,38.371699],[-3.906012,38.371705],[-3.91255,38.369095],[-3.937865,38.368607],[-3.944451,38.367166],[-3.950164,38.368976],[-3.961939,38.366096],[-3.981398,38.367764],[-3.989496,38.369831],[-3.995988,38.369921],[-3.999988,38.367823],[-4.006448,38.368074],[-4.01379,38.371678],[-4.027369,38.375075],[-4.046647,38.377428],[-4.055758,38.377328],[-4.05823,38.378847],[-4.068787,38.379724],[-4.075061,38.378901],[-4.078001,38.377207],[-4.086351,38.376706],[-4.092746,38.380251],[-4.111463,38.382319],[-4.11306,38.379718],[-4.128546,38.379452],[-4.133546,38.384397],[-4.144925,38.386431],[-4.156556,38.381324],[-4.160735,38.382743]]],[[[-4.747155,39.476473],[-4.745871,39.472555],[-4.749188,39.470361],[-4.749951,39.468349],[-4.740511,39.456165],[-4.744969,39.451332],[-4.751835,39.448923],[-4.766984,39.43353],[-4.767941,39.430975],[-4.766895,39.424044],[-4.753709,39.425424],[-4.756524,39.420462],[-4.755371,39.415713],[-4.761154,39.410112],[-4.764722,39.404219],[-4.774613,39.397194],[-4.788405,39.398866],[-4.795949,39.396876],[-4.805905,39.397496],[-4.810433,39.39657],[-4.816294,39.393316],[-4.821135,39.393268],[-4.832019,39.389412],[-4.832813,39.387822],[-4.845544,39.379206],[-4.849895,39.381732],[-4.853181,39.379112],[-4.855824,39.37897],[-4.856818,39.381009],[-4.860709,39.379739],[-4.863381,39.375002],[-4.86417,39.375882],[-4.865884,39.374422],[-4.868174,39.374971],[-4.870934,39.368313],[-4.878157,39.372323],[-4.882142,39.372889],[-4.887569,39.370531],[-4.896156,39.373842],[-4.902001,39.374504],[-4.903298,39.375672],[-4.903425,39.379057],[-4.905767,39.379803],[-4.910288,39.37871],[-4.915372,39.383781],[-4.921499,39.387464],[-4.932089,39.387937],[-4.934394,39.395719],[-4.940741,39.395118],[-4.942171,39.399347],[-4.94142,39.402431],[-4.931793,39.425576],[-4.926653,39.434247],[-4.919929,39.456378],[-4.910976,39.479158],[-4.911717,39.482452],[-4.908211,39.493691],[-4.902995,39.503696],[-4.89932,39.506261],[-4.898039,39.512615],[-4.891621,39.519126],[-4.888949,39.526575],[-4.879739,39.538365],[-4.872163,39.543947],[-4.863122,39.556147],[-4.848117,39.552125],[-4.810969,39.529807],[-4.786048,39.525247],[-4.779774,39.520099],[-4.771372,39.518155],[-4.767759,39.515615],[-4.762473,39.514038],[-4.751709,39.50183],[-4.750472,39.497452],[-4.743897,39.489388],[-4.742851,39.487548],[-4.745803,39.482386],[-4.747155,39.476473]]]]}}
]
}
