{
"type": "FeatureCollection",
"name": "cod_prov_35",
"crs": { "type": "name", "properties": { "name": "urn:ogc:def:crs:OGC:1.3:CRS84" } },
"xy_coordinate_resolution": 1e-15,
"features": [
{"type":"Feature","properties":{"fid":28,"cod_ccaa":"05","provincia":"Las Palmas","cod_prov":"35"},"geometry":{"type":"MultiPolygon","coordinates":[[[[-15.413457,27.847369],[-15.418753,27.839897],[-15.418229,27.834809],[-15.422242,27.831473],[-15.421637,27.825841],[-15.422909,27.825946],[-15.423378,27.82274],[-15.420784,27.817956],[-15.420965,27.814986],[-15.423681,27.808843],[-15.427243,27.805702],[-15.433673,27.802633],[-15.432416,27.800285],[-15.433755,27.79923],[-15.432778,27.800451],[-15.435307,27.802985],[-15.433808,27.800128],[-15.435459,27.801732],[-15.446148,27.79889],[-15.456917,27.79843],[-15.46277,27.796768],[-15.462655,27.794769],[-15.463007,27.794673],[-15.46399,27.794661],[-15.462948,27.794894],[-15.463148,27.796731],[-15.463729,27.796887],[-15.473902,27.793571],[-15.487623,27.792627],[-15.495472,27.789728],[-15.508346,27.780553],[-15.517565,27.781532],[-15.527171,27.776738],[-15.532622,27.772486],[-15.533704,27.770197],[-15.538412,27.770376],[-15.543057,27.766482],[-15.549443,27.76729],[-15.551274,27.766044],[-15.550873,27.765005],[-15.552205,27.765634],[-15.560191,27.762993],[-15.563983,27.760213],[-15.566293,27.756455],[-15.569905,27.739161],[-15.577606,27.734984],[-15.591122,27.735816],[-15.598961,27.734543],[-15.60636,27.739038],[-15.611245,27.744255],[-15.619607,27.748914],[-15.621639,27.748638],[-15.621669,27.746738],[-15.625361,27.747008],[-15.621071,27.745454],[-15.630484,27.74538],[-15.634697,27.748532],[-15.636812,27.748407],[-15.637569,27.750272],[-15.647125,27.751248],[-15.651726,27.754702],[-15.658731,27.756589],[-15.670055,27.754537],[-15.672103,27.751968],[-15.671283,27.750173],[-15.672975,27.749637],[-15.668896,27.748134],[-15.674113,27.749009],[-15.679118,27.755676],[-15.678184,27.756818],[-15.683127,27.755286],[-15.685678,27.756239],[-15.686631,27.758681],[-15.684676,27.756328],[-15.683403,27.757724],[-15.684587,27.758258],[-15.68269,27.757723],[-15.682127,27.759396],[-15.68392,27.75978],[-15.685556,27.763346],[-15.687207,27.763706],[-15.689845,27.771134],[-15.695415,27.772814],[-15.698617,27.771295],[-15.695996,27.769616],[-15.700389,27.770783],[-15.700792,27.773717],[-15.703279,27.776604],[-15.711048,27.781062],[-15.709389,27.782644],[-15.712444,27.782292],[-15.711459,27.779954],[-15.712952,27.782375],[-15.712059,27.783359],[-15.713429,27.782878],[-15.712411,27.784161],[-15.715297,27.783875],[-15.716029,27.783117],[-15.71412,27.782619],[-15.715518,27.782301],[-15.720201,27.786517],[-15.725572,27.788333],[-15.723615,27.788092],[-15.72349,27.789691],[-15.725949,27.791607],[-15.725668,27.790081],[-15.72676,27.790078],[-15.728604,27.792792],[-15.727161,27.794494],[-15.727928,27.795917],[-15.731493,27.798604],[-15.735208,27.797487],[-15.738584,27.798503],[-15.739401,27.801536],[-15.741298,27.800628],[-15.742762,27.804269],[-15.745597,27.805147],[-15.745482,27.807156],[-15.748648,27.806641],[-15.749943,27.807884],[-15.753926,27.814574],[-15.762942,27.816903],[-15.762224,27.81753],[-15.764297,27.818279],[-15.763897,27.8163],[-15.766681,27.817383],[-15.766996,27.816499],[-15.763368,27.815501],[-15.767198,27.816144],[-15.767623,27.817902],[-15.773358,27.822148],[-15.778752,27.82994],[-15.783457,27.830933],[-15.787456,27.834404],[-15.791708,27.841389],[-15.791748,27.846686],[-15.795864,27.848463],[-15.79543,27.851383],[-15.796775,27.853073],[-15.798659,27.853159],[-15.799273,27.859072],[-15.801573,27.860894],[-15.806632,27.872624],[-15.81226,27.879012],[-15.817765,27.892691],[-15.826673,27.902518],[-15.828148,27.906113],[-15.830236,27.906479],[-15.833141,27.909892],[-15.834434,27.918961],[-15.833428,27.92239],[-15.831575,27.923573],[-15.831624,27.928248],[-15.829416,27.931198],[-15.830005,27.938553],[-15.827898,27.941416],[-15.827607,27.946385],[-15.830835,27.953084],[-15.830562,27.957655],[-15.833848,27.961246],[-15.83288,27.964154],[-15.834228,27.970907],[-15.833005,27.974823],[-15.827665,27.979838],[-15.826482,27.983871],[-15.827404,27.985967],[-15.825598,27.98556],[-15.823206,27.987993],[-15.822994,27.99319],[-15.820857,27.994204],[-15.821374,27.998383],[-15.817442,28.00473],[-15.817835,28.00658],[-15.819406,28.005684],[-15.81882,28.009271],[-15.822877,28.01362],[-15.81419,28.017409],[-15.805314,28.015927],[-15.790194,28.019257],[-15.789299,28.021108],[-15.787911,28.020374],[-15.780439,28.024822],[-15.778242,28.028914],[-15.777015,28.028382],[-15.776195,28.030126],[-15.774492,28.030113],[-15.771887,28.032473],[-15.772036,28.033961],[-15.767744,28.037219],[-15.768393,28.040425],[-15.765637,28.046204],[-15.763759,28.046544],[-15.761457,28.044909],[-15.756949,28.045803],[-15.746043,28.051064],[-15.737711,28.054711],[-15.734151,28.063897],[-15.730922,28.063853],[-15.720194,28.070565],[-15.719946,28.072644],[-15.710827,28.083161],[-15.710356,28.086627],[-15.707168,28.089528],[-15.70738,28.094324],[-15.708871,28.100139],[-15.712753,28.100911],[-15.71161,28.097726],[-15.71354,28.10074],[-15.711068,28.106859],[-15.706024,28.1084],[-15.705176,28.114172],[-15.70749,28.116347],[-15.706627,28.117376],[-15.705081,28.116736],[-15.705532,28.11902],[-15.708639,28.119834],[-15.70931,28.121268],[-15.706256,28.125222],[-15.704814,28.125196],[-15.704744,28.130231],[-15.701839,28.131888],[-15.7001,28.131046],[-15.698909,28.134972],[-15.700862,28.137558],[-15.70034,28.140505],[-15.704074,28.142258],[-15.699975,28.147925],[-15.696745,28.147982],[-15.696207,28.151794],[-15.706109,28.157403],[-15.709484,28.162614],[-15.70954,28.165313],[-15.705729,28.166046],[-15.704144,28.164199],[-15.702544,28.164724],[-15.69877,28.162965],[-15.695483,28.165216],[-15.693095,28.164928],[-15.690596,28.169562],[-15.688406,28.169693],[-15.687448,28.168529],[-15.685493,28.170752],[-15.684533,28.169672],[-15.682463,28.170129],[-15.680547,28.166586],[-15.68184,28.165187],[-15.681299,28.161814],[-15.678816,28.16295],[-15.676682,28.159438],[-15.674092,28.161762],[-15.672791,28.160958],[-15.673169,28.159534],[-15.669987,28.158449],[-15.66756,28.159275],[-15.66641,28.158031],[-15.658327,28.163766],[-15.657134,28.163261],[-15.653591,28.165549],[-15.649479,28.164975],[-15.649046,28.166001],[-15.648247,28.164637],[-15.642471,28.166815],[-15.639366,28.16933],[-15.638687,28.17175],[-15.637131,28.171658],[-15.63279,28.167666],[-15.630817,28.169943],[-15.630294,28.167808],[-15.62841,28.167424],[-15.625852,28.162963],[-15.624172,28.16238],[-15.625175,28.160195],[-15.62168,28.157153],[-15.621012,28.153828],[-15.617723,28.154479],[-15.612633,28.146926],[-15.607365,28.148926],[-15.599554,28.144244],[-15.58857,28.147223],[-15.579926,28.143997],[-15.576776,28.144719],[-15.575049,28.143708],[-15.573201,28.145632],[-15.570579,28.144289],[-15.567193,28.146066],[-15.562603,28.145538],[-15.559364,28.146809],[-15.545889,28.146208],[-15.539124,28.149539],[-15.538707,28.151236],[-15.534965,28.150266],[-15.534639,28.152134],[-15.531879,28.152433],[-15.532173,28.154156],[-15.53149,28.153033],[-15.529263,28.154691],[-15.52743,28.154134],[-15.526777,28.155107],[-15.526356,28.153723],[-15.521707,28.153122],[-15.522647,28.15137],[-15.52109,28.151516],[-15.517354,28.147172],[-15.515966,28.147882],[-15.51504,28.145504],[-15.512471,28.148504],[-15.50849,28.148198],[-15.507346,28.145508],[-15.50622,28.146395],[-15.502827,28.145439],[-15.500728,28.142614],[-15.498422,28.142652],[-15.495643,28.14516],[-15.496323,28.143323],[-15.491966,28.140669],[-15.490744,28.141689],[-15.488822,28.140726],[-15.484805,28.134877],[-15.483048,28.136341],[-15.478793,28.136525],[-15.475164,28.13246],[-15.472801,28.132132],[-15.472725,28.12955],[-15.467478,28.126055],[-15.461659,28.12846],[-15.453888,28.12789],[-15.449893,28.131588],[-15.447208,28.130568],[-15.443959,28.132066],[-15.437422,28.137546],[-15.430949,28.146397],[-15.431447,28.14821],[-15.433332,28.148745],[-15.431431,28.151175],[-15.433461,28.152983],[-15.43205,28.154637],[-15.432883,28.157248],[-15.436335,28.160315],[-15.441841,28.162184],[-15.441696,28.165913],[-15.439384,28.169195],[-15.43688,28.168977],[-15.434343,28.170978],[-15.433172,28.170275],[-15.430215,28.172431],[-15.428673,28.175708],[-15.425816,28.175617],[-15.422434,28.180356],[-15.420149,28.179993],[-15.419582,28.180956],[-15.418729,28.178731],[-15.416595,28.17911],[-15.414858,28.17749],[-15.413146,28.177861],[-15.413854,28.179231],[-15.412779,28.178031],[-15.407003,28.178146],[-15.403537,28.173476],[-15.405755,28.169132],[-15.404254,28.168093],[-15.405268,28.166048],[-15.40118,28.166493],[-15.402426,28.164287],[-15.405319,28.164956],[-15.406586,28.160053],[-15.407118,28.1329],[-15.404326,28.130789],[-15.404457,28.125731],[-15.404663,28.130669],[-15.407637,28.132889],[-15.406897,28.158535],[-15.408671,28.157363],[-15.408582,28.154389],[-15.410244,28.154413],[-15.410323,28.150814],[-15.410897,28.152369],[-15.410927,28.150818],[-15.412275,28.151024],[-15.415852,28.147299],[-15.412721,28.144873],[-15.415014,28.143217],[-15.411736,28.140658],[-15.415192,28.143155],[-15.415974,28.142476],[-15.414979,28.131841],[-15.412374,28.133295],[-15.417596,28.128267],[-15.417288,28.146277],[-15.420154,28.146652],[-15.420247,28.1417],[-15.421277,28.141731],[-15.421189,28.147416],[-15.422527,28.147407],[-15.422725,28.145635],[-15.42275,28.147395],[-15.4241,28.147468],[-15.4242,28.142882],[-15.425228,28.142883],[-15.425166,28.146747],[-15.427649,28.146793],[-15.427757,28.142783],[-15.425803,28.141256],[-15.423769,28.141536],[-15.422461,28.139723],[-15.425112,28.141139],[-15.428479,28.140059],[-15.428692,28.136344],[-15.426958,28.13622],[-15.426981,28.137236],[-15.426394,28.136375],[-15.426407,28.137289],[-15.425691,28.136445],[-15.425348,28.139006],[-15.424805,28.134519],[-15.427871,28.133703],[-15.429363,28.12889],[-15.425802,28.128133],[-15.427985,28.127346],[-15.425959,28.127165],[-15.427465,28.12637],[-15.425987,28.126524],[-15.427116,28.125873],[-15.426001,28.126181],[-15.426838,28.125497],[-15.425433,28.125336],[-15.425277,28.123448],[-15.424617,28.12772],[-15.424105,28.121797],[-15.422894,28.120939],[-15.422753,28.122302],[-15.42125,28.11954],[-15.421042,28.120965],[-15.41447,28.110721],[-15.410781,28.100949],[-15.412304,28.090974],[-15.415651,28.087586],[-15.416445,28.083995],[-15.4133,28.075519],[-15.414555,28.076104],[-15.414952,28.07319],[-15.41716,28.070922],[-15.416933,28.067628],[-15.419979,28.060825],[-15.417297,28.055765],[-15.414502,28.054918],[-15.413254,28.052843],[-15.416114,28.047877],[-15.415201,28.045864],[-15.411785,28.043493],[-15.409947,28.044903],[-15.408928,28.044301],[-15.410166,28.044277],[-15.409742,28.041304],[-15.407044,28.039849],[-15.405931,28.037422],[-15.395932,28.031868],[-15.390334,28.028706],[-15.38727,28.029333],[-15.3852,28.022172],[-15.385461,28.016877],[-15.381091,28.014451],[-15.379911,28.012385],[-15.381017,28.01245],[-15.377855,28.009696],[-15.373179,28.009253],[-15.37684,28.006418],[-15.373979,28.002521],[-15.375575,28.000037],[-15.375211,27.997214],[-15.373463,27.995874],[-15.370118,27.996748],[-15.370737,27.993859],[-15.367687,27.992816],[-15.367186,27.991348],[-15.368695,27.988516],[-15.367857,27.99131],[-15.369308,27.989149],[-15.374696,27.988067],[-15.375161,27.985035],[-15.377998,27.98398],[-15.375739,27.979012],[-15.376512,27.97532],[-15.377857,27.976706],[-15.381235,27.976158],[-15.380976,27.974603],[-15.383639,27.972567],[-15.382348,27.970709],[-15.384454,27.967647],[-15.382849,27.966921],[-15.382632,27.964172],[-15.381465,27.963871],[-15.380359,27.965481],[-15.378088,27.962951],[-15.378468,27.961731],[-15.380716,27.961776],[-15.380225,27.959729],[-15.381868,27.957661],[-15.377655,27.95561],[-15.377152,27.953651],[-15.380965,27.951483],[-15.380942,27.949937],[-15.378065,27.94641],[-15.374874,27.946934],[-15.37494,27.945243],[-15.372156,27.944964],[-15.371316,27.94363],[-15.36943,27.945037],[-15.368345,27.944487],[-15.3695,27.939632],[-15.362876,27.93783],[-15.358942,27.934157],[-15.359867,27.932708],[-15.358766,27.930565],[-15.36162,27.928504],[-15.361969,27.929758],[-15.369565,27.933048],[-15.372601,27.935868],[-15.377577,27.934141],[-15.382354,27.929333],[-15.384794,27.925837],[-15.384232,27.920625],[-15.385804,27.919348],[-15.38492,27.918876],[-15.386792,27.91364],[-15.385184,27.908241],[-15.386875,27.902606],[-15.389008,27.896782],[-15.39398,27.890074],[-15.39018,27.879771],[-15.388496,27.879643],[-15.387706,27.877699],[-15.385278,27.878067],[-15.385637,27.875807],[-15.380893,27.87603],[-15.383581,27.87273],[-15.382566,27.871381],[-15.385516,27.871429],[-15.386706,27.870045],[-15.385831,27.869065],[-15.386849,27.866573],[-15.383885,27.863966],[-15.383874,27.862368],[-15.386881,27.860726],[-15.385401,27.857516],[-15.387562,27.857469],[-15.389953,27.85503],[-15.391713,27.855867],[-15.394217,27.854988],[-15.39517,27.856742],[-15.39799,27.856713],[-15.403684,27.8491],[-15.409159,27.848048],[-15.413457,27.847369]]],[[[-14.136934,28.187386],[-14.139144,28.183995],[-14.142761,28.183304],[-14.143345,28.182006],[-14.145522,28.182676],[-14.147798,28.181388],[-14.149997,28.183214],[-14.152717,28.182486],[-14.158788,28.175964],[-14.162388,28.17754],[-14.1677,28.173985],[-14.17292,28.175474],[-14.17694,28.17386],[-14.184532,28.175016],[-14.188343,28.17287],[-14.19122,28.17441],[-14.198292,28.173975],[-14.202512,28.171721],[-14.206116,28.167348],[-14.21344,28.164224],[-14.217887,28.165622],[-14.22186,28.16318],[-14.230117,28.150012],[-14.235266,28.14458],[-14.239881,28.135574],[-14.240868,28.135505],[-14.23765,28.141472],[-14.239525,28.138576],[-14.245997,28.135269],[-14.244991,28.134309],[-14.248926,28.131395],[-14.250302,28.126794],[-14.255558,28.122267],[-14.254651,28.120806],[-14.255576,28.117803],[-14.260551,28.112683],[-14.256321,28.115494],[-14.256431,28.114477],[-14.265582,28.108918],[-14.274925,28.096665],[-14.281931,28.091479],[-14.286363,28.084367],[-14.301487,28.074107],[-14.321526,28.050358],[-14.330344,28.044976],[-14.33662,28.044454],[-14.352119,28.049506],[-14.361044,28.047488],[-14.365014,28.049551],[-14.360884,28.047735],[-14.358421,28.049595],[-14.363622,28.052399],[-14.364134,28.0507],[-14.36414,28.052397],[-14.368633,28.054428],[-14.37665,28.052188],[-14.380477,28.052472],[-14.386016,28.055214],[-14.399872,28.058479],[-14.409422,28.058672],[-14.417518,28.062071],[-14.419859,28.061876],[-14.424169,28.064516],[-14.429792,28.065264],[-14.43413,28.068194],[-14.437626,28.06807],[-14.452362,28.073629],[-14.457968,28.073602],[-14.464924,28.076198],[-14.46793,28.075577],[-14.477451,28.077889],[-14.502781,28.072014],[-14.507124,28.065374],[-14.509719,28.067882],[-14.506699,28.069992],[-14.505806,28.072715],[-14.502153,28.074546],[-14.501458,28.080115],[-14.492369,28.083921],[-14.492067,28.08705],[-14.494082,28.090839],[-14.492292,28.094049],[-14.492844,28.096014],[-14.499214,28.101043],[-14.496466,28.103822],[-14.493412,28.103707],[-14.493661,28.106005],[-14.491338,28.11042],[-14.486699,28.108428],[-14.486887,28.105276],[-14.482682,28.10304],[-14.481017,28.099955],[-14.477318,28.101306],[-14.475984,28.102773],[-14.476901,28.103697],[-14.474355,28.104802],[-14.471424,28.103899],[-14.471724,28.102547],[-14.468671,28.104202],[-14.466624,28.103748],[-14.466766,28.102166],[-14.461179,28.101251],[-14.456275,28.105447],[-14.452642,28.103397],[-14.450847,28.100203],[-14.446195,28.10171],[-14.442191,28.10041],[-14.429436,28.101937],[-14.415814,28.106569],[-14.414775,28.105924],[-14.39454,28.110322],[-14.368818,28.118227],[-14.358139,28.123535],[-14.357909,28.127045],[-14.355936,28.125774],[-14.340455,28.131067],[-14.308291,28.148267],[-14.306088,28.151445],[-14.302243,28.153442],[-14.298855,28.158983],[-14.282345,28.167773],[-14.261966,28.183913],[-14.247718,28.192776],[-14.24183,28.201312],[-14.233377,28.206128],[-14.230978,28.210159],[-14.227509,28.210685],[-14.222862,28.214739],[-14.222772,28.216663],[-14.221186,28.217681],[-14.222517,28.219241],[-14.218644,28.220792],[-14.214991,28.226219],[-14.214221,28.232562],[-14.212953,28.233744],[-14.213983,28.242138],[-14.212434,28.243731],[-14.213746,28.246995],[-14.208288,28.260025],[-14.211924,28.264313],[-14.208305,28.270667],[-14.209973,28.279679],[-14.211623,28.28166],[-14.211258,28.284808],[-14.21201,28.286778],[-14.214238,28.287782],[-14.211368,28.290234],[-14.212302,28.292731],[-14.209936,28.297108],[-14.210773,28.298293],[-14.206532,28.301823],[-14.208014,28.303598],[-14.207051,28.305019],[-14.208329,28.304638],[-14.207686,28.307081],[-14.208976,28.306912],[-14.20878,28.309285],[-14.209927,28.30952],[-14.204812,28.32013],[-14.204027,28.327881],[-14.201563,28.329453],[-14.199051,28.333913],[-14.188767,28.337456],[-14.187495,28.339926],[-14.185339,28.340216],[-14.177027,28.346112],[-14.176061,28.347875],[-14.177201,28.350389],[-14.176476,28.349498],[-14.173668,28.352701],[-14.173499,28.355749],[-14.171972,28.355449],[-14.171571,28.362342],[-14.167119,28.363518],[-14.162221,28.368712],[-14.162703,28.370565],[-14.161155,28.372693],[-14.163373,28.375256],[-14.161837,28.38022],[-14.162665,28.389674],[-14.161486,28.392315],[-14.158433,28.392191],[-14.15577,28.394548],[-14.155448,28.396949],[-14.157134,28.397364],[-14.156473,28.399005],[-14.157693,28.400034],[-14.154855,28.405288],[-14.158183,28.40641],[-14.157801,28.411713],[-14.152068,28.420514],[-14.149828,28.421125],[-14.151345,28.430109],[-14.146573,28.434301],[-14.147338,28.438566],[-14.141028,28.442004],[-14.138856,28.446905],[-14.136602,28.446541],[-14.127269,28.456787],[-14.123055,28.457809],[-14.119316,28.461729],[-14.11818,28.460918],[-14.113228,28.465282],[-14.112333,28.464728],[-14.109902,28.469123],[-14.105101,28.473023],[-14.104158,28.4718],[-14.102969,28.474121],[-14.100487,28.475208],[-14.0946,28.485544],[-14.094765,28.487908],[-14.091734,28.491537],[-14.091419,28.494254],[-14.0897,28.494323],[-14.090212,28.496737],[-14.087869,28.500659],[-14.087288,28.505689],[-14.086573,28.50422],[-14.083746,28.507527],[-14.082706,28.513037],[-14.080263,28.514],[-14.078782,28.51883],[-14.073805,28.523925],[-14.074194,28.526622],[-14.072264,28.528211],[-14.070364,28.535735],[-14.068478,28.537809],[-14.069997,28.538271],[-14.069332,28.540908],[-14.068177,28.541823],[-14.06547,28.541243],[-14.063763,28.54321],[-14.066655,28.550972],[-14.063917,28.554225],[-14.061106,28.553298],[-14.05896,28.555008],[-14.056519,28.565312],[-14.052836,28.56662],[-14.052617,28.56818],[-14.050685,28.568766],[-14.050706,28.570867],[-14.048493,28.570933],[-14.046468,28.575542],[-14.043493,28.577954],[-14.044362,28.578402],[-14.043272,28.578404],[-14.043092,28.580582],[-14.041593,28.580495],[-14.038552,28.583576],[-14.038505,28.587617],[-14.034823,28.59017],[-14.033079,28.594684],[-14.033814,28.601339],[-14.03661,28.60413],[-14.03884,28.611179],[-14.037616,28.612675],[-14.038642,28.615329],[-14.037191,28.615833],[-14.036916,28.619079],[-14.035713,28.620668],[-14.034035,28.620518],[-14.031585,28.624882],[-14.03283,28.628339],[-14.030043,28.629454],[-14.031658,28.629962],[-14.031752,28.632926],[-14.029971,28.634204],[-14.02854,28.633189],[-14.026243,28.635102],[-14.027207,28.637672],[-14.026145,28.638815],[-14.027339,28.639571],[-14.024507,28.642991],[-14.025269,28.645301],[-14.018787,28.650137],[-14.019091,28.655661],[-14.014002,28.662],[-14.013836,28.664592],[-14.011674,28.666049],[-14.009167,28.673956],[-14.008699,28.677402],[-14.013613,28.682483],[-14.011364,28.683275],[-14.014103,28.686003],[-14.012211,28.690222],[-14.015148,28.693025],[-14.017579,28.692028],[-14.016272,28.69337],[-14.018255,28.693217],[-14.018682,28.694655],[-14.016734,28.695763],[-14.017822,28.697142],[-14.016584,28.698086],[-14.017148,28.700989],[-14.018584,28.701708],[-14.017735,28.702684],[-14.019224,28.703141],[-14.018691,28.705791],[-14.01794,28.707038],[-14.014653,28.704435],[-14.013733,28.707199],[-14.014154,28.709517],[-14.016058,28.708581],[-14.018561,28.709822],[-14.017348,28.712377],[-14.015127,28.711846],[-14.014122,28.712777],[-14.016163,28.713593],[-14.015576,28.715886],[-14.013006,28.716822],[-14.012268,28.711417],[-14.010675,28.71226],[-14.006343,28.710604],[-14.004167,28.712079],[-14.006038,28.714514],[-14.002589,28.715317],[-14.002226,28.717609],[-13.997813,28.720153],[-13.999367,28.723784],[-13.995364,28.722856],[-13.988919,28.72388],[-13.987049,28.724913],[-13.987173,28.727218],[-13.985143,28.727108],[-13.983242,28.729352],[-13.980891,28.727026],[-13.979958,28.728041],[-13.982295,28.73015],[-13.979977,28.732112],[-13.976917,28.730963],[-13.977952,28.73359],[-13.977107,28.734764],[-13.974257,28.734079],[-13.971522,28.73092],[-13.969981,28.733207],[-13.970671,28.734142],[-13.96895,28.735124],[-13.964764,28.733386],[-13.961906,28.734186],[-13.961694,28.736276],[-13.958741,28.737625],[-13.95681,28.735159],[-13.951804,28.73927],[-13.951297,28.741299],[-13.944356,28.74359],[-13.941669,28.746197],[-13.940164,28.745409],[-13.939159,28.739262],[-13.937802,28.739026],[-13.938363,28.741284],[-13.935102,28.74196],[-13.933173,28.748288],[-13.926867,28.751525],[-13.922613,28.751239],[-13.919489,28.747303],[-13.916238,28.746562],[-13.914408,28.74879],[-13.910642,28.747259],[-13.909715,28.748809],[-13.907992,28.747107],[-13.907586,28.748365],[-13.904057,28.749084],[-13.901607,28.753197],[-13.895721,28.752712],[-13.893803,28.75641],[-13.890593,28.757164],[-13.886668,28.756575],[-13.879869,28.751827],[-13.877494,28.752051],[-13.873496,28.748514],[-13.872956,28.742533],[-13.870659,28.745194],[-13.865636,28.746273],[-13.864158,28.741994],[-13.860671,28.740363],[-13.863736,28.740186],[-13.864353,28.741858],[-13.865396,28.741458],[-13.864639,28.740755],[-13.866085,28.740882],[-13.867635,28.736026],[-13.866468,28.733627],[-13.861734,28.730742],[-13.858603,28.732175],[-13.852454,28.727085],[-13.845587,28.727694],[-13.842911,28.726534],[-13.841872,28.721893],[-13.836346,28.712786],[-13.838071,28.711046],[-13.837786,28.708121],[-13.830882,28.693869],[-13.83202,28.690677],[-13.830954,28.687866],[-13.832561,28.685793],[-13.831727,28.680614],[-13.834021,28.675049],[-13.83188,28.668704],[-13.832412,28.666448],[-13.830427,28.663881],[-13.832099,28.661752],[-13.830539,28.656515],[-13.829967,28.635756],[-13.828623,28.629075],[-13.825718,28.624909],[-13.82645,28.620883],[-13.824144,28.619291],[-13.825473,28.616613],[-13.823648,28.611364],[-13.825037,28.608535],[-13.824215,28.607703],[-13.825476,28.606971],[-13.826394,28.608527],[-13.827368,28.605638],[-13.82516,28.596761],[-13.823724,28.596392],[-13.822498,28.593152],[-13.823349,28.589421],[-13.828345,28.586088],[-13.82704,28.584085],[-13.828489,28.582825],[-13.830255,28.573753],[-13.827033,28.567758],[-13.828843,28.563822],[-13.829733,28.559064],[-13.82597,28.556821],[-13.82584,28.552693],[-13.829993,28.550294],[-13.831637,28.545261],[-13.836649,28.543589],[-13.83763,28.542106],[-13.83855,28.537226],[-13.834353,28.534088],[-13.835809,28.531239],[-13.834921,28.525457],[-13.83935,28.521321],[-13.840028,28.51609],[-13.843887,28.511982],[-13.842783,28.50901],[-13.84399,28.507143],[-13.843483,28.503623],[-13.84794,28.499771],[-13.854817,28.499274],[-13.855459,28.494351],[-13.856392,28.49894],[-13.857873,28.498519],[-13.859836,28.495911],[-13.858124,28.495534],[-13.862604,28.494044],[-13.867711,28.480821],[-13.865885,28.474652],[-13.85932,28.467034],[-13.859204,28.463948],[-13.856933,28.460206],[-13.857132,28.454522],[-13.859016,28.451487],[-13.856874,28.443612],[-13.862302,28.439519],[-13.861831,28.43326],[-13.863379,28.431619],[-13.861427,28.432634],[-13.861292,28.430979],[-13.858161,28.428148],[-13.857943,28.425168],[-13.852047,28.423918],[-13.850026,28.421394],[-13.85085,28.420503],[-13.851539,28.417541],[-13.849215,28.414227],[-13.848722,28.410139],[-13.852957,28.402911],[-13.849819,28.401228],[-13.852248,28.400671],[-13.853726,28.397782],[-13.852374,28.395011],[-13.853197,28.392378],[-13.85626,28.391395],[-13.854839,28.392003],[-13.856737,28.39498],[-13.859898,28.3931],[-13.858914,28.390293],[-13.863604,28.384998],[-13.866434,28.373038],[-13.869215,28.369588],[-13.869589,28.363614],[-13.870601,28.365646],[-13.872182,28.365353],[-13.872125,28.362071],[-13.876173,28.356033],[-13.878271,28.355219],[-13.87657,28.352261],[-13.87645,28.347438],[-13.878794,28.345433],[-13.879434,28.342974],[-13.878228,28.341265],[-13.879428,28.338087],[-13.883455,28.335696],[-13.886022,28.332123],[-13.883736,28.330441],[-13.886502,28.327496],[-13.886093,28.325315],[-13.895092,28.324463],[-13.896159,28.320013],[-13.893714,28.317274],[-13.893796,28.314344],[-13.8983,28.311943],[-13.900145,28.30427],[-13.902399,28.304024],[-13.903411,28.300794],[-13.902417,28.299577],[-13.903255,28.297052],[-13.899111,28.294609],[-13.898081,28.292547],[-13.898607,28.288187],[-13.896767,28.288249],[-13.898704,28.284887],[-13.898084,28.28325],[-13.899057,28.283675],[-13.899712,28.280576],[-13.90323,28.277427],[-13.900691,28.27652],[-13.901558,28.27464],[-13.904914,28.276748],[-13.905118,28.275337],[-13.906358,28.276121],[-13.91031,28.273666],[-13.909683,28.271169],[-13.915254,28.262156],[-13.914374,28.258588],[-13.915594,28.256188],[-13.918552,28.254774],[-13.917445,28.251958],[-13.919524,28.251505],[-13.922066,28.250408],[-13.922391,28.247552],[-13.924711,28.246013],[-13.92704,28.241636],[-13.930429,28.240505],[-13.936182,28.233755],[-13.942028,28.231959],[-13.945848,28.228595],[-13.956665,28.227105],[-13.975879,28.22908],[-13.980333,28.228843],[-13.983234,28.227034],[-13.984562,28.228394],[-13.987377,28.227999],[-13.991694,28.223387],[-13.992106,28.220861],[-13.99769,28.217002],[-14.0033,28.215143],[-14.008101,28.21009],[-14.012746,28.207786],[-14.01612,28.210818],[-14.019878,28.211048],[-14.022914,28.209842],[-14.022626,28.206613],[-14.02322,28.208811],[-14.026073,28.208425],[-14.028566,28.206362],[-14.025068,28.20636],[-14.027698,28.20532],[-14.031739,28.207506],[-14.042782,28.202382],[-14.04842,28.202207],[-14.050371,28.203378],[-14.055732,28.201904],[-14.061056,28.202267],[-14.068305,28.198995],[-14.073439,28.201582],[-14.076311,28.200492],[-14.077117,28.197746],[-14.081078,28.197915],[-14.094936,28.19235],[-14.096623,28.194728],[-14.100083,28.194478],[-14.106042,28.192617],[-14.109909,28.190142],[-14.110029,28.188798],[-14.114438,28.189057],[-14.116376,28.191718],[-14.122421,28.191335],[-14.127404,28.189025],[-14.12926,28.187125],[-14.131552,28.18834],[-14.136934,28.187386]]],[[[-13.814577,28.745095],[-13.81379,28.74134],[-13.81592,28.740091],[-13.814352,28.739461],[-13.815117,28.737543],[-13.815771,28.736525],[-13.817472,28.73693],[-13.816774,28.738404],[-13.820459,28.73592],[-13.823906,28.738304],[-13.825407,28.74192],[-13.827685,28.741105],[-13.826577,28.739216],[-13.830878,28.739763],[-13.83026,28.743451],[-13.835819,28.752574],[-13.833981,28.754075],[-13.832792,28.753067],[-13.831348,28.75386],[-13.832014,28.755662],[-13.825725,28.756862],[-13.822923,28.761163],[-13.819057,28.760595],[-13.818265,28.764042],[-13.814293,28.765948],[-13.812745,28.765575],[-13.812819,28.757097],[-13.810751,28.755862],[-13.811942,28.754023],[-13.81108,28.753498],[-13.814577,28.745095]]],[[[-13.616052,28.931047],[-13.618623,28.931807],[-13.622563,28.930264],[-13.626564,28.926913],[-13.630094,28.92812],[-13.633042,28.927345],[-13.637071,28.924484],[-13.639245,28.921061],[-13.643877,28.919285],[-13.648258,28.92004],[-13.654324,28.918801],[-13.662319,28.91988],[-13.667662,28.919468],[-13.668494,28.91836],[-13.671421,28.920577],[-13.675066,28.92041],[-13.672814,28.92148],[-13.676123,28.921686],[-13.685646,28.919232],[-13.690651,28.919973],[-13.700481,28.917815],[-13.702046,28.917907],[-13.701893,28.916226],[-13.705064,28.915711],[-13.701941,28.916425],[-13.702449,28.917716],[-13.703271,28.916371],[-13.703511,28.91723],[-13.703832,28.916254],[-13.707606,28.916588],[-13.721121,28.911496],[-13.72796,28.906372],[-13.734858,28.907278],[-13.738805,28.905052],[-13.743755,28.897687],[-13.742901,28.895732],[-13.745525,28.89119],[-13.745191,28.888427],[-13.74759,28.886927],[-13.749772,28.882385],[-13.748179,28.877745],[-13.749835,28.877079],[-13.749084,28.874533],[-13.752639,28.874171],[-13.758716,28.867644],[-13.760164,28.867777],[-13.767224,28.859067],[-13.771678,28.856635],[-13.771276,28.853718],[-13.77463,28.851492],[-13.774443,28.847939],[-13.778752,28.846122],[-13.778467,28.843802],[-13.784295,28.842368],[-13.786729,28.838583],[-13.78958,28.8395],[-13.788389,28.842334],[-13.789696,28.843082],[-13.789165,28.845356],[-13.793925,28.853819],[-13.796086,28.855108],[-13.798041,28.854402],[-13.798862,28.857511],[-13.801792,28.858817],[-13.80558,28.856872],[-13.80952,28.85685],[-13.811412,28.854522],[-13.81132,28.856015],[-13.814495,28.859101],[-13.815508,28.858512],[-13.819618,28.861235],[-13.822443,28.860693],[-13.823315,28.862068],[-13.825019,28.860817],[-13.825269,28.861869],[-13.82871,28.862607],[-13.833648,28.860673],[-13.835155,28.859181],[-13.832218,28.85933],[-13.834373,28.858116],[-13.835663,28.858852],[-13.839379,28.855411],[-13.842791,28.857977],[-13.842789,28.856623],[-13.846693,28.860853],[-13.854043,28.861942],[-13.858119,28.860438],[-13.863231,28.860565],[-13.871986,28.854716],[-13.876491,28.858521],[-13.877679,28.86394],[-13.874931,28.868763],[-13.875224,28.877114],[-13.880362,28.881581],[-13.881891,28.886217],[-13.873414,28.893947],[-13.869279,28.89391],[-13.868757,28.895036],[-13.866178,28.894953],[-13.866342,28.895853],[-13.860566,28.895605],[-13.857847,28.897448],[-13.855955,28.901712],[-13.857055,28.904242],[-13.854044,28.905315],[-13.853975,28.907435],[-13.851869,28.907314],[-13.850703,28.911498],[-13.848129,28.912191],[-13.847619,28.915427],[-13.843322,28.915837],[-13.842507,28.917369],[-13.839969,28.917922],[-13.829221,28.930117],[-13.8299,28.933956],[-13.834542,28.940436],[-13.832461,28.944605],[-13.832522,28.949407],[-13.834245,28.951209],[-13.834334,28.953987],[-13.832829,28.954225],[-13.834074,28.955068],[-13.833734,28.957071],[-13.830487,28.96026],[-13.834125,28.964094],[-13.833346,28.966282],[-13.834673,28.969592],[-13.833342,28.973491],[-13.829351,28.975069],[-13.828521,28.976691],[-13.829604,28.978849],[-13.831033,28.978726],[-13.830076,28.979712],[-13.832171,28.98216],[-13.833929,28.989948],[-13.830257,28.996554],[-13.831442,28.997368],[-13.829346,29.004292],[-13.829866,29.007171],[-13.822514,29.017005],[-13.822627,29.019278],[-13.820859,29.020332],[-13.818864,29.025321],[-13.817589,29.025371],[-13.815298,29.033331],[-13.810847,29.033921],[-13.806682,29.037325],[-13.804424,29.039856],[-13.799107,29.042275],[-13.79347,29.051926],[-13.783571,29.056083],[-13.779345,29.061949],[-13.775459,29.063448],[-13.774495,29.062234],[-13.771194,29.06301],[-13.76945,29.066394],[-13.76774,29.06395],[-13.766217,29.063794],[-13.766001,29.065444],[-13.760718,29.067288],[-13.756254,29.077587],[-13.752054,29.079098],[-13.745538,29.077866],[-13.743376,29.080328],[-13.737812,29.079836],[-13.731118,29.082412],[-13.727165,29.081249],[-13.726546,29.083578],[-13.723595,29.083708],[-13.72306,29.084924],[-13.716157,29.082462],[-13.715249,29.080908],[-13.711888,29.081509],[-13.709792,29.079307],[-13.707802,29.079349],[-13.701534,29.09003],[-13.698475,29.090975],[-13.692034,29.090233],[-13.691204,29.092524],[-13.687765,29.092315],[-13.682964,29.095332],[-13.680742,29.098168],[-13.681685,29.100298],[-13.680614,29.103377],[-13.676738,29.103548],[-13.675718,29.106038],[-13.674917,29.105294],[-13.674264,29.106621],[-13.664983,29.109663],[-13.661866,29.113043],[-13.658087,29.112056],[-13.653493,29.114419],[-13.652003,29.113917],[-13.652403,29.12015],[-13.653452,29.11598],[-13.65693,29.113576],[-13.661865,29.116339],[-13.661699,29.120435],[-13.657785,29.123658],[-13.652976,29.121282],[-13.652216,29.122138],[-13.651697,29.123568],[-13.644808,29.124527],[-13.643103,29.123197],[-13.64282,29.124525],[-13.640109,29.122911],[-13.641148,29.119689],[-13.639787,29.1166],[-13.633177,29.115718],[-13.63028,29.116871],[-13.620784,29.12733],[-13.611899,29.128274],[-13.608255,29.133017],[-13.604077,29.13555],[-13.601456,29.135549],[-13.596339,29.135859],[-13.585348,29.133693],[-13.575248,29.12675],[-13.575437,29.125696],[-13.572075,29.124498],[-13.569757,29.121029],[-13.565494,29.120166],[-13.566038,29.119306],[-13.565079,29.119736],[-13.563103,29.116991],[-13.558106,29.11557],[-13.550352,29.117274],[-13.543753,29.120638],[-13.538228,29.125086],[-13.530084,29.135406],[-13.524407,29.141536],[-13.524295,29.149228],[-13.522669,29.150458],[-13.522245,29.15548],[-13.521016,29.156001],[-13.523228,29.157668],[-13.521697,29.158612],[-13.522094,29.168671],[-13.520828,29.170947],[-13.516691,29.173419],[-13.516676,29.176582],[-13.514896,29.176747],[-13.513106,29.178923],[-13.513744,29.180435],[-13.511678,29.182381],[-13.511232,29.187245],[-13.508371,29.190651],[-13.510564,29.193999],[-13.509945,29.195535],[-13.508254,29.19467],[-13.507084,29.195688],[-13.506601,29.20121],[-13.503704,29.203054],[-13.504321,29.204058],[-13.502328,29.206863],[-13.499694,29.206136],[-13.497625,29.207584],[-13.497024,29.218338],[-13.487625,29.221948],[-13.477939,29.228157],[-13.473007,29.232724],[-13.470484,29.240543],[-13.470188,29.238857],[-13.465965,29.226622],[-13.461557,29.224642],[-13.458176,29.226347],[-13.454724,29.226398],[-13.451839,29.223928],[-13.451341,29.221725],[-13.44947,29.224282],[-13.446541,29.223445],[-13.448059,29.220802],[-13.446175,29.221972],[-13.445851,29.218049],[-13.44196,29.216603],[-13.441392,29.218902],[-13.436708,29.215698],[-13.436699,29.213602],[-13.433935,29.20999],[-13.428843,29.207769],[-13.42775,29.208784],[-13.425613,29.207593],[-13.423872,29.208105],[-13.424398,29.205738],[-13.420252,29.201468],[-13.421159,29.200157],[-13.41946,29.197551],[-13.421862,29.195727],[-13.420985,29.192437],[-13.421973,29.18888],[-13.419968,29.185143],[-13.422274,29.179645],[-13.421868,29.177285],[-13.425926,29.173335],[-13.424912,29.170544],[-13.427589,29.168586],[-13.423769,29.166695],[-13.423422,29.165094],[-13.427002,29.164279],[-13.428625,29.154324],[-13.434954,29.153415],[-13.435362,29.152059],[-13.437864,29.151876],[-13.442801,29.148013],[-13.446365,29.147138],[-13.446524,29.143526],[-13.449792,29.143945],[-13.452109,29.139918],[-13.455792,29.137898],[-13.457535,29.133235],[-13.459278,29.131773],[-13.460183,29.132336],[-13.462626,29.128407],[-13.463413,29.129397],[-13.464543,29.128052],[-13.464819,29.122553],[-13.463068,29.120213],[-13.463938,29.115337],[-13.457533,29.10993],[-13.458122,29.109055],[-13.454949,29.107698],[-13.45567,29.104059],[-13.448714,29.100786],[-13.449647,29.096256],[-13.448255,29.095454],[-13.447532,29.089068],[-13.44931,29.083735],[-13.451579,29.081345],[-13.453401,29.073479],[-13.454972,29.072913],[-13.456006,29.06902],[-13.459194,29.066119],[-13.461445,29.058005],[-13.465125,29.056946],[-13.466563,29.055117],[-13.463399,29.045312],[-13.46808,29.039782],[-13.467584,29.036212],[-13.468943,29.035918],[-13.469188,29.034031],[-13.463679,29.024458],[-13.464737,29.019218],[-13.468896,29.014993],[-13.473186,29.015301],[-13.476153,29.013889],[-13.476047,29.005606],[-13.479929,29.002735],[-13.479843,29.001136],[-13.480615,29.002512],[-13.482059,29.00182],[-13.481504,28.999269],[-13.483585,28.998415],[-13.485497,28.999815],[-13.488346,28.998275],[-13.487644,28.995248],[-13.485589,28.995863],[-13.486627,28.994889],[-13.485589,28.992736],[-13.495278,28.992999],[-13.501574,28.988135],[-13.508379,28.986209],[-13.51136,28.981392],[-13.515678,28.981365],[-13.516388,28.977048],[-13.519303,28.975005],[-13.520442,28.974589],[-13.523039,28.977153],[-13.523973,28.975487],[-13.525155,28.975719],[-13.528114,28.964134],[-13.526593,28.972666],[-13.528113,28.972807],[-13.529918,28.968132],[-13.53111,28.968418],[-13.529668,28.973386],[-13.531681,28.97327],[-13.532979,28.970685],[-13.536481,28.969656],[-13.539612,28.966207],[-13.539645,28.964382],[-13.542588,28.96239],[-13.540722,28.95971],[-13.537048,28.9649],[-13.537948,28.965814],[-13.536016,28.965692],[-13.533499,28.96778],[-13.541529,28.958279],[-13.544913,28.959302],[-13.54521,28.960616],[-13.542996,28.96105],[-13.549112,28.962192],[-13.545648,28.959806],[-13.551294,28.956916],[-13.554833,28.956638],[-13.554675,28.955213],[-13.55202,28.954663],[-13.553735,28.953942],[-13.55504,28.954748],[-13.5551,28.957451],[-13.558702,28.958365],[-13.560377,28.957009],[-13.559569,28.956254],[-13.565944,28.954413],[-13.571288,28.954432],[-13.571746,28.953385],[-13.57475,28.955084],[-13.576709,28.952634],[-13.581777,28.953597],[-13.583611,28.952107],[-13.597569,28.948418],[-13.604978,28.942239],[-13.609256,28.934754],[-13.611686,28.934554],[-13.616052,28.931047]]],[[[-13.494458,29.278928],[-13.484866,29.279639],[-13.481941,29.278588],[-13.473439,29.270654],[-13.471228,29.265591],[-13.477968,29.259784],[-13.480714,29.261284],[-13.486796,29.256356],[-13.488674,29.253519],[-13.489147,29.244304],[-13.492159,29.243982],[-13.492436,29.240484],[-13.496863,29.23597],[-13.49689,29.23403],[-13.500164,29.233534],[-13.501346,29.227968],[-13.501916,29.229955],[-13.504041,29.230112],[-13.504477,29.226959],[-13.502209,29.227175],[-13.504848,29.226561],[-13.504783,29.225002],[-13.513487,29.226362],[-13.523176,29.218269],[-13.528629,29.220544],[-13.531169,29.220028],[-13.533832,29.216547],[-13.536268,29.216646],[-13.537238,29.220903],[-13.541549,29.221029],[-13.54338,29.220171],[-13.543413,29.218303],[-13.548018,29.222326],[-13.548369,29.228196],[-13.545311,29.232963],[-13.54157,29.233728],[-13.53817,29.23627],[-13.533212,29.236651],[-13.531622,29.239566],[-13.52629,29.24212],[-13.52791,29.248786],[-13.526479,29.249562],[-13.528503,29.251656],[-13.523863,29.25359],[-13.520621,29.258546],[-13.522311,29.261345],[-13.521758,29.263148],[-13.523146,29.263391],[-13.521932,29.26423],[-13.522894,29.265234],[-13.521435,29.270797],[-13.517355,29.274018],[-13.51524,29.277938],[-13.516501,29.28162],[-13.51489,29.283949],[-13.515334,29.285709],[-13.513667,29.285679],[-13.511213,29.29078],[-13.509945,29.289405],[-13.509348,29.290709],[-13.50786,29.290458],[-13.503989,29.287274],[-13.502327,29.287592],[-13.502257,29.285522],[-13.500779,29.285138],[-13.501669,29.284367],[-13.498482,29.284401],[-13.494458,29.278928]]]]}}
]
}
