{
"type": "FeatureCollection",
"name": "cod_prov_51",
"crs": { "type": "name", "properties": { "name": "urn:ogc:def:crs:OGC:1.3:CRS84" } },
"xy_coordinate_resolution": 1e-15,
"features": [
{"type":"Feature","properties":{"fid":26,"cod_ccaa":"18","provincia":"Ceuta","cod_prov":"51"},"geometry":{"type":"MultiPolygon","coordinates":[[[[-5.367106,35.917569],[-5.36444,35.917152],[-5.360777,35.914083],[-5.359829,35.914575],[-5.359962,35.913398],[-5.35527,35.910455],[-5.348087,35.907727],[-5.343727,35.899741],[-5.336272,35.894583],[-5.333842,35.894],[-5.326742,35.896105],[-5.325558,35.897798],[-5.322659,35.899129],[-5.320063,35.898965],[-5.314995,35.896659],[-5.311267,35.896072],[-5.312325,35.89536],[-5.312254,35.895792],[-5.314969,35.896105],[-5.32006,35.898458],[-5.32296,35.898479],[-5.325103,35.897498],[-5.317895,35.891888],[-5.319281,35.891654],[-5.317353,35.891137],[-5.314447,35.893269],[-5.317869,35.889532],[-5.313412,35.888863],[-5.313086,35.889944],[-5.314937,35.890868],[-5.312866,35.89005],[-5.312029,35.889038],[-5.304557,35.890615],[-5.301777,35.893179],[-5.301981,35.894568],[-5.30785,35.895546],[-5.301053,35.894955],[-5.297909,35.90148],[-5.290411,35.903508],[-5.288659,35.905785],[-5.283982,35.903148],[-5.2836,35.90073],[-5.281328,35.899865],[-5.278694,35.900596],[-5.27909,35.897875],[-5.278154,35.897805],[-5.280309,35.896103],[-5.280543,35.894199],[-5.282892,35.894844],[-5.287192,35.890616],[-5.294172,35.888448],[-5.296598,35.889643],[-5.300244,35.885911],[-5.305967,35.884314],[-5.310967,35.884971],[-5.315456,35.887077],[-5.319352,35.887099],[-5.327614,35.87861],[-5.333785,35.879525],[-5.337587,35.878484],[-5.343811,35.87103],[-5.347873,35.872219],[-5.349816,35.875654],[-5.351343,35.87271],[-5.355188,35.872687],[-5.356892,35.874456],[-5.358764,35.874403],[-5.360367,35.877385],[-5.368412,35.879329],[-5.371912,35.881525],[-5.375728,35.889253],[-5.374911,35.893852],[-5.37783,35.895924],[-5.376763,35.904452],[-5.379845,35.910737],[-5.381995,35.912195],[-5.378475,35.916332],[-5.36981,35.916357],[-5.367106,35.917569]]]]}}
]
}
