{
"type": "FeatureCollection",
"name": "cod_prov_16",
"crs": { "type": "name", "properties": { "name": "urn:ogc:def:crs:OGC:1.3:CRS84" } },
"xy_coordinate_resolution": 1e-15,
"features": [
{"type":"Feature","properties":{"fid":14,"cod_ccaa":"08","provincia":"Cuenca","cod_prov":"16"},"geometry":{"type":"MultiPolygon","coordinates":[[[[-2.683835,39.322163],[-2.691755,39.317877],[-2.69942,39.321141],[-2.704139,39.321892],[-2.718252,39.320359],[-2.731974,39.320878],[-2.742251,39.318153],[-2.746632,39.32238],[-2.756287,39.338188],[-2.762601,39.358511],[-2.772082,39.369595],[-2.776371,39.386282],[-2.77603,39.394761],[-2.792443,39.397549],[-2.790817,39.393617],[-2.79361,39.391685],[-2.798338,39.391288],[-2.802604,39.385645],[-2.803789,39.381061],[-2.809401,39.379845],[-2.812246,39.375227],[-2.813337,39.375436],[-2.816769,39.36835],[-2.824842,39.361578],[-2.829371,39.355926],[-2.84567,39.349299],[-2.848735,39.348807],[-2.853247,39.350138],[-2.858231,39.347404],[-2.860901,39.347209],[-2.859934,39.348983],[-2.864689,39.356828],[-2.871865,39.355179],[-2.882376,39.350883],[-2.882803,39.352496],[-2.886852,39.35369],[-2.888796,39.357359],[-2.893436,39.35894],[-2.896558,39.366773],[-2.887415,39.378452],[-2.886093,39.384839],[-2.883421,39.385386],[-2.875354,39.383819],[-2.870592,39.384399],[-2.870162,39.391112],[-2.874057,39.394738],[-2.877424,39.395337],[-2.87968,39.400016],[-2.88592,39.405609],[-2.889669,39.421921],[-2.893283,39.421375],[-2.900074,39.425004],[-2.899839,39.426418],[-2.898073,39.426885],[-2.897615,39.430363],[-2.898799,39.430814],[-2.899487,39.429076],[-2.902693,39.429637],[-2.90198,39.4327],[-2.904244,39.434207],[-2.903915,39.428377],[-2.901384,39.427221],[-2.902872,39.425934],[-2.907363,39.43038],[-2.912791,39.438404],[-2.914534,39.447397],[-2.921376,39.450286],[-2.921967,39.451953],[-2.92363,39.451305],[-2.925058,39.45246],[-2.927036,39.450695],[-2.926416,39.454308],[-2.928789,39.45285],[-2.931811,39.452824],[-2.932192,39.45542],[-2.929249,39.45749],[-2.931339,39.459969],[-2.931069,39.462754],[-2.927573,39.470618],[-2.929585,39.469673],[-2.93034,39.47079],[-2.931374,39.471485],[-2.934619,39.482209],[-2.935201,39.494383],[-2.933923,39.504798],[-2.93586,39.51126],[-2.931269,39.518547],[-2.935079,39.525604],[-2.929082,39.529916],[-2.927502,39.549594],[-2.92477,39.555734],[-2.920648,39.559141],[-2.922778,39.569738],[-2.920517,39.581838],[-2.925514,39.601799],[-2.921271,39.604274],[-2.913746,39.613729],[-2.917859,39.623058],[-2.915538,39.625264],[-2.914854,39.631931],[-2.908233,39.642333],[-2.919254,39.64627],[-2.931327,39.659721],[-2.94957,39.676525],[-2.954437,39.686709],[-2.969876,39.689696],[-2.972592,39.693635],[-2.977524,39.696663],[-2.976694,39.702826],[-2.99349,39.714037],[-2.997748,39.718866],[-3.009338,39.745131],[-3.015364,39.764412],[-3.015528,39.764746],[-3.0209,39.771061],[-3.030092,39.777321],[-3.031694,39.780285],[-3.035829,39.782681],[-3.040538,39.787581],[-3.03769,39.790203],[-3.051839,39.812561],[-3.055691,39.823723],[-3.055743,39.829679],[-3.059676,39.837471],[-3.076293,39.855706],[-3.082269,39.857883],[-3.088918,39.864194],[-3.095224,39.867108],[-3.096267,39.869107],[-3.106852,39.871107],[-3.112062,39.874968],[-3.118563,39.874475],[-3.122121,39.876075],[-3.127228,39.874682],[-3.122185,39.885932],[-3.112924,39.894302],[-3.113284,39.899483],[-3.106879,39.903138],[-3.107023,39.913175],[-3.106852,39.916419],[-3.100354,39.921659],[-3.099721,39.928831],[-3.097059,39.933465],[-3.098464,39.941843],[-3.096692,39.947178],[-3.098913,39.952564],[-3.094832,39.955946],[-3.097365,39.95935],[-3.096227,39.966036],[-3.097532,39.969477],[-3.094853,39.971641],[-3.098594,39.975152],[-3.096596,39.986938],[-3.112819,39.987419],[-3.131882,39.984093],[-3.142565,39.984963],[-3.146792,39.995274],[-3.150481,40.01082],[-3.160804,40.026276],[-3.165497,40.028198],[-3.165406,40.039253],[-3.170234,40.048138],[-3.164705,40.054903],[-3.16138,40.061845],[-3.161377,40.064873],[-3.158123,40.06448],[-3.149612,40.066022],[-3.140913,40.063205],[-3.11819,40.061428],[-3.112265,40.064471],[-3.095339,40.068387],[-3.088802,40.070594],[-3.07263,40.083135],[-3.062764,40.089017],[-3.053372,40.099144],[-3.056549,40.104889],[-3.056099,40.105724],[-3.054155,40.105228],[-3.05353,40.106499],[-3.057765,40.111454],[-3.056033,40.112195],[-3.056194,40.113744],[-3.061476,40.113311],[-3.061875,40.115309],[-3.064598,40.115904],[-3.065778,40.11838],[-3.067583,40.118524],[-3.067979,40.119649],[-3.065575,40.120326],[-3.064935,40.121979],[-3.070209,40.122562],[-3.072895,40.125472],[-3.071485,40.126675],[-3.073321,40.126851],[-3.074389,40.129421],[-3.072374,40.131137],[-3.077329,40.132633],[-3.077212,40.135578],[-3.082378,40.135119],[-3.085183,40.138854],[-3.088651,40.138605],[-3.089964,40.139757],[-3.088091,40.139824],[-3.090188,40.141608],[-3.092853,40.140415],[-3.092959,40.13883],[-3.094394,40.142719],[-3.096756,40.142389],[-3.096468,40.147387],[-3.093191,40.15051],[-3.097323,40.152391],[-3.097561,40.153915],[-3.089277,40.162971],[-3.085175,40.163639],[-3.082492,40.161754],[-3.083043,40.15941],[-3.078014,40.157112],[-3.071695,40.155988],[-3.067908,40.157672],[-3.067636,40.161276],[-3.063767,40.168252],[-3.038009,40.160839],[-3.033745,40.158273],[-3.030938,40.157003],[-3.02091,40.155744],[-3.016518,40.152456],[-3.01444,40.155241],[-3.016049,40.159493],[-3.015957,40.164556],[-3.013162,40.168683],[-3.012259,40.173971],[-3.018108,40.176196],[-3.0212,40.184349],[-3.020907,40.188232],[-3.019769,40.193178],[-3.016468,40.192945],[-3.012991,40.196972],[-3.008256,40.199856],[-3.005684,40.208865],[-2.998186,40.209082],[-2.988199,40.202649],[-2.988834,40.20109],[-2.981117,40.193981],[-2.966118,40.185202],[-2.959483,40.18302],[-2.956467,40.178955],[-2.952205,40.176692],[-2.948461,40.172681],[-2.946983,40.169609],[-2.934823,40.163323],[-2.919209,40.159286],[-2.913117,40.157164],[-2.90485,40.157897],[-2.887589,40.164629],[-2.879863,40.170901],[-2.876667,40.171385],[-2.873739,40.173571],[-2.87505,40.175743],[-2.873369,40.176895],[-2.87367,40.179183],[-2.868083,40.189043],[-2.868206,40.191908],[-2.863126,40.200109],[-2.848387,40.202632],[-2.834866,40.201487],[-2.825981,40.20224],[-2.821532,40.20518],[-2.822897,40.208677],[-2.818914,40.217302],[-2.820424,40.21971],[-2.814381,40.224683],[-2.807525,40.242492],[-2.808363,40.245367],[-2.805492,40.250156],[-2.805852,40.251832],[-2.803319,40.257404],[-2.80263,40.264025],[-2.805596,40.267147],[-2.806549,40.279411],[-2.804908,40.281345],[-2.804686,40.288822],[-2.806894,40.29443],[-2.80915,40.311839],[-2.808495,40.326928],[-2.811011,40.32814],[-2.812037,40.331583],[-2.814768,40.331903],[-2.816691,40.33469],[-2.816169,40.336193],[-2.813259,40.33672],[-2.813359,40.33891],[-2.810743,40.339887],[-2.810088,40.342391],[-2.811684,40.344384],[-2.813456,40.342108],[-2.815223,40.341931],[-2.814978,40.345192],[-2.817904,40.347512],[-2.81534,40.359192],[-2.816929,40.36379],[-2.814615,40.365867],[-2.812159,40.372269],[-2.812882,40.379027],[-2.811459,40.386502],[-2.805886,40.39097],[-2.80943,40.391751],[-2.810297,40.393329],[-2.809904,40.394851],[-2.805349,40.397132],[-2.80452,40.398671],[-2.807095,40.404603],[-2.807678,40.406793],[-2.802635,40.410443],[-2.798065,40.41721],[-2.79762,40.420182],[-2.799614,40.423627],[-2.794296,40.424086],[-2.79061,40.426638],[-2.786034,40.427242],[-2.79004,40.431682],[-2.784643,40.434726],[-2.780945,40.44417],[-2.776845,40.446621],[-2.769111,40.442867],[-2.765326,40.442617],[-2.760681,40.442337],[-2.759865,40.439876],[-2.764704,40.428534],[-2.769868,40.4214],[-2.758399,40.411314],[-2.750219,40.408477],[-2.734509,40.399351],[-2.722899,40.397117],[-2.720678,40.398517],[-2.719687,40.401578],[-2.721642,40.404745],[-2.724968,40.406933],[-2.725803,40.410223],[-2.728026,40.411427],[-2.725292,40.411447],[-2.718792,40.407107],[-2.716043,40.407875],[-2.713533,40.410572],[-2.711986,40.413865],[-2.71795,40.416862],[-2.718923,40.418126],[-2.71743,40.419825],[-2.705094,40.416001],[-2.697139,40.402656],[-2.690668,40.395134],[-2.686288,40.397042],[-2.68077,40.402711],[-2.684731,40.404794],[-2.68916,40.410374],[-2.703795,40.421944],[-2.701816,40.429569],[-2.696638,40.430015],[-2.691936,40.427138],[-2.685013,40.427732],[-2.676356,40.43578],[-2.679077,40.438896],[-2.684712,40.44147],[-2.685152,40.443291],[-2.680364,40.443359],[-2.675069,40.448335],[-2.671119,40.448216],[-2.670698,40.442683],[-2.667547,40.438449],[-2.663845,40.436051],[-2.660987,40.439349],[-2.651303,40.440005],[-2.641576,40.448849],[-2.632854,40.443677],[-2.626431,40.44944],[-2.618953,40.445371],[-2.614368,40.447221],[-2.610824,40.446263],[-2.606704,40.446969],[-2.599556,40.443368],[-2.593331,40.44513],[-2.591711,40.449755],[-2.586236,40.450258],[-2.58009,40.444921],[-2.575993,40.445672],[-2.568957,40.443213],[-2.567853,40.43884],[-2.565135,40.438055],[-2.560988,40.439291],[-2.556419,40.434805],[-2.553893,40.43521],[-2.551319,40.434065],[-2.546596,40.43502],[-2.547911,40.4307],[-2.542547,40.425445],[-2.537725,40.425444],[-2.532383,40.427494],[-2.525794,40.423963],[-2.520884,40.424817],[-2.519809,40.423425],[-2.51401,40.42495],[-2.510504,40.428872],[-2.506594,40.437937],[-2.506442,40.44426],[-2.504535,40.448649],[-2.511115,40.458361],[-2.516222,40.46004],[-2.521981,40.466245],[-2.526997,40.46913],[-2.541587,40.474612],[-2.544454,40.474633],[-2.542044,40.476911],[-2.540497,40.48232],[-2.536459,40.486078],[-2.537553,40.488281],[-2.536664,40.49225],[-2.528727,40.49838],[-2.540455,40.5074],[-2.542374,40.513327],[-2.546267,40.518955],[-2.542909,40.523203],[-2.538714,40.534024],[-2.527236,40.544275],[-2.5216,40.531396],[-2.518071,40.52803],[-2.51593,40.523579],[-2.516356,40.52014],[-2.513602,40.515768],[-2.503593,40.510788],[-2.495971,40.508809],[-2.494936,40.509922],[-2.485159,40.512041],[-2.473203,40.519419],[-2.468404,40.520127],[-2.46263,40.523272],[-2.448642,40.52453],[-2.437279,40.530916],[-2.435371,40.534529],[-2.428049,40.540276],[-2.42512,40.54028],[-2.419815,40.53656],[-2.417035,40.530311],[-2.411822,40.525627],[-2.40831,40.528925],[-2.396699,40.533468],[-2.380004,40.543587],[-2.381396,40.547657],[-2.383207,40.553622],[-2.389703,40.556251],[-2.39346,40.563955],[-2.400543,40.565857],[-2.406629,40.573555],[-2.416178,40.580027],[-2.417303,40.58388],[-2.416282,40.588415],[-2.416073,40.593513],[-2.412452,40.602116],[-2.406546,40.60832],[-2.398732,40.613766],[-2.396406,40.612096],[-2.387388,40.609337],[-2.384927,40.609567],[-2.380811,40.607257],[-2.372573,40.607158],[-2.367144,40.601246],[-2.357049,40.595271],[-2.354391,40.592725],[-2.353961,40.589524],[-2.359848,40.580638],[-2.352881,40.575212],[-2.346989,40.573648],[-2.343439,40.569384],[-2.333514,40.567192],[-2.327416,40.568625],[-2.325937,40.570022],[-2.318209,40.570193],[-2.308234,40.574008],[-2.29766,40.572845],[-2.292196,40.579009],[-2.290315,40.585962],[-2.286752,40.588777],[-2.286042,40.592223],[-2.287001,40.59758],[-2.294216,40.611687],[-2.294245,40.624651],[-2.290402,40.63024],[-2.27997,40.633779],[-2.276858,40.637273],[-2.274601,40.644754],[-2.268366,40.641706],[-2.254836,40.632178],[-2.235455,40.627033],[-2.232819,40.623854],[-2.22567,40.619374],[-2.213815,40.619177],[-2.189775,40.630289],[-2.184956,40.62894],[-2.170341,40.629881],[-2.166869,40.632405],[-2.162808,40.650799],[-2.156936,40.658693],[-2.133739,40.655917],[-2.119354,40.650647],[-2.111207,40.650431],[-2.110118,40.651386],[-2.091202,40.646365],[-2.091812,40.643271],[-2.083603,40.63472],[-2.070954,40.628466],[-2.068793,40.629115],[-2.063471,40.627514],[-2.057524,40.624105],[-2.057452,40.618276],[-2.052263,40.6149],[-2.047497,40.609213],[-2.035798,40.601566],[-2.027966,40.598825],[-2.023378,40.598984],[-2.020559,40.59778],[-2.005573,40.591418],[-2.000997,40.591604],[-1.992368,40.589412],[-1.985527,40.585433],[-1.973466,40.589777],[-1.969924,40.589583],[-1.965435,40.592588],[-1.963856,40.599132],[-1.96812,40.608575],[-1.964944,40.611367],[-1.961445,40.61138],[-1.954066,40.600152],[-1.948229,40.600864],[-1.941835,40.600049],[-1.938502,40.597118],[-1.929059,40.593427],[-1.926448,40.59407],[-1.924971,40.59184],[-1.923225,40.591661],[-1.920591,40.5857],[-1.91649,40.582824],[-1.917416,40.581094],[-1.915765,40.580205],[-1.916755,40.577403],[-1.914586,40.573419],[-1.915954,40.571378],[-1.914966,40.568198],[-1.909841,40.561564],[-1.910981,40.559692],[-1.909446,40.557524],[-1.910219,40.554234],[-1.907973,40.552907],[-1.908183,40.549432],[-1.904488,40.54646],[-1.909135,40.543189],[-1.909467,40.541651],[-1.899806,40.541037],[-1.899262,40.534564],[-1.896611,40.534232],[-1.8954,40.532491],[-1.889074,40.529502],[-1.881458,40.517465],[-1.884004,40.514148],[-1.883919,40.51003],[-1.887815,40.505662],[-1.879636,40.49434],[-1.880311,40.492058],[-1.878053,40.491604],[-1.88085,40.489442],[-1.877479,40.487103],[-1.875752,40.478861],[-1.871229,40.477024],[-1.873579,40.476867],[-1.873261,40.473351],[-1.868717,40.469946],[-1.866994,40.469983],[-1.86083,40.464788],[-1.861722,40.463004],[-1.86,40.460906],[-1.86074,40.458976],[-1.865077,40.454965],[-1.860059,40.447609],[-1.862394,40.444119],[-1.857514,40.441936],[-1.856463,40.42879],[-1.850606,40.42593],[-1.853285,40.423678],[-1.84436,40.41894],[-1.837905,40.427605],[-1.836725,40.427656],[-1.8326,40.422155],[-1.832744,40.419977],[-1.823732,40.410832],[-1.814226,40.404509],[-1.811888,40.400107],[-1.806359,40.39823],[-1.802883,40.39887],[-1.795722,40.397408],[-1.790099,40.39753],[-1.788706,40.396344],[-1.789982,40.394853],[-1.789551,40.391902],[-1.786674,40.391368],[-1.783904,40.392762],[-1.77777,40.391877],[-1.775831,40.387686],[-1.773679,40.388077],[-1.767572,40.38313],[-1.767742,40.380933],[-1.764485,40.37543],[-1.75963,40.37236],[-1.753159,40.363642],[-1.753072,40.360668],[-1.750382,40.360963],[-1.749449,40.358539],[-1.744027,40.354345],[-1.744165,40.353239],[-1.74229,40.352777],[-1.741582,40.349679],[-1.7369,40.349439],[-1.730794,40.34475],[-1.720388,40.340897],[-1.70752,40.326682],[-1.703578,40.324782],[-1.702749,40.323223],[-1.697678,40.321292],[-1.697239,40.316558],[-1.70684,40.313602],[-1.720152,40.318507],[-1.720569,40.313251],[-1.723569,40.311419],[-1.72946,40.302907],[-1.729355,40.296591],[-1.726923,40.288249],[-1.723785,40.281845],[-1.719275,40.277102],[-1.717438,40.277847],[-1.71427,40.276794],[-1.710032,40.280675],[-1.71058,40.292059],[-1.700398,40.307071],[-1.691413,40.309861],[-1.688122,40.307815],[-1.679869,40.300784],[-1.665613,40.294549],[-1.658954,40.28203],[-1.645543,40.273253],[-1.63914,40.265853],[-1.629328,40.25962],[-1.617816,40.248627],[-1.608682,40.24277],[-1.603776,40.242972],[-1.60167,40.240749],[-1.592594,40.236251],[-1.584996,40.227951],[-1.582285,40.22663],[-1.579182,40.221574],[-1.571474,40.213668],[-1.567221,40.21248],[-1.540482,40.190804],[-1.531532,40.192907],[-1.522561,40.201928],[-1.5125,40.202664],[-1.510902,40.203715],[-1.507699,40.201899],[-1.474416,40.185042],[-1.439208,40.197014],[-1.442518,40.16532],[-1.442365,40.157597],[-1.448855,40.145342],[-1.457235,40.135057],[-1.456213,40.130954],[-1.442811,40.118045],[-1.429324,40.113592],[-1.419491,40.108035],[-1.410199,40.104502],[-1.407596,40.101403],[-1.420285,40.093514],[-1.414704,40.088825],[-1.413548,40.086071],[-1.413122,40.081218],[-1.400728,40.067075],[-1.393739,40.053113],[-1.383136,40.038965],[-1.381282,40.027165],[-1.376859,40.016499],[-1.364343,40.012179],[-1.358961,40.012337],[-1.350083,40.01513],[-1.335775,40.016673],[-1.328344,40.013413],[-1.307994,40.010468],[-1.286389,40.008178],[-1.275808,40.004048],[-1.264211,39.99846],[-1.249456,39.995103],[-1.216619,40.001557],[-1.207147,40.001834],[-1.199549,40.003446],[-1.191751,40.001532],[-1.185133,40.005482],[-1.179814,40.006372],[-1.173583,40.010706],[-1.165188,40.010096],[-1.163319,39.999823],[-1.147352,39.988596],[-1.142395,39.971841],[-1.153944,39.963882],[-1.20362,39.949573],[-1.208184,39.943805],[-1.208435,39.941359],[-1.206838,39.940199],[-1.209737,39.934064],[-1.206944,39.932138],[-1.208966,39.92816],[-1.200766,39.92315],[-1.2004,39.920577],[-1.197287,39.918393],[-1.198649,39.915982],[-1.19586,39.913929],[-1.198159,39.908794],[-1.200037,39.888445],[-1.200105,39.87377],[-1.197623,39.873011],[-1.200732,39.870834],[-1.200199,39.858123],[-1.206838,39.846054],[-1.210876,39.83818],[-1.210711,39.833258],[-1.211714,39.8203],[-1.216891,39.814389],[-1.215003,39.808774],[-1.221187,39.803175],[-1.234113,39.782832],[-1.249205,39.772502],[-1.262066,39.756442],[-1.275575,39.737616],[-1.274318,39.733732],[-1.270951,39.731177],[-1.272226,39.718457],[-1.27137,39.713489],[-1.261995,39.698907],[-1.27958,39.677888],[-1.291978,39.67254],[-1.307852,39.670817],[-1.312827,39.670484],[-1.325798,39.673086],[-1.342709,39.681591],[-1.368534,39.689615],[-1.404005,39.66598],[-1.417931,39.654936],[-1.436517,39.628807],[-1.445684,39.611217],[-1.456192,39.585472],[-1.462082,39.576621],[-1.47014,39.57179],[-1.476799,39.569121],[-1.483492,39.569163],[-1.504362,39.563902],[-1.500646,39.558105],[-1.501047,39.556786],[-1.503166,39.556183],[-1.502855,39.552233],[-1.517817,39.551397],[-1.520232,39.55059],[-1.520851,39.548859],[-1.515768,39.548713],[-1.511215,39.545564],[-1.506754,39.547354],[-1.50329,39.547157],[-1.502637,39.544517],[-1.506108,39.540039],[-1.500921,39.533972],[-1.505847,39.532152],[-1.503715,39.527403],[-1.505928,39.52135],[-1.506798,39.520379],[-1.50344,39.518543],[-1.501464,39.516301],[-1.501172,39.515829],[-1.501326,39.515173],[-1.502772,39.514372],[-1.507156,39.512869],[-1.507217,39.507861],[-1.499207,39.500108],[-1.501637,39.497427],[-1.500602,39.49527],[-1.50366,39.491498],[-1.512251,39.496528],[-1.510468,39.492883],[-1.510928,39.490393],[-1.507012,39.489712],[-1.505055,39.487705],[-1.510971,39.485672],[-1.512585,39.483567],[-1.510914,39.481239],[-1.505823,39.481182],[-1.503223,39.479347],[-1.504385,39.477749],[-1.509095,39.477692],[-1.512999,39.471246],[-1.513391,39.458268],[-1.519162,39.455792],[-1.523745,39.45785],[-1.527011,39.457288],[-1.528867,39.455266],[-1.528094,39.452202],[-1.526913,39.450917],[-1.523078,39.449787],[-1.519723,39.450158],[-1.518471,39.448944],[-1.519131,39.446862],[-1.524633,39.443292],[-1.520851,39.440262],[-1.51541,39.43876],[-1.515302,39.437812],[-1.521601,39.434469],[-1.52085,39.431522],[-1.515734,39.428943],[-1.513631,39.428979],[-1.513492,39.433861],[-1.511608,39.435062],[-1.508516,39.433464],[-1.505731,39.428977],[-1.496649,39.42932],[-1.496657,39.427887],[-1.500642,39.426254],[-1.503586,39.423318],[-1.505175,39.417996],[-1.515948,39.416143],[-1.529969,39.410608],[-1.534762,39.40747],[-1.555679,39.401848],[-1.560442,39.398943],[-1.58146,39.385316],[-1.598327,39.378547],[-1.612905,39.36818],[-1.62493,39.361709],[-1.647411,39.353422],[-1.660688,39.350376],[-1.674002,39.345519],[-1.696264,39.337589],[-1.716603,39.32494],[-1.735185,39.321944],[-1.739282,39.32116],[-1.763108,39.301494],[-1.766659,39.293476],[-1.769854,39.280508],[-1.786382,39.283484],[-1.816436,39.286199],[-1.845192,39.286118],[-1.871127,39.294959],[-1.886983,39.304943],[-1.909643,39.303643],[-1.93687,39.303958],[-1.955834,39.300715],[-1.966595,39.300036],[-1.9898,39.29368],[-1.995077,39.309809],[-2.006489,39.316458],[-2.018822,39.325411],[-2.028937,39.338065],[-2.020333,39.351824],[-2.044361,39.359169],[-2.054565,39.356468],[-2.066684,39.355494],[-2.074206,39.356257],[-2.081175,39.358583],[-2.096259,39.358917],[-2.090799,39.352144],[-2.09113,39.349001],[-2.088252,39.349015],[-2.086346,39.347441],[-2.088522,39.343377],[-2.087288,39.338321],[-2.082502,39.333454],[-2.078522,39.332548],[-2.077427,39.325863],[-2.07584,39.322156],[-2.073696,39.321121],[-2.073192,39.317089],[-2.077085,39.31302],[-2.077273,39.307597],[-2.074786,39.304424],[-2.070231,39.301567],[-2.06986,39.298915],[-2.066868,39.298026],[-2.066171,39.293741],[-2.067427,39.289165],[-2.065099,39.286353],[-2.059499,39.285443],[-2.060067,39.283699],[-2.057495,39.280128],[-2.057564,39.27757],[-2.058871,39.27257],[-2.050963,39.266676],[-2.050964,39.266676],[-2.055265,39.265765],[-2.075001,39.266041],[-2.095101,39.269704],[-2.121493,39.274618],[-2.136537,39.27492],[-2.152154,39.27581],[-2.168682,39.281074],[-2.178627,39.27827],[-2.181929,39.273482],[-2.181851,39.269309],[-2.205972,39.266422],[-2.208055,39.261624],[-2.218928,39.261517],[-2.245395,39.244914],[-2.278869,39.230718],[-2.280756,39.23082],[-2.288677,39.226661],[-2.291801,39.235105],[-2.297511,39.241167],[-2.302608,39.25184],[-2.300253,39.259079],[-2.30183,39.263612],[-2.314556,39.276834],[-2.319923,39.278172],[-2.321191,39.283739],[-2.329192,39.28611],[-2.344163,39.282159],[-2.34989,39.278542],[-2.361158,39.257005],[-2.359617,39.251843],[-2.361467,39.248528],[-2.361091,39.246553],[-2.364723,39.244707],[-2.369276,39.237046],[-2.374077,39.232783],[-2.385462,39.243873],[-2.396874,39.249636],[-2.418464,39.26374],[-2.431663,39.27706],[-2.441177,39.28353],[-2.452531,39.290577],[-2.466459,39.305788],[-2.483219,39.31519],[-2.494301,39.327637],[-2.511046,39.342153],[-2.529444,39.327578],[-2.532522,39.328888],[-2.548777,39.323455],[-2.567979,39.327043],[-2.585138,39.336846],[-2.593675,39.339417],[-2.619258,39.340143],[-2.628782,39.334191],[-2.634971,39.326759],[-2.643557,39.326623],[-2.648124,39.325142],[-2.653641,39.326104],[-2.662339,39.321949],[-2.665142,39.322957],[-2.677786,39.320704],[-2.683835,39.322163]]]]}}
]
}
