{
"type": "FeatureCollection",
"name": "cod_prov_43",
"crs": { "type": "name", "properties": { "name": "urn:ogc:def:crs:OGC:1.3:CRS84" } },
"xy_coordinate_resolution": 1e-15,
"features": [
{"type":"Feature","properties":{"fid":2,"cod_ccaa":"09","provincia":"Tarragona","cod_prov":"43"},"geometry":{"type":"MultiPolygon","coordinates":[[[[0.552668,40.57298],[0.550402,40.571896],[0.551923,40.570048],[0.554913,40.570992],[0.551648,40.569778],[0.547834,40.573785],[0.54174,40.569887],[0.54308,40.568424],[0.541607,40.569527],[0.538195,40.567603],[0.532109,40.553535],[0.532414,40.551814],[0.531878,40.553028],[0.530371,40.551491],[0.534239,40.551918],[0.530296,40.551048],[0.522842,40.543077],[0.522836,40.540393],[0.515499,40.522919],[0.506563,40.526053],[0.501206,40.526335],[0.498794,40.52784],[0.487025,40.529187],[0.48102,40.532197],[0.477233,40.532031],[0.474119,40.53408],[0.460711,40.537545],[0.455271,40.540833],[0.450584,40.541926],[0.448991,40.541291],[0.446238,40.54494],[0.438309,40.547058],[0.435827,40.549826],[0.436418,40.557437],[0.433412,40.56538],[0.438313,40.570214],[0.436594,40.572625],[0.439708,40.574396],[0.440188,40.576606],[0.443944,40.578223],[0.441117,40.579289],[0.432621,40.579236],[0.424223,40.583845],[0.417598,40.587815],[0.404605,40.594828],[0.406382,40.597252],[0.402759,40.601979],[0.395058,40.602521],[0.392341,40.604168],[0.388394,40.606743],[0.375952,40.606541],[0.371067,40.605036],[0.36797,40.606423],[0.360207,40.605974],[0.350804,40.608157],[0.344631,40.607598],[0.330102,40.611042],[0.323545,40.612522],[0.319042,40.614903],[0.315784,40.614033],[0.311045,40.616907],[0.301068,40.622615],[0.298753,40.626005],[0.292637,40.623278],[0.279175,40.630056],[0.276162,40.636843],[0.271337,40.638269],[0.270608,40.640521],[0.266544,40.644222],[0.266474,40.646177],[0.269475,40.647823],[0.268176,40.659],[0.269354,40.660467],[0.274233,40.669672],[0.282125,40.672852],[0.285406,40.678964],[0.292326,40.685179],[0.291841,40.688552],[0.286566,40.690027],[0.280983,40.693689],[0.276889,40.6944],[0.270131,40.703076],[0.266036,40.703561],[0.262432,40.705852],[0.251304,40.704825],[0.24188,40.700371],[0.236524,40.701683],[0.23477,40.706281],[0.226628,40.717064],[0.224142,40.725627],[0.225872,40.732766],[0.21704,40.732526],[0.204584,40.726362],[0.197292,40.724169],[0.191033,40.73116],[0.185554,40.728258],[0.182228,40.72826],[0.170724,40.732837],[0.167512,40.737249],[0.167498,40.739456],[0.164487,40.740115],[0.163142,40.742223],[0.164905,40.742445],[0.164815,40.743285],[0.159182,40.750609],[0.164551,40.748705],[0.16741,40.745069],[0.175358,40.741131],[0.176324,40.743256],[0.174002,40.748949],[0.176231,40.751004],[0.175223,40.754941],[0.177022,40.755171],[0.181264,40.753225],[0.183172,40.75374],[0.184091,40.755624],[0.185,40.753086],[0.190127,40.750323],[0.194669,40.754656],[0.196209,40.758603],[0.201514,40.7576],[0.208545,40.76315],[0.21199,40.767521],[0.223444,40.765553],[0.229968,40.767433],[0.229405,40.771222],[0.23084,40.773686],[0.234621,40.776165],[0.233157,40.779394],[0.233917,40.786992],[0.244747,40.792091],[0.250181,40.798521],[0.258103,40.799616],[0.258924,40.804524],[0.264951,40.813324],[0.272541,40.817251],[0.27227,40.818736],[0.272926,40.819826],[0.278226,40.821035],[0.266619,40.831154],[0.266319,40.833991],[0.261665,40.837257],[0.262316,40.838922],[0.259967,40.839142],[0.260454,40.842307],[0.259039,40.843194],[0.258895,40.846053],[0.255409,40.846314],[0.257616,40.848512],[0.255124,40.850906],[0.255765,40.853094],[0.250807,40.856251],[0.253384,40.859943],[0.251632,40.862676],[0.254266,40.866322],[0.253484,40.870216],[0.255404,40.87453],[0.25173,40.876561],[0.250413,40.879462],[0.24322,40.881367],[0.238909,40.884704],[0.241266,40.886781],[0.246009,40.887197],[0.245998,40.892547],[0.250023,40.895973],[0.249585,40.901569],[0.253471,40.906251],[0.249841,40.907272],[0.248545,40.909659],[0.250251,40.911529],[0.254238,40.911975],[0.253843,40.91965],[0.260535,40.928476],[0.267317,40.928995],[0.27462,40.936623],[0.274031,40.940621],[0.271849,40.941881],[0.27137,40.944227],[0.275903,40.947728],[0.275505,40.950729],[0.281184,40.951468],[0.283001,40.957694],[0.285358,40.960418],[0.28425,40.964656],[0.293405,40.970041],[0.290256,40.974103],[0.282923,40.972881],[0.281091,40.974896],[0.28235,40.982164],[0.281112,40.987162],[0.272834,40.992811],[0.271871,40.995936],[0.268388,40.998809],[0.269396,41.001888],[0.274578,41.004739],[0.274787,41.00631],[0.27059,41.009428],[0.262256,41.011132],[0.25866,41.01463],[0.259456,41.017264],[0.261958,41.019292],[0.272254,41.019261],[0.276394,41.018107],[0.280258,41.019795],[0.272575,41.025493],[0.262512,41.02667],[0.253977,41.032054],[0.251756,41.035008],[0.248101,41.039759],[0.245197,41.041426],[0.243519,41.040203],[0.242354,41.034886],[0.234251,41.034583],[0.234228,41.034583],[0.231059,41.035951],[0.230027,41.038187],[0.230487,41.040534],[0.234889,41.045408],[0.233105,41.047116],[0.226982,41.046693],[0.220744,41.041734],[0.217745,41.043655],[0.217771,41.046627],[0.21999,41.049194],[0.229008,41.052598],[0.230427,41.054621],[0.228773,41.058738],[0.222275,41.0592],[0.218802,41.061413],[0.217871,41.063799],[0.218937,41.069551],[0.220699,41.071429],[0.220981,41.073069],[0.218565,41.075243],[0.217138,41.077714],[0.220079,41.079208],[0.220427,41.082911],[0.215969,41.084243],[0.208328,41.08279],[0.201552,41.084678],[0.201259,41.102654],[0.206738,41.109554],[0.205684,41.110386],[0.209324,41.116912],[0.201276,41.12455],[0.201575,41.126773],[0.204273,41.128356],[0.220182,41.132423],[0.21972,41.134401],[0.213256,41.136444],[0.214298,41.137299],[0.237308,41.130431],[0.248229,41.13014],[0.252013,41.134483],[0.250524,41.138334],[0.256151,41.143705],[0.254809,41.144995],[0.255983,41.146799],[0.252991,41.150153],[0.25334,41.150152],[0.273362,41.148808],[0.292338,41.156354],[0.303668,41.164378],[0.300852,41.166908],[0.305271,41.171834],[0.30629,41.185673],[0.308594,41.187147],[0.309831,41.193947],[0.312875,41.19639],[0.314406,41.205442],[0.317931,41.210302],[0.3172,41.212827],[0.319181,41.2211],[0.322405,41.225241],[0.326976,41.222938],[0.331633,41.222722],[0.33608,41.225961],[0.3387,41.230325],[0.340658,41.23106],[0.350594,41.227061],[0.361214,41.225517],[0.364534,41.227672],[0.363727,41.236116],[0.364956,41.238673],[0.380962,41.236243],[0.381662,41.236427],[0.379115,41.237466],[0.377769,41.241441],[0.374477,41.244924],[0.37406,41.249349],[0.376751,41.250846],[0.378203,41.253784],[0.378913,41.256429],[0.377117,41.261633],[0.378892,41.267353],[0.386016,41.278842],[0.424341,41.274123],[0.430506,41.274678],[0.433502,41.276038],[0.433591,41.287517],[0.43632,41.297414],[0.432581,41.311727],[0.434795,41.320207],[0.442092,41.325608],[0.451856,41.329764],[0.456621,41.329945],[0.461615,41.3349],[0.469889,41.330752],[0.471383,41.327834],[0.475615,41.32677],[0.474998,41.32505],[0.480241,41.323442],[0.481136,41.31739],[0.490123,41.310318],[0.490651,41.306565],[0.497496,41.303025],[0.499088,41.297069],[0.50286,41.293928],[0.503626,41.289727],[0.518269,41.291594],[0.524761,41.289981],[0.527039,41.291737],[0.530383,41.300336],[0.53497,41.302131],[0.542258,41.310786],[0.545906,41.322984],[0.554779,41.326663],[0.574918,41.318492],[0.581129,41.320055],[0.582175,41.311242],[0.586255,41.307233],[0.597157,41.293538],[0.602424,41.293994],[0.606021,41.291657],[0.608243,41.292551],[0.619091,41.29094],[0.623213,41.292278],[0.628418,41.29097],[0.629392,41.293254],[0.637106,41.297558],[0.645889,41.299171],[0.648439,41.300792],[0.651816,41.300108],[0.657064,41.301481],[0.661948,41.303622],[0.662538,41.305612],[0.666073,41.306471],[0.669974,41.30958],[0.677992,41.309657],[0.681117,41.308098],[0.684343,41.310255],[0.687944,41.310148],[0.690433,41.312347],[0.695971,41.313547],[0.698188,41.312206],[0.703409,41.31265],[0.707244,41.311626],[0.709732,41.31295],[0.711958,41.312392],[0.713419,41.313723],[0.717126,41.312549],[0.72478,41.312725],[0.728842,41.314637],[0.733404,41.314003],[0.73657,41.316098],[0.742511,41.317444],[0.745147,41.316746],[0.751874,41.317832],[0.750837,41.324728],[0.753974,41.326733],[0.754002,41.328677],[0.762051,41.334015],[0.768146,41.333843],[0.774434,41.333907],[0.779597,41.331864],[0.791752,41.331545],[0.795099,41.328688],[0.802365,41.330384],[0.813295,41.327293],[0.820515,41.329602],[0.832479,41.358785],[0.845122,41.361982],[0.847018,41.354823],[0.855505,41.347775],[0.863643,41.338082],[0.872432,41.340812],[0.884933,41.34147],[0.893381,41.343481],[0.901933,41.347621],[0.905536,41.347724],[0.912118,41.349868],[0.922209,41.348569],[0.934508,41.350391],[0.939715,41.349339],[0.945214,41.349979],[0.948504,41.352207],[0.952161,41.351811],[0.955517,41.351975],[0.959911,41.354867],[0.964644,41.35547],[0.967174,41.359524],[0.963418,41.360663],[0.962614,41.368074],[0.972895,41.374176],[0.973941,41.381721],[0.979774,41.386589],[0.982003,41.392149],[0.992021,41.388596],[0.994001,41.391246],[0.993321,41.393809],[0.998668,41.399089],[1.004005,41.400317],[1.001375,41.402084],[1.001585,41.403553],[1.003892,41.404887],[1.006234,41.405823],[1.013037,41.403847],[1.015907,41.404233],[1.021174,41.40585],[1.024484,41.409093],[1.027325,41.409777],[1.029965,41.416474],[1.032023,41.418031],[1.03124,41.421229],[1.038136,41.421698],[1.040216,41.428027],[1.046666,41.437084],[1.046799,41.440384],[1.050709,41.442895],[1.055441,41.442321],[1.058684,41.443674],[1.059421,41.446845],[1.06272,41.448313],[1.061523,41.449076],[1.063362,41.45073],[1.064423,41.454691],[1.07043,41.455622],[1.075474,41.4599],[1.072473,41.463005],[1.057293,41.466253],[1.043335,41.475093],[1.043084,41.476452],[1.037713,41.479991],[1.04633,41.484343],[1.04801,41.487471],[1.046126,41.491265],[1.042146,41.493315],[1.037602,41.498229],[1.040104,41.501103],[1.04291,41.500374],[1.050654,41.495689],[1.056785,41.493563],[1.065275,41.487239],[1.06995,41.48674],[1.078745,41.483583],[1.082864,41.479195],[1.091608,41.47602],[1.094286,41.477474],[1.099721,41.476127],[1.105855,41.474107],[1.108495,41.466818],[1.112529,41.467007],[1.114144,41.468876],[1.120059,41.469456],[1.121445,41.471117],[1.130082,41.473823],[1.130885,41.476847],[1.155371,41.480781],[1.163211,41.482424],[1.172796,41.486965],[1.176729,41.4863],[1.1813,41.488105],[1.176179,41.497666],[1.175977,41.501599],[1.167883,41.504819],[1.164982,41.508706],[1.16455,41.513359],[1.1665,41.51816],[1.168975,41.518079],[1.170963,41.519367],[1.173672,41.531298],[1.17037,41.531004],[1.16678,41.532386],[1.165007,41.534449],[1.170726,41.532621],[1.176611,41.533757],[1.176201,41.534826],[1.167145,41.536938],[1.16827,41.540463],[1.181036,41.543465],[1.197008,41.543386],[1.211119,41.548596],[1.213664,41.552906],[1.214291,41.56033],[1.217318,41.562442],[1.216501,41.567191],[1.220217,41.569575],[1.232331,41.569264],[1.234808,41.571199],[1.244352,41.568271],[1.246791,41.57054],[1.248293,41.569863],[1.2519,41.571278],[1.251503,41.572355],[1.252881,41.571431],[1.257325,41.571725],[1.259493,41.567503],[1.273109,41.572156],[1.277032,41.5702],[1.294519,41.566656],[1.30335,41.569819],[1.304984,41.571684],[1.312911,41.569],[1.346705,41.568004],[1.372054,41.565384],[1.380813,41.561223],[1.384929,41.55651],[1.39226,41.556427],[1.403802,41.558155],[1.402614,41.564314],[1.395828,41.567312],[1.393202,41.575084],[1.395824,41.577486],[1.410916,41.575476],[1.412571,41.580229],[1.416437,41.582574],[1.421209,41.582382],[1.433524,41.578863],[1.436068,41.576271],[1.438917,41.575674],[1.44783,41.573807],[1.454838,41.569177],[1.439965,41.562983],[1.431383,41.555652],[1.432699,41.551414],[1.438046,41.550037],[1.447077,41.55238],[1.449642,41.545392],[1.448938,41.537064],[1.436539,41.539227],[1.425957,41.531865],[1.409077,41.53492],[1.406423,41.533599],[1.405055,41.530581],[1.402975,41.530832],[1.402107,41.529163],[1.399894,41.52851],[1.40103,41.527071],[1.399815,41.523822],[1.400883,41.521197],[1.398161,41.519401],[1.39897,41.514013],[1.396701,41.512884],[1.401293,41.51206],[1.404959,41.506598],[1.408333,41.505118],[1.415678,41.505339],[1.419113,41.502308],[1.422178,41.503342],[1.422896,41.49965],[1.437343,41.498291],[1.446398,41.494807],[1.450123,41.492186],[1.452309,41.486348],[1.453897,41.487682],[1.460368,41.488277],[1.464314,41.4868],[1.465961,41.483936],[1.474287,41.48625],[1.476525,41.482588],[1.475028,41.479459],[1.479942,41.476062],[1.484915,41.474913],[1.484995,41.472092],[1.48619,41.471883],[1.487525,41.466257],[1.483531,41.457824],[1.479587,41.452864],[1.468837,41.443955],[1.476013,41.436085],[1.495554,41.4356],[1.491527,41.435316],[1.48369,41.430293],[1.478035,41.433133],[1.475448,41.429444],[1.477429,41.42346],[1.484148,41.42218],[1.482106,41.416677],[1.485111,41.41394],[1.490518,41.401474],[1.488969,41.400004],[1.48281,41.398597],[1.480658,41.387831],[1.474059,41.382794],[1.473392,41.380749],[1.474805,41.382522],[1.477849,41.382971],[1.478882,41.381832],[1.48483,41.382266],[1.494484,41.389641],[1.496148,41.389323],[1.502853,41.391879],[1.505548,41.391431],[1.509642,41.39443],[1.512217,41.39432],[1.51921,41.388787],[1.531445,41.387647],[1.537168,41.38535],[1.54213,41.380732],[1.546132,41.379322],[1.547861,41.376174],[1.546979,41.373814],[1.552509,41.368102],[1.560135,41.367935],[1.563321,41.369735],[1.569704,41.368364],[1.570853,41.361405],[1.574446,41.363214],[1.578313,41.362447],[1.57754,41.360803],[1.579138,41.356337],[1.573966,41.355346],[1.559011,41.343137],[1.566138,41.339639],[1.569547,41.332525],[1.568901,41.330471],[1.574073,41.324835],[1.573723,41.317277],[1.575102,41.315142],[1.578594,41.315894],[1.587318,41.312232],[1.592728,41.311548],[1.595331,41.309328],[1.595985,41.307609],[1.591523,41.300871],[1.590507,41.295746],[1.588497,41.29398],[1.592205,41.292391],[1.596207,41.292265],[1.599375,41.289268],[1.604509,41.288944],[1.603111,41.286721],[1.607047,41.286158],[1.607731,41.287231],[1.609281,41.28534],[1.612408,41.285152],[1.616717,41.2931],[1.62524,41.296629],[1.628108,41.295993],[1.631559,41.298859],[1.633515,41.298484],[1.637143,41.295943],[1.633763,41.294414],[1.628132,41.294649],[1.627438,41.291076],[1.629894,41.288841],[1.628412,41.284264],[1.629536,41.28277],[1.620358,41.277053],[1.624084,41.276245],[1.623961,41.27381],[1.626252,41.272972],[1.62781,41.269513],[1.623222,41.266735],[1.62267,41.263831],[1.624214,41.262545],[1.621327,41.256485],[1.622338,41.254922],[1.620056,41.253691],[1.61807,41.254618],[1.616905,41.252484],[1.611757,41.25053],[1.606318,41.25038],[1.602852,41.253355],[1.597319,41.253405],[1.59955,41.256287],[1.595283,41.255495],[1.59656,41.256696],[1.593834,41.257976],[1.594655,41.258959],[1.585383,41.257422],[1.570507,41.260724],[1.575367,41.256155],[1.576282,41.248258],[1.581995,41.237162],[1.5939,41.233931],[1.602907,41.234813],[1.609565,41.231108],[1.614563,41.229582],[1.614518,41.225912],[1.621758,41.223206],[1.631435,41.224457],[1.634459,41.230962],[1.64133,41.235358],[1.646242,41.227756],[1.6443,41.220381],[1.647966,41.216423],[1.648205,41.212227],[1.653502,41.207404],[1.646646,41.20857],[1.646893,41.211883],[1.641588,41.211738],[1.641165,41.203741],[1.645573,41.195623],[1.634914,41.192902],[1.617165,41.190707],[1.608562,41.188376],[1.608493,41.186303],[1.606458,41.186001],[1.605774,41.186969],[1.608099,41.186469],[1.607777,41.187708],[1.606135,41.187258],[1.605355,41.188361],[1.601666,41.188658],[1.567565,41.185899],[1.525141,41.180259],[1.525815,41.178211],[1.526997,41.178228],[1.52587,41.178188],[1.52626,41.177008],[1.527232,41.177913],[1.527577,41.176871],[1.525518,41.176483],[1.525047,41.18024],[1.495886,41.173267],[1.485202,41.170236],[1.480317,41.167417],[1.478476,41.168263],[1.459684,41.163455],[1.440768,41.155286],[1.402958,41.139092],[1.400534,41.135],[1.394947,41.131584],[1.390246,41.131597],[1.390354,41.132893],[1.386,41.13279],[1.385912,41.133972],[1.382225,41.134408],[1.373768,41.133125],[1.352539,41.127101],[1.34974,41.127083],[1.349005,41.128074],[1.345676,41.127592],[1.343197,41.125824],[1.343943,41.124821],[1.336592,41.12836],[1.327431,41.128624],[1.324841,41.127709],[1.322807,41.129103],[1.318048,41.129465],[1.306086,41.128969],[1.2953,41.127098],[1.288834,41.123109],[1.284629,41.122737],[1.282134,41.120101],[1.279237,41.120496],[1.276694,41.119437],[1.274216,41.11758],[1.274914,41.116159],[1.270389,41.113123],[1.268567,41.11379],[1.266211,41.112159],[1.26466,41.114451],[1.262546,41.114374],[1.255781,41.11207],[1.249922,41.108321],[1.244739,41.101881],[1.235256,41.099105],[1.225292,41.087065],[1.226576,41.089036],[1.223487,41.090592],[1.227021,41.08916],[1.234119,41.098444],[1.233125,41.099587],[1.245384,41.104254],[1.244715,41.106603],[1.247424,41.105759],[1.248909,41.108872],[1.24396,41.10975],[1.243813,41.108748],[1.242872,41.109908],[1.243229,41.108328],[1.242558,41.109451],[1.24239,41.108106],[1.241805,41.109224],[1.241525,41.10815],[1.239567,41.108768],[1.238574,41.107677],[1.241893,41.106117],[1.241406,41.105288],[1.236774,41.106677],[1.235941,41.10608],[1.237217,41.103656],[1.23014,41.100946],[1.228503,41.10534],[1.225889,41.105246],[1.227457,41.099238],[1.226078,41.102885],[1.223739,41.102605],[1.224097,41.105178],[1.216999,41.105292],[1.211438,41.101906],[1.213096,41.099226],[1.211198,41.101361],[1.207524,41.100178],[1.19711,41.09287],[1.190971,41.086394],[1.191916,41.085629],[1.190518,41.085985],[1.188357,41.083519],[1.181182,41.073483],[1.178398,41.067775],[1.180818,41.065926],[1.181973,41.064275],[1.180589,41.062156],[1.177004,41.060772],[1.173054,41.057584],[1.17225,41.055396],[1.170074,41.054591],[1.167818,41.05524],[1.167392,41.056571],[1.160515,41.055871],[1.161864,41.059095],[1.160525,41.059121],[1.1609,41.060855],[1.158263,41.061507],[1.157853,41.063971],[1.152056,41.065754],[1.148018,41.065314],[1.148724,41.067886],[1.145442,41.069281],[1.143227,41.072123],[1.135889,41.073488],[1.13278,41.073523],[1.132096,41.072962],[1.130087,41.073026],[1.131807,41.073155],[1.131662,41.074313],[1.129951,41.073776],[1.128829,41.074893],[1.117651,41.073693],[1.113248,41.071935],[1.104219,41.070786],[1.083553,41.063791],[1.078237,41.063929],[1.073755,41.065886],[1.069167,41.066103],[1.065156,41.064851],[1.065295,41.063617],[1.063519,41.061748],[1.061894,41.060908],[1.06385,41.062386],[1.063487,41.063867],[1.06385,41.06303],[1.064114,41.064206],[1.064388,41.063296],[1.065078,41.063811],[1.064667,41.065329],[1.063794,41.064436],[1.063084,41.065565],[1.062664,41.064608],[1.062384,41.065521],[1.062294,41.064526],[1.062019,41.065441],[1.058847,41.064575],[1.061865,41.062505],[1.057603,41.064019],[1.049769,41.064373],[1.048787,41.062924],[1.04657,41.063182],[1.045354,41.061599],[1.044261,41.061878],[1.044689,41.060738],[1.042996,41.060097],[1.042333,41.061099],[1.04016,41.060108],[1.04016,41.058368],[1.034855,41.058378],[1.033998,41.05736],[1.034969,41.056909],[1.030265,41.056433],[1.02372,41.05201],[1.018837,41.051514],[1.013401,41.049174],[1.00412,41.04305],[0.992895,41.042712],[0.986599,41.040265],[0.971888,41.030022],[0.967082,41.028603],[0.939683,41.004663],[0.932243,40.991508],[0.924146,40.988461],[0.919584,40.988689],[0.908471,40.981646],[0.904562,40.977231],[0.898698,40.975322],[0.891501,40.966101],[0.890234,40.966577],[0.886261,40.96184],[0.881445,40.959948],[0.878765,40.954348],[0.873461,40.950789],[0.866143,40.949549],[0.863008,40.946933],[0.86049,40.943669],[0.858309,40.934781],[0.857076,40.935069],[0.851157,40.930662],[0.852589,40.929168],[0.851038,40.926912],[0.851482,40.929644],[0.849987,40.927221],[0.847546,40.926641],[0.847903,40.925375],[0.843314,40.922655],[0.843249,40.921315],[0.841524,40.921832],[0.836596,40.918978],[0.836917,40.91856],[0.836426,40.918247],[0.836984,40.917987],[0.836248,40.917382],[0.836683,40.916292],[0.83626,40.915457],[0.836702,40.914882],[0.836161,40.914224],[0.83561,40.914128],[0.836426,40.914911],[0.835855,40.915301],[0.834515,40.91528],[0.833545,40.916158],[0.834245,40.915163],[0.835775,40.914876],[0.833963,40.9134],[0.832332,40.913133],[0.833839,40.91169],[0.831915,40.910452],[0.830027,40.910856],[0.830042,40.909326],[0.826888,40.90832],[0.826866,40.903349],[0.824216,40.902695],[0.825125,40.901462],[0.818636,40.89593],[0.81784,40.893286],[0.816119,40.893753],[0.816894,40.892126],[0.814208,40.891962],[0.807065,40.887069],[0.807974,40.885725],[0.805423,40.884527],[0.805399,40.882584],[0.803874,40.88035],[0.805052,40.882966],[0.804275,40.883152],[0.803929,40.882397],[0.801854,40.882811],[0.801349,40.881291],[0.803153,40.881595],[0.800654,40.880727],[0.800114,40.879012],[0.801088,40.878727],[0.798133,40.877552],[0.798655,40.876482],[0.796012,40.876174],[0.796705,40.87406],[0.794978,40.874232],[0.795322,40.869778],[0.793767,40.868653],[0.79264,40.870735],[0.790389,40.871418],[0.793231,40.868902],[0.792274,40.866707],[0.787944,40.865922],[0.778689,40.859475],[0.769681,40.858032],[0.763464,40.850685],[0.764264,40.848947],[0.762621,40.846524],[0.758634,40.847734],[0.751966,40.846273],[0.748678,40.840339],[0.745456,40.83893],[0.741834,40.829358],[0.741608,40.82325],[0.735643,40.823877],[0.732586,40.820491],[0.732972,40.818722],[0.725494,40.817271],[0.719814,40.813637],[0.715214,40.812768],[0.712393,40.810859],[0.712901,40.811671],[0.711689,40.812053],[0.708459,40.810887],[0.703916,40.805927],[0.700116,40.804293],[0.702112,40.797781],[0.711246,40.785843],[0.70965,40.785912],[0.720525,40.778534],[0.72882,40.770478],[0.740618,40.765413],[0.761903,40.762054],[0.767911,40.763777],[0.769698,40.763134],[0.775016,40.765219],[0.776061,40.767777],[0.77756,40.76663],[0.777188,40.768632],[0.782428,40.767883],[0.784303,40.770245],[0.785029,40.769672],[0.784245,40.772138],[0.781238,40.774668],[0.773177,40.778948],[0.765546,40.779775],[0.749146,40.786642],[0.74385,40.786434],[0.739417,40.788309],[0.736692,40.787669],[0.737537,40.788784],[0.735732,40.788094],[0.73609,40.789191],[0.731522,40.78823],[0.74106,40.791596],[0.760505,40.793288],[0.774049,40.789521],[0.779283,40.785711],[0.796363,40.766102],[0.822773,40.740238],[0.831154,40.733611],[0.837297,40.730516],[0.843503,40.729535],[0.854294,40.730056],[0.855059,40.729346],[0.84412,40.728316],[0.852832,40.724009],[0.857932,40.723757],[0.857067,40.722742],[0.859532,40.72238],[0.859051,40.723457],[0.860911,40.723288],[0.863944,40.721501],[0.868058,40.724064],[0.874484,40.734016],[0.88208,40.725799],[0.887795,40.719258],[0.87561,40.699803],[0.869982,40.694175],[0.854024,40.682355],[0.827682,40.669795],[0.793974,40.658997],[0.791804,40.660751],[0.791239,40.660206],[0.792949,40.658426],[0.779008,40.653005],[0.765783,40.646196],[0.75685,40.64084],[0.750354,40.635046],[0.730311,40.612253],[0.711925,40.588821],[0.693096,40.571476],[0.676334,40.562575],[0.664347,40.558462],[0.646159,40.554687],[0.627455,40.554216],[0.619062,40.555335],[0.612048,40.557742],[0.604457,40.562618],[0.598124,40.570696],[0.597968,40.574176],[0.599645,40.575711],[0.602535,40.575205],[0.605279,40.578361],[0.607158,40.578809],[0.605377,40.577981],[0.607701,40.577278],[0.607823,40.576247],[0.61112,40.578477],[0.612511,40.577766],[0.612597,40.575422],[0.613946,40.576345],[0.616754,40.576049],[0.616969,40.573475],[0.618899,40.572252],[0.616574,40.57908],[0.615854,40.577976],[0.617275,40.580687],[0.617235,40.586509],[0.628063,40.58162],[0.63581,40.582691],[0.636869,40.581523],[0.643176,40.583015],[0.644732,40.58448],[0.651874,40.585479],[0.653904,40.585026],[0.656293,40.582043],[0.655995,40.584824],[0.654576,40.585204],[0.655135,40.586808],[0.660497,40.591771],[0.663108,40.591111],[0.672644,40.593312],[0.683899,40.589593],[0.687906,40.589853],[0.689683,40.601963],[0.688283,40.590047],[0.697564,40.589119],[0.700549,40.590337],[0.703934,40.589798],[0.706525,40.591578],[0.711488,40.592237],[0.743073,40.630419],[0.742212,40.632977],[0.746292,40.636177],[0.741085,40.6382],[0.739608,40.638429],[0.740668,40.637513],[0.739459,40.637443],[0.739321,40.638584],[0.73528,40.639461],[0.738536,40.637844],[0.735924,40.637864],[0.73492,40.639149],[0.735821,40.640479],[0.734621,40.639302],[0.733593,40.639957],[0.734499,40.642208],[0.73294,40.63842],[0.727289,40.639278],[0.726992,40.641775],[0.726264,40.639978],[0.722272,40.638981],[0.717902,40.638827],[0.71739,40.640248],[0.716941,40.638982],[0.712523,40.639054],[0.713142,40.637646],[0.711786,40.638987],[0.707856,40.635267],[0.707694,40.637236],[0.704209,40.638573],[0.702326,40.638723],[0.701249,40.637632],[0.700176,40.638325],[0.695087,40.636307],[0.693943,40.640622],[0.692483,40.63903],[0.693482,40.636784],[0.688136,40.635657],[0.686926,40.636867],[0.687742,40.635372],[0.685866,40.634576],[0.683383,40.639305],[0.684439,40.636569],[0.682849,40.635393],[0.684193,40.634469],[0.678888,40.633223],[0.669227,40.628643],[0.666048,40.630049],[0.6674,40.628512],[0.663532,40.626527],[0.654036,40.626657],[0.646163,40.623816],[0.626887,40.621661],[0.614738,40.622996],[0.602938,40.62206],[0.598181,40.619989],[0.602252,40.616267],[0.599005,40.613958],[0.60177,40.616112],[0.599861,40.617648],[0.598939,40.617082],[0.600066,40.6179],[0.59857,40.619106],[0.595748,40.616514],[0.593986,40.616855],[0.594859,40.616034],[0.593249,40.616284],[0.594611,40.6155],[0.596629,40.616089],[0.594952,40.614867],[0.60461,40.609123],[0.595559,40.614225],[0.593224,40.61402],[0.590198,40.612821],[0.585622,40.607437],[0.58041,40.604097],[0.575999,40.598416],[0.571749,40.596266],[0.563069,40.588399],[0.559526,40.583492],[0.548198,40.574424],[0.550094,40.572094],[0.552668,40.57298]]],[[[0.852079,40.725106],[0.85267,40.725087],[0.853204,40.724509],[0.852079,40.725106]]],[[[0.864121,40.725359],[0.863287,40.724875],[0.860083,40.729026],[0.857371,40.730076],[0.861153,40.729511],[0.864121,40.725359]]],[[[0.738057,40.786236],[0.737409,40.786311],[0.73702,40.786973],[0.738057,40.786236]]],[[[1.642512,41.312032],[1.640284,41.31042],[1.635682,41.309508],[1.629325,41.310645],[1.633587,41.313481],[1.642852,41.312944],[1.642512,41.312032]]]]}}
]
}
