{
"type": "FeatureCollection",
"name": "cod_prov_50",
"crs": { "type": "name", "properties": { "name": "urn:ogc:def:crs:OGC:1.3:CRS84" } },
"xy_coordinate_resolution": 1e-15,
"features": [
{"type":"Feature","properties":{"fid":27,"cod_ccaa":"02","provincia":"Zaragoza","cod_prov":"50"},"geometry":{"type":"MultiPolygon","coordinates":[[[[-1.785343,41.072771],[-1.794708,41.078788],[-1.803291,41.089894],[-1.814022,41.093031],[-1.81647,41.095281],[-1.820158,41.094157],[-1.825443,41.094905],[-1.835226,41.099184],[-1.855697,41.102524],[-1.869252,41.107909],[-1.872798,41.111583],[-1.875574,41.119168],[-1.879093,41.12376],[-1.888862,41.130764],[-1.890571,41.133321],[-1.899935,41.135464],[-1.905748,41.134105],[-1.92165,41.134291],[-1.932447,41.13859],[-1.935983,41.144658],[-1.939157,41.147335],[-1.939157,41.15247],[-1.947737,41.161475],[-1.94833,41.166849],[-1.959017,41.172486],[-1.962123,41.171325],[-1.982807,41.16506],[-1.987803,41.161141],[-2.008434,41.156438],[-2.029461,41.156266],[-2.038405,41.15508],[-2.047617,41.152652],[-2.051693,41.146849],[-2.077336,41.163127],[-2.079896,41.170985],[-2.106756,41.175223],[-2.146241,41.184395],[-2.149003,41.218807],[-2.154892,41.240388],[-2.156447,41.25864],[-2.158695,41.264881],[-2.163511,41.283192],[-2.173671,41.288085],[-2.172929,41.29579],[-2.169075,41.301104],[-2.168051,41.30651],[-2.168955,41.308643],[-2.167173,41.311647],[-2.170487,41.318832],[-2.169053,41.322569],[-2.164339,41.328642],[-2.15798,41.331613],[-2.157113,41.333967],[-2.156785,41.338045],[-2.162491,41.347869],[-2.163137,41.35535],[-2.156051,41.356901],[-2.149836,41.355883],[-2.141988,41.361761],[-2.134265,41.365324],[-2.131691,41.36834],[-2.125802,41.369637],[-2.12296,41.372913],[-2.120155,41.379674],[-2.116032,41.382047],[-2.119482,41.384281],[-2.120709,41.389965],[-2.119449,41.390333],[-2.120531,41.394323],[-2.118281,41.396179],[-2.116066,41.40871],[-2.116616,41.425513],[-2.11064,41.435402],[-2.107517,41.438008],[-2.104385,41.438587],[-2.103113,41.439658],[-2.10281,41.443376],[-2.10152,41.445789],[-2.047099,41.434335],[-2.035623,41.426889],[-2.033979,41.410265],[-2.034771,41.404417],[-2.043576,41.397149],[-2.042355,41.388997],[-2.038284,41.389296],[-2.03419,41.386343],[-2.032029,41.386838],[-2.029271,41.384158],[-2.025114,41.383798],[-2.016507,41.383554],[-2.016712,41.384979],[-2.009655,41.385837],[-2.001939,41.393769],[-1.998268,41.395242],[-1.993636,41.395435],[-1.993454,41.397145],[-1.991816,41.395545],[-1.987408,41.395912],[-1.981877,41.402322],[-1.970605,41.400987],[-1.962539,41.403437],[-1.953686,41.408635],[-1.952735,41.407527],[-1.952002,41.408457],[-1.937878,41.407391],[-1.937168,41.411294],[-1.939039,41.412482],[-1.939923,41.417003],[-1.939442,41.418647],[-1.936525,41.419899],[-1.947193,41.421033],[-1.953687,41.424263],[-1.948741,41.42964],[-1.94881,41.435784],[-1.9524,41.445509],[-1.952172,41.45963],[-1.957232,41.468188],[-1.969979,41.481454],[-1.981112,41.486435],[-1.976638,41.496708],[-1.976509,41.500337],[-1.978786,41.504087],[-1.974991,41.516059],[-1.976024,41.522734],[-1.978368,41.524547],[-1.978179,41.526689],[-1.971981,41.532813],[-1.973051,41.534156],[-1.967335,41.546066],[-1.970435,41.54867],[-1.968559,41.551274],[-1.971283,41.555649],[-1.973549,41.557966],[-1.976735,41.557409],[-1.978347,41.558603],[-1.981867,41.56203],[-1.980662,41.564704],[-1.993686,41.577086],[-1.99503,41.581719],[-1.991968,41.590357],[-1.993328,41.600133],[-1.984507,41.607071],[-1.977046,41.603051],[-1.969301,41.605639],[-1.958021,41.604844],[-1.9231,41.598334],[-1.918366,41.606594],[-1.914202,41.608725],[-1.91315,41.617083],[-1.907921,41.621096],[-1.900342,41.626347],[-1.897897,41.632412],[-1.878815,41.641045],[-1.873981,41.637981],[-1.85899,41.66153],[-1.849191,41.660748],[-1.840589,41.661544],[-1.834587,41.660646],[-1.829147,41.662599],[-1.813113,41.660561],[-1.806223,41.664263],[-1.809078,41.684676],[-1.812073,41.686454],[-1.800268,41.697077],[-1.794897,41.698993],[-1.793899,41.697731],[-1.78686,41.699431],[-1.788192,41.70275],[-1.784991,41.716992],[-1.77537,41.724789],[-1.778885,41.727142],[-1.784342,41.72846],[-1.787771,41.734135],[-1.798567,41.732915],[-1.809349,41.737036],[-1.808065,41.741436],[-1.803597,41.746973],[-1.802676,41.751224],[-1.80681,41.755942],[-1.812152,41.759167],[-1.818714,41.765378],[-1.821143,41.766096],[-1.824975,41.773638],[-1.825322,41.77837],[-1.839567,41.787125],[-1.852408,41.788507],[-1.852918,41.789564],[-1.843729,41.806019],[-1.841354,41.806843],[-1.833844,41.814754],[-1.825496,41.818974],[-1.818563,41.829955],[-1.820827,41.847001],[-1.820399,41.850636],[-1.817602,41.853379],[-1.81999,41.861736],[-1.820243,41.862379],[-1.822597,41.865438],[-1.827235,41.863475],[-1.83213,41.863328],[-1.839985,41.875288],[-1.839971,41.877475],[-1.83845,41.882216],[-1.838785,41.88902],[-1.852327,41.902809],[-1.857283,41.909515],[-1.856868,41.9233],[-1.858585,41.932503],[-1.85495,41.936782],[-1.856608,41.945948],[-1.854755,41.959153],[-1.856544,41.966401],[-1.865191,41.977601],[-1.854195,41.981618],[-1.844048,41.987334],[-1.844668,41.989096],[-1.847392,41.9907],[-1.851328,41.998071],[-1.847033,42.002503],[-1.847183,42.007842],[-1.847081,42.007736],[-1.845365,42.007457],[-1.844634,42.005457],[-1.840783,42.004681],[-1.840089,42.001025],[-1.836785,41.999537],[-1.833985,41.995553],[-1.824565,41.99624],[-1.819425,41.995983],[-1.816581,41.997502],[-1.809678,41.998274],[-1.798574,41.992548],[-1.79167,41.989595],[-1.786539,41.990623],[-1.773678,41.995899],[-1.767209,41.995412],[-1.75841,41.987137],[-1.752343,41.979019],[-1.743969,41.973369],[-1.740331,41.968377],[-1.733965,41.963564],[-1.727656,41.961812],[-1.724475,41.960817],[-1.718408,41.959117],[-1.714592,41.956799],[-1.704212,41.957147],[-1.70085,41.953638],[-1.695377,41.955556],[-1.689372,41.95461],[-1.686913,41.952201],[-1.686074,41.953406],[-1.681218,41.955945],[-1.681981,41.957592],[-1.6793,41.960265],[-1.679403,41.961736],[-1.678333,41.960836],[-1.676744,41.962468],[-1.676245,41.966561],[-1.67489,41.966586],[-1.664713,41.962461],[-1.663945,41.959936],[-1.658828,41.960391],[-1.659688,41.962299],[-1.653799,41.965264],[-1.649574,41.963819],[-1.642863,41.95857],[-1.613187,41.950011],[-1.605467,41.940723],[-1.598718,41.928768],[-1.587452,41.923301],[-1.580167,41.92123],[-1.575431,41.918452],[-1.556459,41.913444],[-1.523359,41.909895],[-1.510005,41.9154],[-1.508442,41.914719],[-1.506047,41.915438],[-1.502703,41.919872],[-1.501461,41.924041],[-1.487789,41.923589],[-1.476747,41.924686],[-1.466068,41.921933],[-1.457643,41.916752],[-1.45301,41.915376],[-1.44088,41.916154],[-1.431769,41.912915],[-1.42656,41.912817],[-1.423134,41.911599],[-1.418044,41.913638],[-1.415669,41.91676],[-1.411356,41.917984],[-1.408108,41.923545],[-1.407732,41.929373],[-1.402606,41.933766],[-1.403736,41.935183],[-1.396862,41.938905],[-1.382355,41.942832],[-1.37985,41.947987],[-1.381199,41.948639],[-1.380071,41.950404],[-1.383076,41.954489],[-1.386498,41.956217],[-1.385871,41.957112],[-1.379998,41.959403],[-1.374437,41.961757],[-1.373475,41.966442],[-1.365735,41.982931],[-1.353556,42.000073],[-1.342375,42.011817],[-1.339672,42.017046],[-1.325384,42.029773],[-1.305637,42.042936],[-1.308342,42.046251],[-1.303296,42.051542],[-1.307704,42.057855],[-1.308268,42.061788],[-1.312139,42.063411],[-1.312747,42.069403],[-1.310602,42.072266],[-1.332447,42.072906],[-1.345074,42.070695],[-1.348614,42.070928],[-1.353242,42.072954],[-1.357975,42.083429],[-1.365673,42.09283],[-1.367337,42.106816],[-1.38979,42.121941],[-1.396468,42.124027],[-1.399912,42.126877],[-1.400945,42.129997],[-1.393068,42.149437],[-1.394565,42.152627],[-1.394108,42.155315],[-1.39846,42.156758],[-1.393773,42.166736],[-1.394067,42.173637],[-1.391779,42.180685],[-1.395476,42.190498],[-1.406231,42.197166],[-1.407686,42.199628],[-1.413319,42.202241],[-1.417537,42.212484],[-1.415995,42.222971],[-1.409902,42.228],[-1.400615,42.243278],[-1.398377,42.248881],[-1.399377,42.257272],[-1.394101,42.264698],[-1.395596,42.269084],[-1.39138,42.272066],[-1.389203,42.276738],[-1.39389,42.282784],[-1.396403,42.288656],[-1.399057,42.290914],[-1.398439,42.292133],[-1.387392,42.29964],[-1.383086,42.304019],[-1.375198,42.315364],[-1.356578,42.335454],[-1.352321,42.339218],[-1.34305,42.342279],[-1.332899,42.349492],[-1.329039,42.355453],[-1.332162,42.358863],[-1.329531,42.361107],[-1.332954,42.364219],[-1.333006,42.368397],[-1.335639,42.372051],[-1.342477,42.373051],[-1.350018,42.369966],[-1.356544,42.374323],[-1.359616,42.378065],[-1.357249,42.381209],[-1.350911,42.390795],[-1.348402,42.400394],[-1.343345,42.407918],[-1.340342,42.421904],[-1.34169,42.42399],[-1.316551,42.448666],[-1.312193,42.449613],[-1.312163,42.450454],[-1.305459,42.452987],[-1.297963,42.454017],[-1.292749,42.456014],[-1.281466,42.464299],[-1.281796,42.46768],[-1.278823,42.470535],[-1.272781,42.481899],[-1.274952,42.485499],[-1.275151,42.495908],[-1.28223,42.498918],[-1.286732,42.498526],[-1.287423,42.508105],[-1.294544,42.51085],[-1.289738,42.514584],[-1.288674,42.52241],[-1.273305,42.54185],[-1.271219,42.548257],[-1.265479,42.555822],[-1.264518,42.556468],[-1.259998,42.554526],[-1.257124,42.555008],[-1.256447,42.552551],[-1.252358,42.550541],[-1.25019,42.550872],[-1.250047,42.549595],[-1.238819,42.547412],[-1.238885,42.546305],[-1.235273,42.54404],[-1.232946,42.544463],[-1.231008,42.541884],[-1.229437,42.543069],[-1.228661,42.542003],[-1.226608,42.541996],[-1.21888,42.548592],[-1.207617,42.549559],[-1.206917,42.550716],[-1.202731,42.54935],[-1.200762,42.552504],[-1.203907,42.558155],[-1.20417,42.561221],[-1.20431,42.570661],[-1.201446,42.578266],[-1.197618,42.578693],[-1.192905,42.58358],[-1.174746,42.593198],[-1.170814,42.59688],[-1.169082,42.597424],[-1.161737,42.596018],[-1.16039,42.598047],[-1.15774,42.598824],[-1.169537,42.605145],[-1.175207,42.605862],[-1.180067,42.607789],[-1.178778,42.615127],[-1.176325,42.6148],[-1.17087,42.617054],[-1.159844,42.61259],[-1.15674,42.610823],[-1.157121,42.623054],[-1.15419,42.63552],[-1.155192,42.636269],[-1.15476,42.645916],[-1.155026,42.647081],[-1.147238,42.648097],[-1.120317,42.64493],[-1.103281,42.645978],[-1.0845,42.645897],[-1.070788,42.640672],[-1.063777,42.641948],[-1.051827,42.641161],[-1.045258,42.645823],[-1.036766,42.648601],[-1.036082,42.652061],[-1.036809,42.651638],[-1.038289,42.653455],[-1.039622,42.664203],[-1.033154,42.674594],[-1.037744,42.684666],[-1.039186,42.691634],[-1.0381,42.691882],[-1.02905,42.694864],[-1.02765,42.700376],[-1.016814,42.702262],[-1.001492,42.699951],[-0.989945,42.701614],[-0.988116,42.702768],[-0.983912,42.702358],[-0.979144,42.704655],[-0.969212,42.703705],[-0.968682,42.705353],[-0.960533,42.711188],[-0.954913,42.712552],[-0.948614,42.711402],[-0.946213,42.713999],[-0.947236,42.714927],[-0.945055,42.717858],[-0.94414,42.722701],[-0.938457,42.725447],[-0.93588,42.734275],[-0.930269,42.735524],[-0.924769,42.738883],[-0.923906,42.744113],[-0.908452,42.743826],[-0.901087,42.742719],[-0.900961,42.737764],[-0.896867,42.735663],[-0.906846,42.726607],[-0.904175,42.717805],[-0.904352,42.712189],[-0.907204,42.710161],[-0.911788,42.709281],[-0.915578,42.704749],[-0.922512,42.700769],[-0.902711,42.702172],[-0.889633,42.694656],[-0.880123,42.693958],[-0.881839,42.691243],[-0.879955,42.688138],[-0.882713,42.685649],[-0.882345,42.683184],[-0.884271,42.682535],[-0.88495,42.677631],[-0.886754,42.675179],[-0.887057,42.669106],[-0.88773,42.667615],[-0.892871,42.666773],[-0.893094,42.662347],[-0.897847,42.661804],[-0.902148,42.656885],[-0.927644,42.656242],[-0.923377,42.64697],[-0.911301,42.633504],[-0.904661,42.612941],[-0.905552,42.610013],[-0.90866,42.609673],[-0.910533,42.604349],[-0.91343,42.603745],[-0.914684,42.602327],[-0.904848,42.600842],[-0.908671,42.587125],[-0.92479,42.587967],[-0.928211,42.580348],[-0.934169,42.572648],[-0.930672,42.570433],[-0.927915,42.571643],[-0.921605,42.571241],[-0.923244,42.564066],[-0.919742,42.563165],[-0.918603,42.555283],[-0.908264,42.559228],[-0.899346,42.559983],[-0.895048,42.549062],[-0.895712,42.542365],[-0.898261,42.538963],[-0.909782,42.538949],[-0.916448,42.537323],[-0.927804,42.522752],[-0.929258,42.513755],[-0.933219,42.510278],[-0.933425,42.505878],[-0.931569,42.504224],[-0.926662,42.502802],[-0.913253,42.503838],[-0.912381,42.507721],[-0.899946,42.511969],[-0.892994,42.509851],[-0.891407,42.504923],[-0.893892,42.500493],[-0.892561,42.49919],[-0.893085,42.493752],[-0.892664,42.491781],[-0.89029,42.490368],[-0.89702,42.479082],[-0.890115,42.476389],[-0.885748,42.472787],[-0.882787,42.471841],[-0.877247,42.466614],[-0.877719,42.461643],[-0.881899,42.457056],[-0.889547,42.459646],[-0.891858,42.458923],[-0.896296,42.460392],[-0.896425,42.4569],[-0.903759,42.453243],[-0.906368,42.449761],[-0.89628,42.443804],[-0.905632,42.436456],[-0.898605,42.431374],[-0.896016,42.428075],[-0.884218,42.421059],[-0.876527,42.417738],[-0.848878,42.410252],[-0.842086,42.407387],[-0.841698,42.404524],[-0.842925,42.403134],[-0.840658,42.401911],[-0.840571,42.398785],[-0.835434,42.395527],[-0.828017,42.394306],[-0.822598,42.397832],[-0.815889,42.396147],[-0.815346,42.394966],[-0.821672,42.384559],[-0.83313,42.381993],[-0.84192,42.386365],[-0.844178,42.384642],[-0.84335,42.377963],[-0.845369,42.375029],[-0.845106,42.373484],[-0.842013,42.37266],[-0.842764,42.366344],[-0.846905,42.364215],[-0.846785,42.362394],[-0.84997,42.359076],[-0.855661,42.33992],[-0.866178,42.332606],[-0.866315,42.328907],[-0.868934,42.328254],[-0.872495,42.322358],[-0.879602,42.318888],[-0.879944,42.315193],[-0.882182,42.313235],[-0.883042,42.310018],[-0.887525,42.308029],[-0.884979,42.305794],[-0.888628,42.302619],[-0.888523,42.299582],[-0.891733,42.297534],[-0.892454,42.293036],[-0.890161,42.291228],[-0.889039,42.286705],[-0.891921,42.286479],[-0.893442,42.28195],[-0.897404,42.280591],[-0.903454,42.275902],[-0.903394,42.273685],[-0.906494,42.270148],[-0.914115,42.264092],[-0.913581,42.262272],[-0.915686,42.260194],[-0.91841,42.259199],[-0.918011,42.255499],[-0.914287,42.252991],[-0.89928,42.249718],[-0.895836,42.247556],[-0.898162,42.244672],[-0.897086,42.24313],[-0.89362,42.240221],[-0.890548,42.240029],[-0.886505,42.244602],[-0.890891,42.248654],[-0.890507,42.25143],[-0.887092,42.255681],[-0.88983,42.256451],[-0.891175,42.263041],[-0.888249,42.264969],[-0.883429,42.275308],[-0.879141,42.277318],[-0.876959,42.281646],[-0.868274,42.280962],[-0.857934,42.274745],[-0.856042,42.275475],[-0.854848,42.277794],[-0.851533,42.278281],[-0.843932,42.28283],[-0.838899,42.279629],[-0.837824,42.277015],[-0.833087,42.274422],[-0.828249,42.274051],[-0.822992,42.269655],[-0.813095,42.264487],[-0.805037,42.272051],[-0.802469,42.278251],[-0.791351,42.295166],[-0.792251,42.296498],[-0.787567,42.306584],[-0.781097,42.317383],[-0.77181,42.346714],[-0.771901,42.362691],[-0.773021,42.364316],[-0.77706,42.365502],[-0.780951,42.376717],[-0.778263,42.378565],[-0.778002,42.383531],[-0.780694,42.386078],[-0.777936,42.391256],[-0.764182,42.385144],[-0.755764,42.380045],[-0.748272,42.377926],[-0.746154,42.378073],[-0.744366,42.375093],[-0.736145,42.369312],[-0.736838,42.36657],[-0.742861,42.36387],[-0.744846,42.361676],[-0.744276,42.359629],[-0.737499,42.356623],[-0.735116,42.353343],[-0.73857,42.347413],[-0.737365,42.344445],[-0.743657,42.341309],[-0.744588,42.33868],[-0.739863,42.334714],[-0.741956,42.330829],[-0.738841,42.319214],[-0.732259,42.307169],[-0.728935,42.297738],[-0.730384,42.291165],[-0.742384,42.279857],[-0.748493,42.277537],[-0.749343,42.270376],[-0.752351,42.266257],[-0.751959,42.263619],[-0.759378,42.263648],[-0.757976,42.259415],[-0.759191,42.256962],[-0.758017,42.251076],[-0.759667,42.248317],[-0.761226,42.234731],[-0.761916,42.23134],[-0.761979,42.228514],[-0.76052,42.22283],[-0.761519,42.214465],[-0.759428,42.20576],[-0.757611,42.203357],[-0.751916,42.202047],[-0.750491,42.200569],[-0.754015,42.194434],[-0.752576,42.188912],[-0.753665,42.183134],[-0.759893,42.178203],[-0.752658,42.174991],[-0.751617,42.172926],[-0.75306,42.171838],[-0.757106,42.172106],[-0.759551,42.171091],[-0.757521,42.166206],[-0.755663,42.161919],[-0.748969,42.159537],[-0.747524,42.157275],[-0.748032,42.154898],[-0.754959,42.153755],[-0.755377,42.152557],[-0.756059,42.148328],[-0.758701,42.146156],[-0.756488,42.142699],[-0.755331,42.136724],[-0.752741,42.134007],[-0.752145,42.132041],[-0.753548,42.131366],[-0.75855,42.131924],[-0.760861,42.129852],[-0.753475,42.124908],[-0.753399,42.121565],[-0.758074,42.115236],[-0.756005,42.110818],[-0.755043,42.109611],[-0.754496,42.107637],[-0.759731,42.105632],[-0.76263,42.101942],[-0.76118,42.095069],[-0.756491,42.092231],[-0.754917,42.090597],[-0.757504,42.088207],[-0.767145,42.08908],[-0.77016,42.087229],[-0.768651,42.084759],[-0.762312,42.08143],[-0.760785,42.0795],[-0.766109,42.073498],[-0.763412,42.070095],[-0.763141,42.067478],[-0.769223,42.06258],[-0.774878,42.061249],[-0.776667,42.058807],[-0.776102,42.056302],[-0.788012,42.052263],[-0.794777,42.055123],[-0.799894,42.062651],[-0.804849,42.073877],[-0.804784,42.096444],[-0.812936,42.092502],[-0.828173,42.082552],[-0.844241,42.059305],[-0.855431,42.053229],[-0.857157,42.050442],[-0.856444,42.047205],[-0.852145,42.045702],[-0.848793,42.041541],[-0.850038,42.0272],[-0.854176,42.022333],[-0.866334,42.015995],[-0.869701,42.012446],[-0.880284,42.008689],[-0.884933,42.003578],[-0.872609,41.999496],[-0.87034,42.00056],[-0.867065,41.999906],[-0.863249,41.998152],[-0.856763,41.991023],[-0.853555,41.990558],[-0.843756,41.984016],[-0.83293,41.981119],[-0.81981,41.974766],[-0.813792,41.973931],[-0.813004,41.971563],[-0.809679,41.970717],[-0.79637,41.962599],[-0.778209,41.957397],[-0.737028,41.953321],[-0.72876,41.960219],[-0.72443,41.960825],[-0.721176,41.959393],[-0.696808,41.956556],[-0.688684,41.95867],[-0.663516,41.958606],[-0.657826,41.957495],[-0.652261,41.947718],[-0.652153,41.947374],[-0.651237,41.943726],[-0.632598,41.919999],[-0.630581,41.912906],[-0.615934,41.905722],[-0.599705,41.902231],[-0.595465,41.899594],[-0.595228,41.896914],[-0.598065,41.890057],[-0.601041,41.887508],[-0.603313,41.882827],[-0.592793,41.882481],[-0.591818,41.881154],[-0.584911,41.875768],[-0.579389,41.876489],[-0.57046,41.875526],[-0.561687,41.872061],[-0.555208,41.871329],[-0.553981,41.867809],[-0.545788,41.862131],[-0.54278,41.857942],[-0.539199,41.858036],[-0.532031,41.853352],[-0.529038,41.853495],[-0.524623,41.848339],[-0.522538,41.844646],[-0.522836,41.842518],[-0.519479,41.840572],[-0.516748,41.836776],[-0.515874,41.828562],[-0.518314,41.824616],[-0.516445,41.813174],[-0.515192,41.810697],[-0.511174,41.808457],[-0.512435,41.798281],[-0.508836,41.791466],[-0.512011,41.784357],[-0.506552,41.778349],[-0.507746,41.774863],[-0.505715,41.77263],[-0.505531,41.768069],[-0.504043,41.766433],[-0.504993,41.76459],[-0.500693,41.761317],[-0.505275,41.752663],[-0.503988,41.74615],[-0.511271,41.741589],[-0.519623,41.73144],[-0.519366,41.729372],[-0.516973,41.728456],[-0.506868,41.728912],[-0.500063,41.731088],[-0.489424,41.731666],[-0.485966,41.729699],[-0.482245,41.724313],[-0.478329,41.724858],[-0.474091,41.722549],[-0.466863,41.721732],[-0.464369,41.715148],[-0.45966,41.715089],[-0.460653,41.713372],[-0.455691,41.712695],[-0.455395,41.711662],[-0.448332,41.708839],[-0.446743,41.707381],[-0.447353,41.705638],[-0.444918,41.703684],[-0.443058,41.705741],[-0.439923,41.706617],[-0.437502,41.705527],[-0.433756,41.706353],[-0.428539,41.70548],[-0.424196,41.703482],[-0.421404,41.703573],[-0.420201,41.701798],[-0.410449,41.701354],[-0.403121,41.696217],[-0.398832,41.695588],[-0.3952,41.69239],[-0.384834,41.687561],[-0.377904,41.689582],[-0.374503,41.688118],[-0.373674,41.684001],[-0.368075,41.681937],[-0.36626,41.679914],[-0.367605,41.677855],[-0.364954,41.663628],[-0.365918,41.659741],[-0.362796,41.64825],[-0.360762,41.645123],[-0.362309,41.637818],[-0.355558,41.63234],[-0.353211,41.633367],[-0.346349,41.63093],[-0.336213,41.630146],[-0.327166,41.624262],[-0.321199,41.624303],[-0.312589,41.624102],[-0.30702,41.620927],[-0.308438,41.619718],[-0.30527,41.616248],[-0.305951,41.613733],[-0.302305,41.60792],[-0.295643,41.604233],[-0.288481,41.598192],[-0.286301,41.598393],[-0.283465,41.595363],[-0.279195,41.595036],[-0.273936,41.590589],[-0.263179,41.588496],[-0.245969,41.573738],[-0.241642,41.572535],[-0.236788,41.573859],[-0.23595,41.577217],[-0.227805,41.586468],[-0.209504,41.600578],[-0.205735,41.602261],[-0.182125,41.598055],[-0.156445,41.589974],[-0.159456,41.58532],[-0.167354,41.581111],[-0.161083,41.572833],[-0.157477,41.568376],[-0.157527,41.558227],[-0.159657,41.55121],[-0.155905,41.540247],[-0.156662,41.535295],[-0.148539,41.531401],[-0.134794,41.522386],[-0.120706,41.502554],[-0.111176,41.493525],[-0.104971,41.485479],[-0.088543,41.439377],[-0.084459,41.431438],[-0.084044,41.415325],[-0.077979,41.399842],[-0.074134,41.393819],[-0.074434,41.386081],[-0.072249,41.381477],[-0.072706,41.377157],[-0.070001,41.372963],[-0.054014,41.366647],[-0.051108,41.36641],[-0.04944,41.36046],[-0.033389,41.358038],[-0.007932,41.347805],[-0.009157,41.3508],[-0.017896,41.359646],[-0.018712,41.363495],[-0.029285,41.377818],[-0.027973,41.383512],[-0.024102,41.38633],[-0.025121,41.387842],[-0.023699,41.388859],[-0.024135,41.391104],[-0.025728,41.3921],[-0.02415,41.392617],[-0.023862,41.396782],[-0.00263,41.387916],[0.004717,41.374008],[0.006613,41.372859],[0.005646,41.371074],[0.007338,41.369391],[0.005981,41.368238],[0.008622,41.365611],[0.008247,41.36318],[0.010045,41.360431],[0.012446,41.360041],[0.017232,41.360765],[0.020372,41.359125],[0.037109,41.355064],[0.04339,41.355717],[0.077595,41.352852],[0.079658,41.355787],[0.080649,41.352473],[0.087262,41.350522],[0.093713,41.34997],[0.10135,41.351687],[0.106351,41.350871],[0.118263,41.362762],[0.117993,41.368623],[0.121611,41.379269],[0.131304,41.388885],[0.146203,41.394809],[0.156895,41.39729],[0.164892,41.406787],[0.168854,41.40684],[0.171634,41.405466],[0.174059,41.402715],[0.176224,41.396325],[0.182995,41.394408],[0.18948,41.396164],[0.193682,41.400154],[0.199591,41.403331],[0.206335,41.404269],[0.219447,41.403569],[0.220859,41.406735],[0.219604,41.407716],[0.221568,41.408742],[0.221281,41.409957],[0.225249,41.414474],[0.230613,41.417448],[0.234915,41.424568],[0.240038,41.427972],[0.2441,41.428803],[0.245123,41.428734],[0.309227,41.418839],[0.316619,41.416923],[0.335316,41.408223],[0.322451,41.397806],[0.32034,41.394861],[0.332609,41.386184],[0.360309,41.370508],[0.363022,41.364926],[0.37326,41.353477],[0.374082,41.3504],[0.372521,41.350265],[0.372603,41.346994],[0.367322,41.343781],[0.367076,41.34178],[0.364438,41.342532],[0.359545,41.341973],[0.348869,41.329767],[0.351527,41.325223],[0.364332,41.321462],[0.368665,41.318625],[0.370494,41.311457],[0.368933,41.307126],[0.365648,41.303972],[0.37678,41.287948],[0.386016,41.278842],[0.378892,41.267353],[0.377117,41.261633],[0.378913,41.256429],[0.378203,41.253784],[0.376751,41.250846],[0.37406,41.249349],[0.374477,41.244924],[0.377769,41.241441],[0.379115,41.237466],[0.381662,41.236427],[0.380962,41.236243],[0.364956,41.238673],[0.363727,41.236116],[0.364534,41.227672],[0.361214,41.225517],[0.350594,41.227061],[0.340658,41.23106],[0.3387,41.230325],[0.33608,41.225961],[0.331633,41.222722],[0.326976,41.222938],[0.322405,41.225241],[0.319181,41.2211],[0.3172,41.212827],[0.317931,41.210302],[0.314406,41.205442],[0.312875,41.19639],[0.309831,41.193947],[0.308594,41.187147],[0.30629,41.185673],[0.305271,41.171834],[0.300852,41.166908],[0.303668,41.164378],[0.292338,41.156354],[0.273362,41.148808],[0.25334,41.150152],[0.252991,41.150153],[0.255983,41.146799],[0.254809,41.144995],[0.256151,41.143705],[0.250524,41.138334],[0.252013,41.134483],[0.248229,41.13014],[0.237308,41.130431],[0.214298,41.137299],[0.213256,41.136444],[0.21972,41.134401],[0.220182,41.132423],[0.204273,41.128356],[0.201575,41.126773],[0.201276,41.12455],[0.209324,41.116912],[0.205684,41.110386],[0.206738,41.109554],[0.201259,41.102654],[0.201552,41.084678],[0.208328,41.08279],[0.215969,41.084243],[0.220427,41.082911],[0.220079,41.079208],[0.217138,41.077714],[0.218565,41.075243],[0.220981,41.073069],[0.220699,41.071429],[0.218248,41.072011],[0.196905,41.067968],[0.193928,41.069167],[0.18214,41.069025],[0.174714,41.070743],[0.168034,41.070918],[0.145856,41.063043],[0.145214,41.065294],[0.142276,41.065824],[0.126767,41.071759],[0.116989,41.077139],[0.093229,41.080104],[0.078635,41.080342],[0.072451,41.079427],[0.060796,41.076819],[0.057536,41.075051],[0.054671,41.068435],[0.055702,41.066291],[0.051015,41.059129],[0.051827,41.054821],[0.049614,41.053024],[0.046161,41.053223],[0.041027,41.048181],[0.036919,41.046569],[0.026135,41.061479],[0.024695,41.065363],[0.018995,41.068223],[0.013124,41.074655],[0.011357,41.078952],[-0.000655,41.090406],[-0.007929,41.102178],[-0.012229,41.120249],[-0.025786,41.128084],[-0.038273,41.129045],[-0.043341,41.133958],[-0.053292,41.138644],[-0.070948,41.143706],[-0.078436,41.150552],[-0.083742,41.151272],[-0.094997,41.148981],[-0.1035,41.149619],[-0.1224,41.156641],[-0.132603,41.161498],[-0.150475,41.174244],[-0.180953,41.188144],[-0.19104,41.189312],[-0.205468,41.192011],[-0.216533,41.190308],[-0.216533,41.190307],[-0.222472,41.188856],[-0.225285,41.190005],[-0.230867,41.194472],[-0.243161,41.209789],[-0.246411,41.211921],[-0.268669,41.21501],[-0.272626,41.217975],[-0.278617,41.226799],[-0.313308,41.255633],[-0.318084,41.257611],[-0.323753,41.255283],[-0.32456,41.253644],[-0.322531,41.249842],[-0.323076,41.24556],[-0.330555,41.244453],[-0.337208,41.241385],[-0.339132,41.242175],[-0.339969,41.244212],[-0.358076,41.252969],[-0.37233,41.262997],[-0.377937,41.265457],[-0.381632,41.264677],[-0.385851,41.265439],[-0.398139,41.269519],[-0.400943,41.270762],[-0.405858,41.272359],[-0.41131,41.279084],[-0.419939,41.284934],[-0.42875,41.294066],[-0.425725,41.297799],[-0.426983,41.302871],[-0.424722,41.30509],[-0.426595,41.308473],[-0.423546,41.309171],[-0.420757,41.311738],[-0.424228,41.312176],[-0.42427,41.313528],[-0.443344,41.313008],[-0.456507,41.317038],[-0.45926,41.318432],[-0.459773,41.315993],[-0.470163,41.318249],[-0.474716,41.324077],[-0.477071,41.329308],[-0.479931,41.345934],[-0.492975,41.351108],[-0.50143,41.35304],[-0.502991,41.353319],[-0.502446,41.354118],[-0.50647,41.354222],[-0.50745,41.353298],[-0.510147,41.35406],[-0.521447,41.350465],[-0.522543,41.348372],[-0.530244,41.349197],[-0.535754,41.347927],[-0.539112,41.349224],[-0.543412,41.348967],[-0.545013,41.347396],[-0.546053,41.348049],[-0.546254,41.346821],[-0.550666,41.345499],[-0.553594,41.347092],[-0.558918,41.354304],[-0.56773,41.353914],[-0.581787,41.348123],[-0.581787,41.348121],[-0.58236,41.323897],[-0.578605,41.315595],[-0.566106,41.303487],[-0.552481,41.30309],[-0.544847,41.300594],[-0.54479,41.298927],[-0.535143,41.294722],[-0.527149,41.288218],[-0.508154,41.255816],[-0.506181,41.250253],[-0.506804,41.247069],[-0.509691,41.238278],[-0.514137,41.234627],[-0.531575,41.227806],[-0.538897,41.239015],[-0.542261,41.247003],[-0.54849,41.267744],[-0.574941,41.295199],[-0.605261,41.323314],[-0.605517,41.32221],[-0.62972,41.31176],[-0.631967,41.301801],[-0.629819,41.286248],[-0.627264,41.279997],[-0.627004,41.270355],[-0.628746,41.259816],[-0.625457,41.248175],[-0.642779,41.238362],[-0.651003,41.237964],[-0.663146,41.239408],[-0.668286,41.237407],[-0.668865,41.236264],[-0.660557,41.229683],[-0.639456,41.217633],[-0.628756,41.204434],[-0.622481,41.199216],[-0.612119,41.194282],[-0.611361,41.194815],[-0.609901,41.191677],[-0.621877,41.184288],[-0.624112,41.179858],[-0.630343,41.177644],[-0.640823,41.170969],[-0.646513,41.163196],[-0.665003,41.145955],[-0.668462,41.138135],[-0.670808,41.136804],[-0.672092,41.134182],[-0.67137,41.131024],[-0.675882,41.125378],[-0.680367,41.120803],[-0.693969,41.112295],[-0.696598,41.115436],[-0.704922,41.119557],[-0.708171,41.119648],[-0.715536,41.124668],[-0.713799,41.126318],[-0.715626,41.126885],[-0.71887,41.131588],[-0.72239,41.133495],[-0.722303,41.137718],[-0.72582,41.138004],[-0.727748,41.143905],[-0.731371,41.14494],[-0.734636,41.146644],[-0.735997,41.150733],[-0.73812,41.151018],[-0.745378,41.15724],[-0.746497,41.16182],[-0.749091,41.162978],[-0.750711,41.165433],[-0.761414,41.169659],[-0.76499,41.164045],[-0.764996,41.158614],[-0.769143,41.155451],[-0.776356,41.152556],[-0.780857,41.146995],[-0.781691,41.143823],[-0.779505,41.137989],[-0.783442,41.137461],[-0.784852,41.136273],[-0.782399,41.126002],[-0.783855,41.123427],[-0.783436,41.118204],[-0.791581,41.111506],[-0.78851,41.107907],[-0.799001,41.10329],[-0.808576,41.101473],[-0.81143,41.102302],[-0.811767,41.100768],[-0.817844,41.100253],[-0.828533,41.09642],[-0.859887,41.108013],[-0.871355,41.116504],[-0.871191,41.119365],[-0.876788,41.12199],[-0.883661,41.130115],[-0.883444,41.13538],[-0.886081,41.140833],[-0.883264,41.148762],[-0.885481,41.147244],[-0.889555,41.147283],[-0.891495,41.145148],[-0.893616,41.132496],[-0.890422,41.127681],[-0.890548,41.12563],[-0.8934,41.122485],[-0.89732,41.12171],[-0.900486,41.119173],[-0.901684,41.111854],[-0.915306,41.105157],[-0.912547,41.09301],[-0.937719,41.08343],[-0.944936,41.075317],[-0.957259,41.076347],[-0.960694,41.078056],[-0.963763,41.082749],[-0.981807,41.092164],[-0.989589,41.091139],[-0.995046,41.092567],[-0.998597,41.095232],[-1.000577,41.114704],[-0.992143,41.124141],[-0.991324,41.128351],[-0.986629,41.133457],[-0.984264,41.139081],[-0.972419,41.153456],[-0.980719,41.145117],[-0.985789,41.143756],[-1.000861,41.134011],[-1.012516,41.134673],[-1.026289,41.138215],[-1.034705,41.137269],[-1.039309,41.134718],[-1.044512,41.140832],[-1.059845,41.150981],[-1.086203,41.164132],[-1.093272,41.162457],[-1.096423,41.162734],[-1.100501,41.163918],[-1.105004,41.167704],[-1.108631,41.164683],[-1.11706,41.15548],[-1.117645,41.150851],[-1.113122,41.142761],[-1.121265,41.138859],[-1.121603,41.134928],[-1.156331,41.129031],[-1.154759,41.127709],[-1.166923,41.126408],[-1.173991,41.123692],[-1.177015,41.128054],[-1.192458,41.12701],[-1.199882,41.130828],[-1.209982,41.138804],[-1.215284,41.137517],[-1.22712,41.130224],[-1.23935,41.126836],[-1.249318,41.125618],[-1.2547,41.122575],[-1.267024,41.10552],[-1.27137,41.10328],[-1.270808,41.101092],[-1.256852,41.086703],[-1.253303,41.077327],[-1.263802,41.061488],[-1.270928,41.054777],[-1.2815,41.055926],[-1.287431,41.048862],[-1.292548,41.047938],[-1.296695,41.051819],[-1.299072,41.052376],[-1.303442,41.05227],[-1.310371,41.049822],[-1.319105,41.049797],[-1.322103,41.051192],[-1.322867,41.053905],[-1.324752,41.05514],[-1.329108,41.054645],[-1.334448,41.051443],[-1.339607,41.05449],[-1.339279,41.056629],[-1.341965,41.058686],[-1.343359,41.058606],[-1.345113,41.056056],[-1.354168,41.057527],[-1.355507,41.05869],[-1.353142,41.062368],[-1.356892,41.06379],[-1.35757,41.065683],[-1.355317,41.069659],[-1.360125,41.071592],[-1.359592,41.077701],[-1.3579,41.08019],[-1.352351,41.081669],[-1.355363,41.085477],[-1.355799,41.088528],[-1.360719,41.087931],[-1.371878,41.077172],[-1.378145,41.073072],[-1.382265,41.07204],[-1.389721,41.067956],[-1.397315,41.065945],[-1.405221,41.066307],[-1.410018,41.057906],[-1.404827,41.050629],[-1.416795,41.043768],[-1.413055,41.040978],[-1.41115,41.035097],[-1.414806,41.032463],[-1.422307,41.027161],[-1.433667,41.025659],[-1.440042,41.026169],[-1.457935,41.018357],[-1.476401,41.014936],[-1.471677,41.010415],[-1.470676,41.009474],[-1.464566,41.01041],[-1.459347,41.006765],[-1.447538,40.988104],[-1.446918,40.976539],[-1.456675,40.970446],[-1.47145,40.958004],[-1.472993,40.948801],[-1.505342,40.964124],[-1.508071,40.960646],[-1.515216,40.954649],[-1.524574,40.952211],[-1.557932,40.939329],[-1.562867,40.938552],[-1.571884,40.939601],[-1.575956,40.93858],[-1.583573,40.941826],[-1.589561,40.936216],[-1.617449,40.943733],[-1.632085,40.950627],[-1.654084,40.969001],[-1.657059,40.969405],[-1.661014,40.978324],[-1.666413,40.981729],[-1.674783,40.984032],[-1.679218,40.989326],[-1.691849,40.995631],[-1.714773,41.012076],[-1.72461,41.021202],[-1.729825,41.024016],[-1.733182,41.028224],[-1.737691,41.0313],[-1.745398,41.032591],[-1.747134,41.033898],[-1.748612,41.041256],[-1.75938,41.0482],[-1.75932,41.05201],[-1.756944,41.052462],[-1.757967,41.053103],[-1.757751,41.055074],[-1.762158,41.058661],[-1.771186,41.066568],[-1.785343,41.072771]],[[-1.118281,42.461526],[-1.120889,42.460542],[-1.125578,42.455864],[-1.129365,42.446722],[-1.125106,42.445176],[-1.116294,42.445076],[-1.108017,42.44132],[-1.093376,42.440176],[-1.083414,42.437128],[-1.08053,42.438413],[-1.07394,42.437239],[-1.067809,42.434596],[-1.064531,42.436027],[-1.061639,42.434402],[-1.057666,42.433939],[-1.052862,42.437918],[-1.051014,42.441462],[-1.054361,42.448805],[-1.056515,42.448337],[-1.06247,42.45283],[-1.065788,42.453788],[-1.067623,42.459977],[-1.069777,42.461595],[-1.069555,42.46648],[-1.07534,42.468125],[-1.087474,42.474695],[-1.088339,42.475862],[-1.085141,42.483364],[-1.091664,42.485733],[-1.096228,42.485665],[-1.102851,42.484334],[-1.102082,42.4828],[-1.10695,42.478314],[-1.118281,42.461526]],[[-1.184406,42.401022],[-1.174386,42.403799],[-1.171581,42.406654],[-1.158359,42.410017],[-1.154339,42.414464],[-1.152427,42.423286],[-1.152965,42.428158],[-1.151679,42.428479],[-1.151172,42.431677],[-1.144841,42.436924],[-1.144941,42.44118],[-1.144975,42.44187],[-1.147578,42.441003],[-1.149413,42.441852],[-1.154032,42.441485],[-1.161434,42.433265],[-1.162956,42.432344],[-1.166611,42.432511],[-1.182822,42.423898],[-1.182743,42.421169],[-1.180429,42.417521],[-1.187973,42.404582],[-1.187799,42.40303],[-1.184406,42.401022]]]]}}
]
}
