{
"type": "FeatureCollection",
"name": "cod_prov_06",
"crs": { "type": "name", "properties": { "name": "urn:ogc:def:crs:OGC:1.3:CRS84" } },
"xy_coordinate_resolution": 1e-15,
"features": [
{"type":"Feature","properties":{"fid":42,"cod_ccaa":"11","provincia":"Badajoz","cod_prov":"06"},"geometry":{"type":"MultiPolygon","coordinates":[[[[-6.649297,38.090022],[-6.651516,38.0927],[-6.65012,38.095329],[-6.653027,38.096482],[-6.658711,38.09526],[-6.658913,38.092902],[-6.660368,38.092371],[-6.666378,38.094255],[-6.672501,38.094289],[-6.673568,38.095805],[-6.676797,38.095397],[-6.680022,38.097431],[-6.681935,38.096471],[-6.686025,38.097576],[-6.688667,38.100232],[-6.689956,38.100029],[-6.690611,38.096045],[-6.692608,38.09473],[-6.705901,38.096581],[-6.711335,38.09495],[-6.715458,38.092622],[-6.716968,38.099925],[-6.71975,38.10062],[-6.724168,38.096913],[-6.726864,38.097485],[-6.727125,38.099711],[-6.729395,38.099504],[-6.735164,38.093942],[-6.73046,38.092443],[-6.731991,38.090053],[-6.742245,38.093311],[-6.747678,38.091463],[-6.754494,38.09501],[-6.758217,38.092711],[-6.761024,38.097873],[-6.770088,38.099456],[-6.764574,38.102407],[-6.764929,38.105999],[-6.771363,38.103189],[-6.773639,38.104665],[-6.769623,38.11037],[-6.770055,38.112113],[-6.774859,38.112643],[-6.78035,38.109017],[-6.783339,38.11192],[-6.789159,38.109174],[-6.796877,38.110474],[-6.797828,38.113875],[-6.799951,38.114797],[-6.80782,38.11111],[-6.812636,38.115143],[-6.816124,38.120155],[-6.813373,38.123829],[-6.809139,38.134704],[-6.79954,38.143798],[-6.798903,38.155241],[-6.79426,38.159868],[-6.792862,38.166336],[-6.79287,38.173316],[-6.795411,38.178535],[-6.806045,38.178653],[-6.812404,38.175879],[-6.822692,38.173814],[-6.848751,38.177232],[-6.860116,38.18045],[-6.883623,38.193528],[-6.892785,38.195405],[-6.894744,38.198107],[-6.898741,38.198566],[-6.902806,38.201802],[-6.913815,38.199768],[-6.918198,38.201261],[-6.922768,38.200279],[-6.9254,38.201884],[-6.924157,38.205097],[-6.925091,38.205271],[-6.927226,38.204436],[-6.931732,38.208032],[-6.933395,38.208534],[-6.93566,38.206729],[-6.938696,38.207555],[-6.936443,38.220394],[-6.942427,38.21831],[-6.946761,38.211877],[-6.950017,38.212344],[-6.947754,38.217365],[-6.956524,38.21698],[-6.972168,38.202354],[-6.977371,38.20588],[-6.98057,38.211149],[-6.983542,38.211228],[-6.995682,38.203798],[-7.002324,38.203157],[-7.005377,38.204702],[-7.011532,38.204545],[-7.012319,38.203293],[-7.010496,38.201059],[-7.010397,38.196351],[-7.012349,38.195528],[-7.016897,38.197291],[-7.01772,38.191498],[-7.021833,38.188051],[-7.022898,38.185439],[-7.028894,38.18263],[-7.039277,38.186722],[-7.043562,38.18725],[-7.04574,38.185255],[-7.046433,38.182471],[-7.049083,38.180254],[-7.056416,38.180172],[-7.059143,38.177708],[-7.05949,38.180263],[-7.055202,38.183177],[-7.056596,38.185876],[-7.066391,38.186572],[-7.065234,38.182794],[-7.066079,38.179315],[-7.068069,38.177768],[-7.073797,38.176948],[-7.077933,38.174994],[-7.085041,38.16927],[-7.089277,38.178508],[-7.096985,38.179022],[-7.099558,38.180554],[-7.102896,38.186958],[-7.107865,38.188063],[-7.107455,38.192734],[-7.10992,38.193557],[-7.111001,38.199374],[-7.113695,38.203233],[-7.113264,38.206725],[-7.115496,38.206431],[-7.117205,38.208586],[-7.117355,38.213877],[-7.122277,38.218361],[-7.129071,38.228659],[-7.139726,38.236137],[-7.142873,38.240475],[-7.143459,38.248975],[-7.144906,38.251122],[-7.14272,38.255468],[-7.145177,38.258092],[-7.143211,38.26189],[-7.145034,38.263411],[-7.147244,38.262694],[-7.146157,38.265488],[-7.148763,38.268512],[-7.147006,38.268953],[-7.147431,38.269802],[-7.15014,38.270022],[-7.150268,38.268252],[-7.152782,38.267667],[-7.153356,38.270727],[-7.151841,38.272204],[-7.153372,38.273402],[-7.150558,38.275744],[-7.155454,38.276057],[-7.155232,38.278568],[-7.158961,38.279436],[-7.161578,38.279402],[-7.164901,38.281355],[-7.168313,38.27909],[-7.169935,38.279267],[-7.168609,38.284448],[-7.172069,38.285405],[-7.182893,38.29598],[-7.198228,38.31911],[-7.202089,38.328554],[-7.214163,38.34018],[-7.220119,38.343099],[-7.231763,38.355892],[-7.246187,38.367627],[-7.255981,38.379358],[-7.268146,38.391064],[-7.274411,38.400274],[-7.280727,38.414957],[-7.28085,38.420339],[-7.284008,38.419151],[-7.28402,38.421664],[-7.285856,38.423677],[-7.288433,38.422916],[-7.28986,38.424971],[-7.292407,38.423914],[-7.294072,38.426113],[-7.291957,38.427515],[-7.294502,38.428349],[-7.295275,38.426132],[-7.300002,38.425337],[-7.301004,38.429101],[-7.303868,38.432013],[-7.307359,38.43083],[-7.308242,38.433157],[-7.311269,38.434379],[-7.311515,38.436027],[-7.315263,38.435312],[-7.314505,38.43643],[-7.316871,38.439801],[-7.320921,38.438976],[-7.322493,38.440179],[-7.328524,38.438785],[-7.329536,38.436361],[-7.330633,38.437851],[-7.334431,38.43454],[-7.336264,38.434932],[-7.33142,38.443928],[-7.323467,38.445745],[-7.315592,38.449278],[-7.313339,38.454702],[-7.314461,38.460649],[-7.308282,38.461913],[-7.301709,38.465802],[-7.298001,38.473369],[-7.295814,38.478403],[-7.297885,38.482406],[-7.300305,38.483596],[-7.308175,38.481442],[-7.313848,38.474758],[-7.317849,38.47479],[-7.322757,38.477545],[-7.320279,38.488993],[-7.315915,38.495738],[-7.314441,38.513264],[-7.311102,38.516165],[-7.305493,38.521299],[-7.302071,38.527161],[-7.301555,38.532161],[-7.303432,38.544016],[-7.290502,38.556821],[-7.286669,38.564887],[-7.286027,38.573755],[-7.282528,38.57627],[-7.276584,38.575677],[-7.2742,38.576683],[-7.268675,38.5849],[-7.263743,38.588412],[-7.263822,38.592075],[-7.261797,38.595228],[-7.25973,38.606414],[-7.255023,38.615511],[-7.24617,38.62112],[-7.244324,38.624267],[-7.245528,38.62715],[-7.250023,38.629004],[-7.259777,38.627559],[-7.265311,38.628519],[-7.26806,38.632273],[-7.27002,38.638785],[-7.267066,38.65632],[-7.268356,38.669332],[-7.264423,38.68375],[-7.267121,38.690082],[-7.264692,38.703725],[-7.261867,38.708593],[-7.253485,38.717662],[-7.25563,38.725887],[-7.241809,38.735181],[-7.239482,38.736274],[-7.225595,38.737516],[-7.217985,38.743204],[-7.203707,38.750537],[-7.19928,38.756037],[-7.194985,38.765378],[-7.191727,38.768485],[-7.164882,38.778255],[-7.158354,38.784559],[-7.155122,38.793853],[-7.128877,38.81384],[-7.116091,38.816905],[-7.102748,38.817698],[-7.095268,38.815342],[-7.089495,38.818865],[-7.085489,38.824296],[-7.08232,38.833511],[-7.07512,38.846561],[-7.068647,38.853811],[-7.064609,38.855114],[-7.060978,38.858104],[-7.054066,38.857687],[-7.048335,38.861641],[-7.046496,38.864741],[-7.043377,38.863383],[-7.039665,38.864771],[-7.039494,38.870706],[-7.033417,38.877524],[-7.033465,38.879173],[-7.035862,38.883656],[-7.039016,38.882988],[-7.040492,38.88381],[-7.039135,38.891379],[-7.042515,38.899144],[-7.045403,38.902102],[-7.0484,38.902918],[-7.052365,38.907156],[-7.041772,38.914489],[-7.034011,38.918296],[-7.027252,38.923953],[-7.020766,38.940143],[-7.013036,38.949904],[-6.998866,38.963317],[-6.992026,38.972764],[-6.983751,38.980757],[-6.981593,38.985693],[-6.971912,38.998085],[-6.964384,39.012284],[-6.951645,39.023995],[-6.968211,39.039814],[-6.965781,39.0424],[-6.959645,39.054732],[-6.962746,39.06103],[-6.969644,39.06764],[-6.970846,39.072787],[-6.977712,39.080839],[-6.981869,39.088379],[-6.99662,39.099502],[-7.005619,39.102462],[-7.015626,39.109313],[-7.030206,39.116456],[-7.039427,39.118379],[-7.053297,39.117915],[-7.05612,39.11552],[-7.065001,39.112949],[-7.068045,39.11341],[-7.080639,39.108872],[-7.10054,39.104993],[-7.106128,39.099311],[-7.144137,39.109249],[-7.147966,39.115003],[-7.149846,39.122402],[-7.143857,39.127713],[-7.144334,39.130533],[-7.142384,39.133746],[-7.141854,39.139492],[-7.137712,39.141828],[-7.136433,39.14508],[-7.137113,39.147605],[-7.140645,39.150424],[-7.137272,39.153858],[-7.135145,39.159797],[-7.133574,39.16042],[-7.134846,39.162987],[-7.132471,39.164701],[-7.134073,39.169328],[-7.136612,39.172174],[-7.149686,39.172564],[-7.150966,39.174643],[-7.156317,39.175326],[-7.164566,39.180408],[-7.168,39.181329],[-7.171308,39.180699],[-7.178376,39.180867],[-7.187989,39.182961],[-7.195638,39.187425],[-7.200497,39.185662],[-7.208442,39.187311],[-7.216673,39.191806],[-7.22107,39.192556],[-7.23144,39.203338],[-7.241685,39.20854],[-7.240447,39.217771],[-7.245516,39.22579],[-7.244979,39.23206],[-7.24216,39.23428],[-7.242383,39.242574],[-7.246046,39.245691],[-7.24821,39.25352],[-7.2386,39.269333],[-7.231396,39.278363],[-7.20419,39.265693],[-7.195514,39.27404],[-7.194456,39.277869],[-7.190209,39.283795],[-7.180032,39.292709],[-7.172546,39.296814],[-7.170083,39.305891],[-7.161678,39.312127],[-7.155531,39.314445],[-7.155855,39.317361],[-7.152364,39.322241],[-7.154596,39.324881],[-7.155749,39.329658],[-7.160522,39.33055],[-7.162858,39.327521],[-7.166193,39.326069],[-7.168844,39.320147],[-7.174924,39.326845],[-7.177057,39.327417],[-7.178139,39.330782],[-7.176948,39.333761],[-7.177512,39.337568],[-7.165702,39.350583],[-7.16194,39.356571],[-7.161799,39.360827],[-7.159619,39.363589],[-7.141702,39.374901],[-7.137554,39.376778],[-7.134115,39.374748],[-7.126541,39.380899],[-7.119206,39.383654],[-7.105206,39.385959],[-7.099536,39.385259],[-7.093527,39.379959],[-7.08845,39.380453],[-7.080479,39.379292],[-7.074208,39.381215],[-7.07054,39.374219],[-7.063302,39.372266],[-7.06967,39.366639],[-7.079457,39.351409],[-7.098921,39.359118],[-7.103376,39.354557],[-7.1021,39.346046],[-7.095175,39.342264],[-7.087073,39.339577],[-7.083185,39.335562],[-7.084599,39.323003],[-7.081688,39.313234],[-7.077498,39.310175],[-7.050716,39.321595],[-7.044241,39.326799],[-7.048791,39.329366],[-7.048022,39.333508],[-7.030011,39.350859],[-7.029375,39.359149],[-7.032613,39.367638],[-7.029892,39.369344],[-7.021372,39.371315],[-7.018251,39.378592],[-7.019333,39.382472],[-7.009267,39.388485],[-7.018369,39.392358],[-7.039825,39.397081],[-7.049694,39.401943],[-7.067025,39.414297],[-7.06342,39.417197],[-7.049385,39.436673],[-7.032447,39.430583],[-7.029589,39.431759],[-6.995381,39.424565],[-6.994125,39.422501],[-6.989439,39.419753],[-6.982591,39.419385],[-6.980675,39.41429],[-6.977763,39.412498],[-6.963107,39.407937],[-6.935814,39.396842],[-6.923986,39.394585],[-6.919415,39.392145],[-6.910574,39.390759],[-6.908434,39.389012],[-6.897038,39.389467],[-6.892729,39.38817],[-6.883558,39.382755],[-6.87166,39.382521],[-6.868353,39.383379],[-6.866359,39.385931],[-6.857738,39.388713],[-6.847201,39.387495],[-6.843746,39.388411],[-6.83076,39.388453],[-6.811344,39.391478],[-6.806668,39.390659],[-6.802403,39.389492],[-6.801771,39.383641],[-6.799502,39.381814],[-6.79131,39.368355],[-6.79524,39.361661],[-6.795264,39.352041],[-6.796817,39.350936],[-6.797339,39.344506],[-6.778164,39.335476],[-6.775835,39.331643],[-6.771658,39.328806],[-6.749089,39.325753],[-6.747078,39.321747],[-6.748228,39.318747],[-6.747524,39.31577],[-6.750729,39.312406],[-6.751673,39.303594],[-6.755447,39.296347],[-6.761507,39.276606],[-6.769724,39.267981],[-6.779282,39.265374],[-6.780341,39.260512],[-6.784648,39.252923],[-6.793116,39.247558],[-6.80119,39.239414],[-6.801181,39.23111],[-6.797227,39.226294],[-6.798229,39.219965],[-6.793265,39.211859],[-6.788128,39.209135],[-6.784585,39.20073],[-6.767834,39.188367],[-6.76168,39.188448],[-6.753565,39.193845],[-6.750971,39.194036],[-6.738508,39.18952],[-6.73301,39.189741],[-6.708741,39.184951],[-6.690432,39.178535],[-6.681332,39.177147],[-6.670061,39.190042],[-6.665859,39.19203],[-6.660067,39.199066],[-6.656092,39.198543],[-6.646463,39.19345],[-6.633697,39.19684],[-6.627267,39.194041],[-6.627111,39.191893],[-6.620672,39.192057],[-6.615108,39.188745],[-6.606193,39.188012],[-6.581229,39.180307],[-6.579551,39.178954],[-6.583653,39.175414],[-6.584731,39.171111],[-6.578514,39.170366],[-6.574432,39.16769],[-6.574584,39.158355],[-6.55262,39.157349],[-6.539003,39.15527],[-6.536355,39.163384],[-6.536318,39.176016],[-6.54068,39.181689],[-6.491455,39.16792],[-6.469689,39.173328],[-6.467549,39.172643],[-6.457786,39.174052],[-6.451792,39.174545],[-6.445152,39.173418],[-6.438686,39.175843],[-6.433031,39.17474],[-6.418576,39.166851],[-6.406071,39.165011],[-6.40224,39.164501],[-6.39902,39.165626],[-6.397352,39.166651],[-6.379429,39.162768],[-6.375992,39.163202],[-6.371307,39.162987],[-6.365487,39.166866],[-6.353197,39.179003],[-6.347826,39.180212],[-6.341679,39.183839],[-6.332443,39.186058],[-6.324419,39.186504],[-6.319611,39.184506],[-6.319447,39.18421],[-6.319754,39.176169],[-6.321512,39.171723],[-6.319894,39.168563],[-6.31636,39.166258],[-6.315515,39.161319],[-6.309438,39.155853],[-6.310263,39.153199],[-6.307777,39.148783],[-6.308242,39.139447],[-6.312496,39.132114],[-6.310007,39.122919],[-6.312982,39.11607],[-6.312266,39.112144],[-6.300111,39.104167],[-6.295691,39.098139],[-6.286495,39.098022],[-6.280049,39.095878],[-6.269004,39.095251],[-6.260317,39.09237],[-6.24407,39.091498],[-6.240989,39.090351],[-6.240811,39.091265],[-6.237952,39.091184],[-6.231184,39.089795],[-6.225477,39.084791],[-6.215911,39.068599],[-6.203473,39.056499],[-6.18477,39.057068],[-6.168215,39.058916],[-6.154227,39.053555],[-6.152038,39.051101],[-6.153072,39.047334],[-6.150456,39.0441],[-6.146626,39.042402],[-6.142427,39.031579],[-6.136798,39.034109],[-6.131469,39.039504],[-6.125245,39.050027],[-6.113023,39.061078],[-6.105769,39.065344],[-6.098837,39.075149],[-6.089971,39.084637],[-6.083839,39.088484],[-6.078981,39.093729],[-6.067532,39.100544],[-6.062616,39.102097],[-6.046406,39.113612],[-6.038823,39.117701],[-6.031631,39.119898],[-6.020034,39.128586],[-6.016261,39.129344],[-6.015148,39.129298],[-6.016244,39.116109],[-6.013981,39.107789],[-6.016413,39.101907],[-6.0157,39.094944],[-6.012654,39.089122],[-6.012211,39.072188],[-6.010317,39.067327],[-6.011613,39.063276],[-6.007753,39.059736],[-6.010512,39.055863],[-6.009749,39.052595],[-6.006377,39.056438],[-5.990191,39.067963],[-5.986827,39.069589],[-5.981689,39.068865],[-5.979048,39.073392],[-5.973981,39.076035],[-5.968406,39.082267],[-5.966595,39.087583],[-5.96164,39.090169],[-5.959518,39.095276],[-5.954316,39.097489],[-5.954088,39.099234],[-5.950404,39.10266],[-5.947229,39.102471],[-5.942289,39.108514],[-5.937913,39.10894],[-5.926877,39.104912],[-5.924662,39.098039],[-5.926412,39.092833],[-5.937643,39.083786],[-5.924695,39.083183],[-5.89645,39.095159],[-5.871291,39.104493],[-5.854349,39.106405],[-5.847678,39.109604],[-5.834021,39.110144],[-5.816434,39.11975],[-5.818951,39.122554],[-5.819254,39.129862],[-5.818118,39.133277],[-5.815147,39.134772],[-5.814978,39.13838],[-5.811815,39.140862],[-5.810367,39.144581],[-5.772986,39.13691],[-5.767906,39.136859],[-5.755177,39.132296],[-5.75355,39.129722],[-5.735237,39.118604],[-5.730098,39.113937],[-5.726604,39.112157],[-5.722866,39.10727],[-5.717396,39.103958],[-5.701632,39.08991],[-5.690087,39.083006],[-5.685369,39.081755],[-5.672167,39.081182],[-5.670624,39.080957],[-5.666266,39.084607],[-5.6642,39.088402],[-5.65928,39.090974],[-5.651033,39.099198],[-5.645936,39.102323],[-5.637608,39.100088],[-5.610094,39.099239],[-5.608447,39.100357],[-5.603819,39.100596],[-5.602086,39.104734],[-5.598609,39.107956],[-5.592157,39.10828],[-5.583623,39.118109],[-5.595234,39.126284],[-5.601967,39.128503],[-5.601119,39.133747],[-5.592051,39.134742],[-5.588235,39.137629],[-5.582786,39.139498],[-5.579447,39.143121],[-5.576561,39.150906],[-5.587353,39.158072],[-5.593742,39.166606],[-5.605195,39.175261],[-5.613244,39.188216],[-5.609268,39.190251],[-5.605278,39.190692],[-5.589736,39.200939],[-5.586653,39.199909],[-5.580384,39.201336],[-5.578465,39.202397],[-5.570481,39.204771],[-5.564197,39.210577],[-5.556681,39.208679],[-5.551848,39.213019],[-5.551013,39.215875],[-5.545449,39.208997],[-5.541395,39.206401],[-5.531751,39.193881],[-5.528145,39.191473],[-5.524316,39.201592],[-5.518536,39.204141],[-5.514578,39.209713],[-5.511394,39.198988],[-5.501106,39.188381],[-5.493558,39.182497],[-5.480545,39.178811],[-5.476311,39.17627],[-5.469609,39.16898],[-5.465142,39.160723],[-5.459841,39.158366],[-5.454375,39.160914],[-5.442406,39.15949],[-5.428601,39.162535],[-5.424048,39.160378],[-5.424587,39.158547],[-5.420417,39.158075],[-5.418084,39.156528],[-5.413807,39.156653],[-5.40928,39.160333],[-5.399464,39.165355],[-5.397755,39.168544],[-5.393,39.169272],[-5.384022,39.174186],[-5.376083,39.186592],[-5.367256,39.212962],[-5.353367,39.224316],[-5.350633,39.230912],[-5.347155,39.239163],[-5.346856,39.246196],[-5.347922,39.24931],[-5.352835,39.254148],[-5.35523,39.260271],[-5.354238,39.271832],[-5.352709,39.286062],[-5.340011,39.333311],[-5.330951,39.33124],[-5.323197,39.331422],[-5.3103,39.325201],[-5.303191,39.319594],[-5.283088,39.319522],[-5.263617,39.30991],[-5.24762,39.301823],[-5.229289,39.306996],[-5.185686,39.315994],[-5.175615,39.317003],[-5.171544,39.31552],[-5.165567,39.317262],[-5.150277,39.320969],[-5.123546,39.336497],[-5.116993,39.343482],[-5.111858,39.357513],[-5.110713,39.368454],[-5.113585,39.387466],[-5.101677,39.388015],[-5.093009,39.390892],[-5.08987,39.390363],[-5.087434,39.388506],[-5.073801,39.379397],[-5.055174,39.362582],[-5.050708,39.363076],[-5.041187,39.366532],[-5.019602,39.368287],[-5.015161,39.374499],[-5.012351,39.377314],[-5.007664,39.378233],[-4.992944,39.370873],[-4.984181,39.371743],[-4.97955,39.379156],[-4.969092,39.383343],[-4.974866,39.391723],[-4.974638,39.394331],[-4.963615,39.395455],[-4.952512,39.394993],[-4.949092,39.393104],[-4.943749,39.393455],[-4.940741,39.395118],[-4.934394,39.395719],[-4.932089,39.387937],[-4.921499,39.387464],[-4.915372,39.383781],[-4.910288,39.37871],[-4.905767,39.379803],[-4.903425,39.379057],[-4.903298,39.375672],[-4.902001,39.374504],[-4.896156,39.373842],[-4.887569,39.370531],[-4.882142,39.372889],[-4.878157,39.372323],[-4.870934,39.368313],[-4.868174,39.374971],[-4.865884,39.374422],[-4.86417,39.375882],[-4.863381,39.375002],[-4.860709,39.379739],[-4.856818,39.381009],[-4.855824,39.37897],[-4.853181,39.379112],[-4.849895,39.381732],[-4.845544,39.379206],[-4.832813,39.387822],[-4.832019,39.389412],[-4.821135,39.393268],[-4.816294,39.393316],[-4.810433,39.39657],[-4.805905,39.397496],[-4.795949,39.396876],[-4.788405,39.398866],[-4.774613,39.397194],[-4.764722,39.404219],[-4.761154,39.410112],[-4.755371,39.415713],[-4.743946,39.421498],[-4.741403,39.42387],[-4.737842,39.423635],[-4.716935,39.434631],[-4.712696,39.435693],[-4.706634,39.440576],[-4.69721,39.445804],[-4.690278,39.451789],[-4.687696,39.450294],[-4.686078,39.441029],[-4.68184,39.43681],[-4.677855,39.435354],[-4.677261,39.432398],[-4.67479,39.430605],[-4.673276,39.427077],[-4.669498,39.424536],[-4.672164,39.412641],[-4.674469,39.408941],[-4.682764,39.401325],[-4.687411,39.39368],[-4.687894,39.385789],[-4.693154,39.382406],[-4.695447,39.376426],[-4.694276,39.373596],[-4.704211,39.36445],[-4.710046,39.34575],[-4.705987,39.330583],[-4.70666,39.327726],[-4.713795,39.328666],[-4.734778,39.326643],[-4.761011,39.320789],[-4.754631,39.311488],[-4.731572,39.254917],[-4.733681,39.252543],[-4.713548,39.244317],[-4.714447,39.242205],[-4.710917,39.227102],[-4.705161,39.213743],[-4.708229,39.209868],[-4.699918,39.208134],[-4.689253,39.20382],[-4.686625,39.201425],[-4.682601,39.19296],[-4.677745,39.191768],[-4.672359,39.187296],[-4.665164,39.186119],[-4.663337,39.184217],[-4.662836,39.178665],[-4.65315,39.174892],[-4.649263,39.17201],[-4.647577,39.168727],[-4.64897,39.164905],[-4.661652,39.166229],[-4.675264,39.170657],[-4.676547,39.169593],[-4.714406,39.187622],[-4.742549,39.19452],[-4.77364,39.189501],[-4.810273,39.199416],[-4.809179,39.197874],[-4.811374,39.195858],[-4.813195,39.191027],[-4.821247,39.180909],[-4.831403,39.17611],[-4.831108,39.164726],[-4.834021,39.163247],[-4.838702,39.163894],[-4.84521,39.161359],[-4.853635,39.151656],[-4.855025,39.1473],[-4.85368,39.141024],[-4.858119,39.134682],[-4.856095,39.131651],[-4.856871,39.123277],[-4.870625,39.112362],[-4.874423,39.09902],[-4.873705,39.096337],[-4.858416,39.076832],[-4.850477,39.075616],[-4.84583,39.073383],[-4.84292,39.07351],[-4.836631,39.071239],[-4.82582,39.062552],[-4.832284,39.051503],[-4.832793,39.046161],[-4.838707,39.044752],[-4.842547,39.047593],[-4.849172,39.045506],[-4.852625,39.038811],[-4.86099,39.031784],[-4.867403,39.034043],[-4.875089,39.031991],[-4.885599,39.033633],[-4.902767,39.041004],[-4.914583,39.048595],[-4.930903,39.05384],[-4.935133,39.056419],[-4.941411,39.056504],[-4.948615,39.056248],[-4.962504,39.058727],[-4.961865,39.052341],[-4.951309,39.030705],[-4.945279,39.008784],[-4.937067,38.996874],[-4.936866,38.985273],[-4.93367,38.975577],[-4.918222,38.957045],[-4.913414,38.960647],[-4.905583,38.963397],[-4.894202,38.960312],[-4.89054,38.957127],[-4.890407,38.955174],[-4.891131,38.952469],[-4.885032,38.951351],[-4.876608,38.947819],[-4.872192,38.948818],[-4.851891,38.947313],[-4.843018,38.945093],[-4.843848,38.940178],[-4.834149,38.93988],[-4.832416,38.938908],[-4.831132,38.935612],[-4.836677,38.93056],[-4.841713,38.918317],[-4.840956,38.916671],[-4.845363,38.904698],[-4.844174,38.902437],[-4.846173,38.899901],[-4.842651,38.895271],[-4.847322,38.882402],[-4.849522,38.881466],[-4.853502,38.882908],[-4.865728,38.887092],[-4.876608,38.88654],[-4.879536,38.887862],[-4.889716,38.886544],[-4.895137,38.88752],[-4.900321,38.889075],[-4.914942,38.88744],[-4.91877,38.88061],[-4.924258,38.876799],[-4.92798,38.869934],[-4.934584,38.864833],[-4.943485,38.854378],[-4.944521,38.847134],[-4.953626,38.829961],[-4.958698,38.810342],[-4.957742,38.803618],[-4.960945,38.796545],[-4.960817,38.789772],[-4.96821,38.776005],[-4.972691,38.761098],[-4.983357,38.751457],[-4.983749,38.748558],[-4.987577,38.745123],[-4.989994,38.739757],[-5.003978,38.732985],[-5.009699,38.735157],[-5.015246,38.735638],[-5.029432,38.73324],[-5.038136,38.733503],[-5.046948,38.729087],[-5.050653,38.726273],[-5.061616,38.724324],[-5.063217,38.721187],[-5.068288,38.717565],[-5.080302,38.715406],[-5.088766,38.712245],[-5.092466,38.708953],[-5.09919,38.707653],[-5.109071,38.710484],[-5.119001,38.716143],[-5.132351,38.715288],[-5.137164,38.71393],[-5.140973,38.714752],[-5.142543,38.713804],[-5.147981,38.716047],[-5.152762,38.716329],[-5.16401,38.714031],[-5.165074,38.711939],[-5.166607,38.711667],[-5.169421,38.713066],[-5.17143,38.717533],[-5.184503,38.719695],[-5.180312,38.712322],[-5.179871,38.709168],[-5.181347,38.706646],[-5.175481,38.700527],[-5.173449,38.688465],[-5.167759,38.68165],[-5.168008,38.677321],[-5.182777,38.676128],[-5.185763,38.674171],[-5.187407,38.67039],[-5.179071,38.665725],[-5.18497,38.659418],[-5.190322,38.660444],[-5.194859,38.666773],[-5.19766,38.667027],[-5.198525,38.664517],[-5.196873,38.660473],[-5.197749,38.656791],[-5.199426,38.65639],[-5.201559,38.657764],[-5.204159,38.666103],[-5.208019,38.667897],[-5.21233,38.655984],[-5.21166,38.65177],[-5.214744,38.648566],[-5.217234,38.649195],[-5.219536,38.656027],[-5.221956,38.656989],[-5.223939,38.656456],[-5.222385,38.648928],[-5.229428,38.647063],[-5.231457,38.644321],[-5.235634,38.643033],[-5.237547,38.637692],[-5.239765,38.636613],[-5.241985,38.637075],[-5.24746,38.639845],[-5.24778,38.637603],[-5.24448,38.633431],[-5.245,38.632087],[-5.253995,38.633195],[-5.255124,38.630732],[-5.254208,38.626053],[-5.256566,38.624684],[-5.266773,38.623099],[-5.270636,38.621041],[-5.27336,38.615636],[-5.279283,38.612288],[-5.287091,38.612972],[-5.292236,38.610808],[-5.293273,38.609075],[-5.300634,38.599048],[-5.31023,38.593578],[-5.310914,38.590195],[-5.306872,38.586238],[-5.305922,38.582004],[-5.306672,38.578917],[-5.308513,38.577619],[-5.312101,38.577116],[-5.323817,38.58056],[-5.327011,38.579947],[-5.328886,38.578297],[-5.335734,38.578503],[-5.345906,38.583147],[-5.356578,38.585482],[-5.368991,38.584916],[-5.371748,38.583572],[-5.369692,38.579343],[-5.375686,38.568265],[-5.386013,38.566811],[-5.389807,38.562175],[-5.388914,38.560508],[-5.383394,38.557377],[-5.384914,38.555084],[-5.39156,38.554813],[-5.392812,38.552779],[-5.391489,38.548868],[-5.383653,38.543676],[-5.382971,38.541086],[-5.384676,38.539213],[-5.387438,38.538787],[-5.390509,38.540049],[-5.397203,38.546463],[-5.400346,38.546443],[-5.406932,38.543695],[-5.406869,38.541119],[-5.403427,38.53628],[-5.416245,38.529546],[-5.414562,38.524842],[-5.41009,38.523862],[-5.410003,38.520223],[-5.416533,38.52035],[-5.418955,38.512533],[-5.425399,38.514878],[-5.42781,38.514638],[-5.434644,38.504387],[-5.439998,38.505375],[-5.444821,38.504923],[-5.448179,38.502843],[-5.450534,38.498226],[-5.452349,38.497999],[-5.458235,38.499479],[-5.458419,38.494763],[-5.465038,38.48883],[-5.468897,38.48501],[-5.474248,38.485942],[-5.480198,38.48396],[-5.48125,38.477513],[-5.480209,38.474247],[-5.484456,38.46339],[-5.486681,38.465802],[-5.491139,38.466464],[-5.492764,38.46406],[-5.492127,38.461866],[-5.494161,38.46103],[-5.494838,38.458727],[-5.499385,38.459342],[-5.503934,38.456659],[-5.513014,38.464078],[-5.519216,38.463467],[-5.522769,38.460201],[-5.530868,38.454566],[-5.542089,38.450088],[-5.546428,38.449994],[-5.549028,38.446712],[-5.552794,38.445621],[-5.561301,38.436092],[-5.568921,38.432591],[-5.572787,38.427587],[-5.572703,38.423273],[-5.576817,38.41401],[-5.578838,38.412236],[-5.581231,38.404488],[-5.584277,38.40097],[-5.585066,38.385843],[-5.579986,38.381081],[-5.577371,38.382228],[-5.57169,38.377605],[-5.566777,38.377199],[-5.56316,38.371998],[-5.566185,38.367571],[-5.56467,38.366487],[-5.561527,38.367889],[-5.559248,38.366885],[-5.560908,38.364614],[-5.566911,38.362545],[-5.566534,38.360616],[-5.568705,38.35664],[-5.56727,38.351329],[-5.572303,38.341911],[-5.571526,38.337396],[-5.573216,38.331502],[-5.575648,38.329106],[-5.567683,38.323478],[-5.555529,38.317734],[-5.551232,38.31098],[-5.550447,38.306519],[-5.55247,38.305186],[-5.55257,38.30349],[-5.549748,38.299317],[-5.54698,38.297629],[-5.544625,38.293391],[-5.54434,38.288505],[-5.541712,38.285931],[-5.544399,38.282331],[-5.541105,38.278042],[-5.537453,38.279509],[-5.536475,38.276034],[-5.53757,38.27301],[-5.531795,38.269963],[-5.52835,38.265225],[-5.525958,38.264124],[-5.530036,38.255188],[-5.523784,38.249204],[-5.522136,38.232246],[-5.524338,38.222612],[-5.522222,38.213926],[-5.523261,38.212246],[-5.520614,38.210338],[-5.520986,38.207222],[-5.525514,38.204764],[-5.526766,38.205286],[-5.529228,38.201873],[-5.530512,38.203323],[-5.538707,38.200605],[-5.537298,38.196526],[-5.539237,38.193178],[-5.536737,38.191871],[-5.540335,38.185026],[-5.543708,38.184854],[-5.542344,38.181388],[-5.53999,38.180988],[-5.539976,38.176979],[-5.54213,38.176563],[-5.53959,38.171779],[-5.540418,38.169977],[-5.535785,38.168681],[-5.538896,38.161657],[-5.541374,38.160036],[-5.548477,38.161171],[-5.550681,38.160555],[-5.552989,38.154414],[-5.555726,38.153399],[-5.556756,38.150223],[-5.560099,38.148565],[-5.561944,38.15075],[-5.567323,38.147965],[-5.573036,38.150471],[-5.57586,38.149643],[-5.585641,38.140355],[-5.585807,38.137279],[-5.584075,38.134118],[-5.584789,38.131706],[-5.629371,38.137483],[-5.632501,38.138557],[-5.641312,38.132034],[-5.644259,38.129282],[-5.645958,38.125171],[-5.667033,38.10908],[-5.669356,38.101765],[-5.693631,38.08374],[-5.710426,38.081047],[-5.719569,38.08507],[-5.732896,38.087518],[-5.734901,38.086255],[-5.736052,38.094518],[-5.734069,38.098195],[-5.734102,38.109484],[-5.735533,38.115749],[-5.738268,38.119352],[-5.738397,38.123115],[-5.740738,38.126539],[-5.738817,38.132819],[-5.736002,38.135353],[-5.730797,38.137105],[-5.719781,38.136595],[-5.714787,38.134205],[-5.70897,38.142242],[-5.704414,38.143356],[-5.694711,38.150346],[-5.705562,38.163621],[-5.705786,38.169382],[-5.703894,38.16729],[-5.701998,38.167235],[-5.695735,38.171352],[-5.693077,38.167971],[-5.686143,38.161571],[-5.684243,38.157064],[-5.684351,38.161567],[-5.688837,38.171222],[-5.687491,38.179623],[-5.688612,38.181877],[-5.697868,38.179674],[-5.698791,38.182707],[-5.694562,38.183507],[-5.69473,38.186521],[-5.698019,38.184995],[-5.701015,38.186377],[-5.705935,38.185137],[-5.707879,38.1883],[-5.713496,38.185855],[-5.71473,38.188953],[-5.723228,38.192441],[-5.725076,38.195777],[-5.728163,38.197417],[-5.731481,38.195177],[-5.740823,38.194338],[-5.745846,38.189463],[-5.749475,38.190018],[-5.749609,38.187825],[-5.753962,38.184281],[-5.756727,38.185262],[-5.75752,38.183883],[-5.755345,38.181897],[-5.757281,38.180564],[-5.759159,38.180727],[-5.761132,38.182807],[-5.772123,38.183358],[-5.775275,38.185212],[-5.780008,38.184803],[-5.781705,38.18588],[-5.791159,38.177862],[-5.799434,38.174583],[-5.803137,38.178288],[-5.806611,38.177205],[-5.808717,38.174073],[-5.810628,38.173613],[-5.811929,38.174807],[-5.810749,38.177953],[-5.815387,38.176283],[-5.817562,38.177627],[-5.819787,38.174637],[-5.822775,38.175475],[-5.824236,38.172232],[-5.822482,38.17113],[-5.823095,38.169863],[-5.832441,38.17189],[-5.837857,38.174426],[-5.844349,38.173179],[-5.846549,38.17136],[-5.851524,38.171906],[-5.855581,38.168834],[-5.856237,38.161664],[-5.874294,38.158574],[-5.877377,38.155715],[-5.876836,38.148349],[-5.878685,38.146321],[-5.878182,38.138756],[-5.876961,38.137867],[-5.880665,38.13228],[-5.886395,38.132383],[-5.8953,38.130533],[-5.907335,38.123965],[-5.912519,38.122971],[-5.914488,38.120273],[-5.914102,38.117733],[-5.917921,38.115134],[-5.922833,38.107326],[-5.926378,38.105012],[-5.927588,38.097603],[-5.929192,38.096383],[-5.927866,38.091145],[-5.929305,38.089208],[-5.928345,38.087718],[-5.920752,38.084844],[-5.912902,38.078354],[-5.91081,38.078198],[-5.908045,38.068248],[-5.909848,38.063987],[-5.909172,38.062463],[-5.91168,38.062761],[-5.913128,38.059625],[-5.917912,38.056425],[-5.919278,38.049796],[-5.927507,38.05042],[-5.934224,38.046874],[-5.934287,38.044449],[-5.936977,38.04048],[-5.935916,38.036164],[-5.932688,38.031497],[-5.93692,38.02794],[-5.936461,38.02442],[-5.939658,38.019781],[-5.940568,38.014893],[-5.944603,38.011305],[-5.946738,38.003755],[-5.953688,37.995345],[-5.955827,37.998418],[-5.957819,37.998981],[-5.97198,37.999931],[-5.985502,37.997939],[-5.993503,37.999546],[-6.006276,37.991409],[-6.013051,37.993397],[-6.017102,37.991122],[-6.024226,37.993282],[-6.030745,37.997592],[-6.034333,37.997355],[-6.038156,37.995176],[-6.041056,37.994964],[-6.04647,37.997319],[-6.052029,37.996842],[-6.056395,37.991764],[-6.06212,37.991444],[-6.065145,37.988644],[-6.078172,37.984627],[-6.08227,37.985718],[-6.088222,37.98513],[-6.094767,37.981606],[-6.105173,37.982737],[-6.115627,37.981767],[-6.1301,37.973057],[-6.135567,37.972195],[-6.137637,37.971542],[-6.143025,37.965524],[-6.148988,37.966319],[-6.148781,37.962009],[-6.153807,37.957649],[-6.167815,37.955822],[-6.167944,37.951935],[-6.176799,37.946723],[-6.18024,37.941026],[-6.185717,37.945103],[-6.195989,37.948744],[-6.19433,37.955086],[-6.200807,37.958568],[-6.202111,37.959497],[-6.200432,37.96093],[-6.202149,37.962207],[-6.204314,37.962013],[-6.20533,37.959733],[-6.208715,37.95856],[-6.210346,37.960723],[-6.214806,37.961493],[-6.221468,37.959535],[-6.226751,37.959845],[-6.233564,37.95794],[-6.240008,37.95906],[-6.246018,37.962724],[-6.247327,37.96712],[-6.252896,37.971588],[-6.257514,37.971271],[-6.265435,37.973582],[-6.272591,37.972762],[-6.276535,37.973913],[-6.280433,37.973525],[-6.288647,37.975494],[-6.290773,37.976975],[-6.303691,37.978243],[-6.308792,37.983091],[-6.309428,37.98528],[-6.314825,37.988697],[-6.31995,37.990273],[-6.321743,37.99343],[-6.329293,37.998271],[-6.333508,37.99807],[-6.336675,37.99962],[-6.339989,37.999652],[-6.347044,38.00282],[-6.354913,38.009848],[-6.356571,38.014738],[-6.359096,38.016657],[-6.357818,38.018846],[-6.359555,38.022473],[-6.358166,38.028224],[-6.361803,38.037226],[-6.362036,38.04058],[-6.363324,38.043075],[-6.367529,38.046098],[-6.367567,38.048917],[-6.373322,38.049698],[-6.388778,38.048136],[-6.402618,38.052528],[-6.403891,38.054176],[-6.414223,38.058561],[-6.418912,38.059163],[-6.436517,38.057496],[-6.443568,38.059163],[-6.444637,38.0596],[-6.45276,38.055957],[-6.444016,38.047592],[-6.444642,38.046114],[-6.447932,38.043648],[-6.452669,38.042878],[-6.46125,38.035689],[-6.465855,38.035321],[-6.465778,38.032233],[-6.46962,38.03112],[-6.47386,38.024427],[-6.472177,38.015793],[-6.464725,38.013769],[-6.465449,38.011009],[-6.46928,38.012085],[-6.470559,38.009985],[-6.47398,38.009857],[-6.47656,38.007834],[-6.478656,38.008097],[-6.480012,38.009552],[-6.484357,38.008018],[-6.491735,38.009465],[-6.491747,38.012114],[-6.495603,38.015152],[-6.49283,38.016207],[-6.495041,38.019133],[-6.52482,38.021513],[-6.542841,38.027313],[-6.545693,38.028119],[-6.55342,38.02657],[-6.565238,38.026987],[-6.571523,38.024138],[-6.571566,38.023146],[-6.569654,38.022709],[-6.572153,38.020227],[-6.576283,38.020615],[-6.579068,38.022152],[-6.582329,38.020845],[-6.586115,38.023739],[-6.58474,38.0266],[-6.587174,38.026778],[-6.583848,38.034249],[-6.584461,38.044238],[-6.580514,38.050422],[-6.580526,38.052772],[-6.587376,38.059131],[-6.58836,38.062019],[-6.594317,38.066864],[-6.595117,38.069785],[-6.598835,38.073912],[-6.604496,38.077332],[-6.607714,38.083431],[-6.612781,38.085897],[-6.622775,38.097156],[-6.62446,38.096662],[-6.628253,38.098428],[-6.631799,38.096606],[-6.637647,38.096215],[-6.642714,38.097226],[-6.646167,38.091254],[-6.649297,38.090022]]]]}}
]
}
