{
"type": "FeatureCollection",
"name": "cod_prov_49",
"crs": { "type": "name", "properties": { "name": "urn:ogc:def:crs:OGC:1.3:CRS84" } },
"xy_coordinate_resolution": 1e-15,
"features": [
{"type":"Feature","properties":{"fid":52,"cod_ccaa":"07","provincia":"Zamora","cod_prov":"49"},"geometry":{"type":"MultiPolygon","coordinates":[[[[-6.251107,41.241744],[-6.254596,41.245445],[-6.267065,41.253818],[-6.268169,41.255606],[-6.274262,41.257171],[-6.277602,41.254752],[-6.282275,41.253944],[-6.288567,41.254709],[-6.296745,41.256438],[-6.30295,41.260916],[-6.311442,41.263401],[-6.317682,41.270894],[-6.326335,41.26805],[-6.330976,41.269402],[-6.334921,41.271629],[-6.347201,41.272497],[-6.348291,41.27514],[-6.354465,41.279148],[-6.363176,41.281388],[-6.365978,41.284566],[-6.372276,41.2863],[-6.382633,41.285716],[-6.391367,41.278921],[-6.400072,41.278726],[-6.40404,41.278816],[-6.414731,41.275977],[-6.415729,41.277029],[-6.413927,41.280927],[-6.416924,41.282766],[-6.420835,41.282902],[-6.423796,41.279697],[-6.436806,41.283506],[-6.445348,41.283854],[-6.450893,41.290054],[-6.454307,41.292077],[-6.465352,41.286215],[-6.477555,41.287576],[-6.479617,41.28954],[-6.479706,41.294346],[-6.469234,41.301111],[-6.459612,41.298005],[-6.451558,41.298356],[-6.438071,41.305307],[-6.437128,41.307127],[-6.439216,41.309595],[-6.439299,41.312295],[-6.434768,41.319266],[-6.418697,41.326724],[-6.42717,41.33428],[-6.419713,41.344066],[-6.417672,41.344793],[-6.416762,41.347513],[-6.407795,41.349949],[-6.392058,41.350235],[-6.387197,41.353287],[-6.380457,41.356539],[-6.376885,41.361191],[-6.379749,41.364097],[-6.387062,41.363342],[-6.393979,41.370846],[-6.393851,41.377803],[-6.391184,41.38423],[-6.381395,41.388013],[-6.376983,41.387792],[-6.371221,41.392446],[-6.366694,41.393947],[-6.36588,41.387901],[-6.359194,41.380919],[-6.351468,41.378092],[-6.343185,41.379783],[-6.326041,41.387089],[-6.318302,41.386115],[-6.315773,41.389997],[-6.318394,41.398252],[-6.320469,41.400957],[-6.332719,41.405429],[-6.333825,41.408108],[-6.332814,41.411497],[-6.32803,41.415733],[-6.319911,41.415346],[-6.314106,41.416937],[-6.308861,41.419898],[-6.303269,41.426894],[-6.299743,41.429328],[-6.295006,41.435723],[-6.299638,41.44211],[-6.304872,41.445724],[-6.305819,41.449524],[-6.295818,41.460267],[-6.287383,41.465345],[-6.285097,41.469148],[-6.285783,41.47726],[-6.283393,41.479976],[-6.273794,41.483636],[-6.26808,41.487185],[-6.262379,41.486474],[-6.26827,41.495006],[-6.265629,41.497981],[-6.257107,41.496449],[-6.252911,41.498288],[-6.250489,41.500635],[-6.256096,41.513552],[-6.243864,41.516447],[-6.240697,41.520463],[-6.236313,41.522414],[-6.227359,41.534167],[-6.217522,41.543169],[-6.217271,41.551146],[-6.211199,41.560466],[-6.203751,41.565753],[-6.201823,41.56849],[-6.18935,41.575024],[-6.194812,41.582663],[-6.19698,41.589897],[-6.200875,41.594426],[-6.208501,41.599428],[-6.21731,41.600199],[-6.229375,41.603705],[-6.235236,41.607197],[-6.253543,41.633111],[-6.276328,41.647349],[-6.288294,41.656472],[-6.302936,41.662887],[-6.323611,41.667],[-6.356775,41.677012],[-6.360644,41.677503],[-6.362868,41.675447],[-6.374997,41.673804],[-6.395565,41.677087],[-6.406009,41.681073],[-6.409875,41.680346],[-6.411069,41.678393],[-6.419628,41.679876],[-6.425199,41.679152],[-6.434192,41.682233],[-6.436458,41.680787],[-6.439798,41.684181],[-6.446589,41.684482],[-6.451347,41.681574],[-6.452505,41.675371],[-6.457729,41.666839],[-6.468335,41.666636],[-6.488901,41.657403],[-6.499422,41.657227],[-6.512105,41.661243],[-6.519135,41.668818],[-6.527689,41.675021],[-6.53464,41.6765],[-6.541845,41.680402],[-6.548246,41.685616],[-6.553511,41.693522],[-6.552898,41.695693],[-6.554911,41.698216],[-6.553996,41.701243],[-6.549668,41.702277],[-6.545126,41.698572],[-6.542408,41.701151],[-6.542938,41.7038],[-6.54683,41.703779],[-6.546157,41.707708],[-6.550241,41.711589],[-6.5484,41.713735],[-6.553735,41.716992],[-6.553096,41.718038],[-6.549952,41.718352],[-6.555201,41.720909],[-6.549067,41.725403],[-6.551892,41.726504],[-6.554472,41.724686],[-6.556668,41.726798],[-6.557836,41.734443],[-6.555748,41.737119],[-6.5564,41.738477],[-6.559272,41.73846],[-6.561529,41.741874],[-6.566031,41.741753],[-6.56899,41.743498],[-6.565009,41.751519],[-6.558444,41.753272],[-6.555276,41.757098],[-6.555356,41.766587],[-6.55408,41.7694],[-6.550442,41.772367],[-6.549824,41.776853],[-6.543891,41.778351],[-6.54714,41.77989],[-6.544192,41.784231],[-6.543583,41.787816],[-6.547263,41.794969],[-6.543098,41.796908],[-6.543324,41.800359],[-6.539562,41.801105],[-6.542777,41.805284],[-6.537603,41.807046],[-6.538949,41.811822],[-6.537628,41.812971],[-6.534583,41.8132],[-6.533326,41.814418],[-6.535246,41.818465],[-6.527725,41.820705],[-6.531571,41.823423],[-6.528472,41.828165],[-6.530149,41.829104],[-6.528786,41.830803],[-6.532026,41.83345],[-6.532085,41.835168],[-6.527955,41.841527],[-6.525999,41.842523],[-6.528375,41.846755],[-6.526927,41.850437],[-6.522331,41.854252],[-6.525901,41.859591],[-6.525483,41.860738],[-6.519724,41.864904],[-6.515821,41.871274],[-6.517938,41.875369],[-6.538046,41.876651],[-6.571184,41.88362],[-6.565872,41.894267],[-6.5611,41.896009],[-6.556796,41.907489],[-6.5578,41.910358],[-6.548607,41.923934],[-6.550039,41.925618],[-6.547579,41.927351],[-6.549619,41.929341],[-6.545979,41.930679],[-6.545848,41.935933],[-6.549134,41.944503],[-6.5738,41.960666],[-6.577574,41.961701],[-6.588471,41.967754],[-6.589081,41.962926],[-6.599363,41.948205],[-6.6026,41.947851],[-6.606256,41.948925],[-6.613423,41.94661],[-6.617133,41.941198],[-6.625225,41.939907],[-6.635593,41.942154],[-6.699273,41.933328],[-6.714629,41.93755],[-6.714548,41.938642],[-6.718374,41.93787],[-6.721524,41.938524],[-6.726407,41.93705],[-6.750622,41.943393],[-6.767017,41.974543],[-6.768704,41.983897],[-6.778252,41.98759],[-6.785607,41.988896],[-6.797708,41.988595],[-6.805595,41.990908],[-6.811485,41.992523],[-6.810223,41.970188],[-6.82115,41.946313],[-6.830087,41.943872],[-6.83578,41.945284],[-6.844417,41.942303],[-6.869649,41.947478],[-6.8768,41.943274],[-6.885513,41.940386],[-6.892507,41.939779],[-6.912427,41.944252],[-6.925007,41.944452],[-6.932922,41.946639],[-6.94169,41.944294],[-6.944272,41.945087],[-6.950544,41.954056],[-6.952758,41.960796],[-6.957857,41.969291],[-6.978605,41.974039],[-6.983529,41.972895],[-6.991175,41.98402],[-6.991108,41.988344],[-6.986481,41.994844],[-6.987062,41.996994],[-6.979513,42.00021],[-6.97631,42.009047],[-6.970487,42.01403],[-6.969014,42.018871],[-6.966449,42.02131],[-6.96645,42.023849],[-6.961139,42.027203],[-6.964571,42.031505],[-6.964671,42.033681],[-6.973101,42.039106],[-6.974792,42.055157],[-6.994687,42.051439],[-7.011832,42.052416],[-7.016149,42.054768],[-7.022056,42.060873],[-7.025907,42.062718],[-7.031006,42.063296],[-7.034043,42.071554],[-7.033244,42.07458],[-7.020043,42.08313],[-7.017715,42.081105],[-7.01248,42.085097],[-7.006357,42.083844],[-7.002691,42.08417],[-7.003076,42.087983],[-7.000392,42.089707],[-7.002427,42.091509],[-7.002704,42.096668],[-6.997167,42.101291],[-6.995107,42.101597],[-6.994599,42.09967],[-6.992922,42.098963],[-6.990338,42.101133],[-6.990027,42.102539],[-6.992331,42.10534],[-6.989242,42.107942],[-6.988877,42.111953],[-6.990962,42.115104],[-6.988828,42.117528],[-6.989816,42.121312],[-6.986429,42.124194],[-6.981549,42.123337],[-6.974411,42.124459],[-6.964718,42.128648],[-6.956422,42.129458],[-6.94901,42.135737],[-6.947768,42.138905],[-6.944553,42.141681],[-6.946623,42.145589],[-6.941024,42.166861],[-6.941175,42.169296],[-6.943514,42.172259],[-6.938316,42.177435],[-6.914773,42.189426],[-6.911076,42.188391],[-6.901079,42.189623],[-6.888801,42.201854],[-6.893284,42.207204],[-6.886892,42.214354],[-6.877738,42.218356],[-6.878245,42.219519],[-6.869867,42.223746],[-6.867987,42.223116],[-6.856748,42.227142],[-6.843601,42.228304],[-6.837915,42.226442],[-6.82974,42.226094],[-6.81596,42.220791],[-6.802337,42.218462],[-6.796709,42.20905],[-6.794766,42.212194],[-6.787141,42.215724],[-6.790991,42.218334],[-6.795021,42.224531],[-6.795019,42.227718],[-6.800646,42.232862],[-6.803176,42.238667],[-6.801449,42.240769],[-6.795883,42.242322],[-6.792956,42.24666],[-6.794153,42.249448],[-6.787565,42.254177],[-6.784319,42.253618],[-6.765961,42.245552],[-6.761139,42.239866],[-6.759092,42.238664],[-6.75574,42.239548],[-6.753274,42.238432],[-6.742993,42.240173],[-6.737384,42.236097],[-6.734846,42.235603],[-6.733018,42.231728],[-6.735484,42.230189],[-6.735448,42.227939],[-6.73329,42.22402],[-6.727488,42.222597],[-6.725222,42.223409],[-6.722862,42.21974],[-6.723724,42.216885],[-6.7197,42.213351],[-6.711468,42.21405],[-6.703793,42.209373],[-6.699129,42.209776],[-6.689317,42.214739],[-6.67439,42.214462],[-6.670957,42.212501],[-6.659149,42.213797],[-6.65478,42.213018],[-6.647954,42.216892],[-6.638649,42.217296],[-6.629938,42.211989],[-6.623456,42.212177],[-6.621096,42.209874],[-6.618815,42.209388],[-6.616229,42.2044],[-6.613267,42.203215],[-6.607121,42.205876],[-6.603865,42.203997],[-6.597176,42.203523],[-6.593622,42.206408],[-6.587643,42.207982],[-6.581788,42.206184],[-6.577961,42.206619],[-6.57371,42.204906],[-6.560176,42.206966],[-6.555473,42.206248],[-6.543955,42.20538],[-6.530802,42.202779],[-6.526001,42.203359],[-6.52103,42.200207],[-6.518766,42.200646],[-6.517965,42.199536],[-6.51425,42.198938],[-6.506057,42.194003],[-6.506612,42.190681],[-6.50428,42.189248],[-6.508295,42.184344],[-6.499862,42.183801],[-6.497561,42.182025],[-6.495683,42.182875],[-6.492015,42.182446],[-6.490446,42.184088],[-6.478249,42.182226],[-6.476786,42.183594],[-6.46881,42.192939],[-6.465433,42.194743],[-6.461438,42.195197],[-6.459861,42.197145],[-6.453088,42.196638],[-6.449624,42.194626],[-6.444879,42.194661],[-6.442214,42.193534],[-6.438019,42.198343],[-6.427895,42.201942],[-6.422949,42.198947],[-6.40984,42.195682],[-6.402867,42.196186],[-6.402436,42.197397],[-6.398405,42.197886],[-6.397495,42.200794],[-6.381586,42.203147],[-6.380492,42.201495],[-6.347124,42.20053],[-6.341709,42.205091],[-6.329455,42.199865],[-6.323533,42.203549],[-6.32066,42.202353],[-6.317406,42.205203],[-6.312585,42.206585],[-6.31028,42.206048],[-6.306933,42.202948],[-6.303074,42.192118],[-6.298478,42.183615],[-6.294254,42.18226],[-6.293732,42.178033],[-6.277872,42.178956],[-6.251963,42.173058],[-6.254124,42.167044],[-6.242207,42.167634],[-6.225819,42.161955],[-6.222475,42.158789],[-6.218701,42.15097],[-6.212395,42.148077],[-6.170389,42.158179],[-6.160213,42.165772],[-6.154049,42.161322],[-6.143407,42.158823],[-6.139667,42.161276],[-6.137271,42.164718],[-6.124709,42.158866],[-6.105521,42.16199],[-6.096184,42.160883],[-6.0896,42.161646],[-6.077564,42.159043],[-6.075607,42.161869],[-6.067502,42.160213],[-6.049305,42.159861],[-6.028779,42.157596],[-6.016669,42.152629],[-6.009373,42.151128],[-5.989863,42.143372],[-5.974302,42.130205],[-5.962886,42.12797],[-5.956596,42.12408],[-5.953468,42.123684],[-5.95312,42.132059],[-5.948121,42.141922],[-5.935757,42.141186],[-5.931609,42.13941],[-5.926636,42.140717],[-5.911602,42.140586],[-5.906068,42.143932],[-5.902863,42.150047],[-5.901145,42.150586],[-5.897427,42.156101],[-5.89053,42.150026],[-5.880998,42.145322],[-5.884825,42.138453],[-5.869267,42.122175],[-5.858341,42.115928],[-5.844851,42.110716],[-5.840812,42.112608],[-5.838075,42.118773],[-5.832078,42.119371],[-5.812147,42.126544],[-5.806493,42.130555],[-5.804636,42.129862],[-5.806369,42.127748],[-5.805334,42.124585],[-5.798136,42.127598],[-5.791227,42.127289],[-5.78794,42.133439],[-5.780108,42.135268],[-5.769974,42.135945],[-5.759488,42.134361],[-5.755194,42.136626],[-5.750993,42.124281],[-5.752076,42.121355],[-5.747393,42.11601],[-5.74323,42.113426],[-5.741292,42.113364],[-5.734532,42.114516],[-5.717511,42.115002],[-5.710813,42.116205],[-5.697798,42.120772],[-5.676768,42.120337],[-5.679729,42.132587],[-5.685606,42.135674],[-5.68701,42.138262],[-5.68095,42.141753],[-5.679628,42.140226],[-5.672475,42.140483],[-5.667556,42.142066],[-5.66534,42.141154],[-5.66591,42.136872],[-5.654301,42.133827],[-5.649262,42.13398],[-5.64523,42.132164],[-5.642913,42.13056],[-5.638183,42.122141],[-5.621602,42.108725],[-5.619488,42.104973],[-5.624301,42.09266],[-5.628101,42.091573],[-5.638374,42.085079],[-5.637051,42.083767],[-5.634196,42.081401],[-5.624868,42.083551],[-5.606241,42.0795],[-5.605309,42.080638],[-5.603442,42.07933],[-5.603154,42.080282],[-5.597341,42.079441],[-5.597331,42.076524],[-5.594553,42.075974],[-5.591386,42.078657],[-5.588503,42.077327],[-5.58982,42.076117],[-5.58875,42.075655],[-5.589395,42.072497],[-5.586501,42.071194],[-5.585546,42.067316],[-5.58414,42.06751],[-5.58351,42.065984],[-5.588894,42.05366],[-5.586608,42.050911],[-5.585065,42.053981],[-5.580171,42.058449],[-5.579445,42.064401],[-5.577723,42.065448],[-5.574667,42.064598],[-5.56985,42.058744],[-5.569766,42.057864],[-5.563965,42.059047],[-5.561264,42.057703],[-5.560699,42.055968],[-5.557444,42.06067],[-5.552419,42.064348],[-5.552269,42.066639],[-5.549456,42.07033],[-5.548249,42.079129],[-5.544023,42.08622],[-5.544357,42.092453],[-5.541839,42.098102],[-5.543365,42.099383],[-5.527006,42.104301],[-5.520893,42.097141],[-5.51795,42.090623],[-5.518393,42.084696],[-5.507642,42.075413],[-5.501587,42.066521],[-5.502869,42.062549],[-5.507746,42.057507],[-5.496218,42.049194],[-5.495846,42.045573],[-5.486508,42.038806],[-5.492708,42.033295],[-5.488265,42.029969],[-5.48767,42.025857],[-5.472808,42.01358],[-5.471728,42.00629],[-5.478454,42.004425],[-5.479087,41.99926],[-5.4841,41.996234],[-5.488407,41.995537],[-5.484805,41.984565],[-5.466982,41.978159],[-5.462787,41.977655],[-5.463124,41.975459],[-5.460803,41.974717],[-5.456159,41.975735],[-5.447034,41.972886],[-5.43828,41.96739],[-5.433519,41.983071],[-5.433467,41.99341],[-5.431456,42.004323],[-5.436381,42.009028],[-5.443098,42.011956],[-5.447809,42.01073],[-5.447438,42.013655],[-5.421589,42.030676],[-5.420278,42.029226],[-5.412075,42.030462],[-5.397796,42.034625],[-5.38775,42.04121],[-5.384413,42.042108],[-5.382236,42.041397],[-5.376294,42.041466],[-5.376396,42.039645],[-5.371457,42.035487],[-5.348946,42.022586],[-5.332045,42.020166],[-5.32552,42.020398],[-5.323314,42.018866],[-5.317845,42.006621],[-5.313329,42.002623],[-5.309472,42.002827],[-5.30224,41.992787],[-5.303229,41.991101],[-5.301777,41.991328],[-5.28065,41.9788],[-5.260505,41.984611],[-5.254679,41.981646],[-5.254609,41.980332],[-5.261506,41.981836],[-5.269431,41.981013],[-5.28531,41.974114],[-5.288824,41.971486],[-5.288446,41.968],[-5.299646,41.961318],[-5.305664,41.953552],[-5.312394,41.94949],[-5.331457,41.942584],[-5.334757,41.940121],[-5.335215,41.937473],[-5.320875,41.937512],[-5.30989,41.932258],[-5.309336,41.930603],[-5.298838,41.922087],[-5.293733,41.919938],[-5.295914,41.911167],[-5.300517,41.907049],[-5.301349,41.904709],[-5.307603,41.898928],[-5.310452,41.893359],[-5.311477,41.882684],[-5.309881,41.875845],[-5.305336,41.867092],[-5.309451,41.863911],[-5.306474,41.857838],[-5.321784,41.840805],[-5.32,41.83977],[-5.327162,41.835347],[-5.330429,41.831795],[-5.32955,41.831138],[-5.326537,41.829073],[-5.315843,41.827029],[-5.30774,41.825715],[-5.306407,41.826796],[-5.302533,41.825568],[-5.299929,41.826467],[-5.298401,41.825515],[-5.294934,41.827557],[-5.290541,41.826258],[-5.287148,41.827686],[-5.276816,41.822892],[-5.277127,41.818437],[-5.279623,41.813452],[-5.314009,41.793807],[-5.316362,41.790985],[-5.320394,41.790328],[-5.322652,41.78821],[-5.326309,41.789839],[-5.329141,41.788953],[-5.33356,41.78934],[-5.335319,41.788404],[-5.341544,41.789169],[-5.345718,41.786129],[-5.349497,41.780874],[-5.365059,41.779347],[-5.370177,41.777846],[-5.371479,41.775306],[-5.382104,41.768836],[-5.391383,41.76051],[-5.390743,41.757507],[-5.390692,41.752572],[-5.384384,41.741365],[-5.378024,41.733256],[-5.377107,41.728934],[-5.375559,41.728038],[-5.375195,41.719787],[-5.371478,41.721341],[-5.370027,41.727009],[-5.365559,41.729416],[-5.361691,41.728847],[-5.360161,41.727131],[-5.358659,41.719921],[-5.356162,41.717054],[-5.357986,41.702156],[-5.358136,41.699694],[-5.345699,41.70203],[-5.340822,41.699112],[-5.341322,41.696013],[-5.338417,41.686795],[-5.331986,41.684711],[-5.332044,41.683007],[-5.32818,41.681798],[-5.324024,41.671461],[-5.323912,41.665682],[-5.322359,41.66257],[-5.324284,41.657649],[-5.324086,41.650475],[-5.323617,41.649134],[-5.324756,41.643392],[-5.319512,41.63677],[-5.321693,41.636014],[-5.321775,41.634265],[-5.323416,41.634169],[-5.325264,41.630142],[-5.324208,41.625129],[-5.328894,41.615919],[-5.320215,41.610853],[-5.317571,41.611411],[-5.316117,41.610368],[-5.30858,41.611691],[-5.305736,41.608334],[-5.297473,41.6095],[-5.29437,41.608283],[-5.292484,41.608897],[-5.277469,41.605079],[-5.270539,41.601137],[-5.27013,41.598713],[-5.271861,41.596085],[-5.270718,41.593937],[-5.266422,41.592878],[-5.267955,41.590047],[-5.280914,41.584674],[-5.293074,41.574372],[-5.287702,41.570354],[-5.283204,41.568624],[-5.28294,41.566927],[-5.279344,41.564252],[-5.280506,41.562148],[-5.272619,41.559188],[-5.272005,41.557047],[-5.274178,41.552681],[-5.272651,41.550181],[-5.270245,41.5513],[-5.26401,41.551648],[-5.256909,41.548113],[-5.257425,41.547094],[-5.247786,41.54677],[-5.247102,41.544658],[-5.239478,41.54051],[-5.233697,41.534165],[-5.233149,41.530789],[-5.228873,41.528431],[-5.231528,41.52022],[-5.233839,41.517725],[-5.241675,41.519788],[-5.247247,41.51387],[-5.253932,41.509695],[-5.261883,41.503685],[-5.268868,41.50542],[-5.270199,41.504403],[-5.277156,41.506355],[-5.289598,41.501055],[-5.292971,41.501565],[-5.299177,41.500225],[-5.303917,41.49741],[-5.310972,41.490297],[-5.320873,41.481767],[-5.328634,41.478079],[-5.332186,41.477944],[-5.332499,41.47565],[-5.336153,41.475702],[-5.342139,41.481281],[-5.344736,41.479256],[-5.337492,41.461291],[-5.333871,41.459482],[-5.329237,41.459477],[-5.324791,41.455343],[-5.332221,41.450203],[-5.32723,41.447215],[-5.332841,41.444129],[-5.333277,41.436239],[-5.339238,41.425599],[-5.318355,41.420852],[-5.307537,41.414053],[-5.311126,41.408667],[-5.320488,41.401453],[-5.322299,41.394184],[-5.333041,41.381538],[-5.334625,41.370644],[-5.333494,41.364785],[-5.333128,41.358209],[-5.324425,41.340417],[-5.32212,41.326332],[-5.317997,41.32193],[-5.312976,41.319464],[-5.305488,41.318209],[-5.30351,41.315979],[-5.306474,41.311596],[-5.303242,41.308374],[-5.303676,41.300331],[-5.297268,41.292344],[-5.294954,41.282537],[-5.296569,41.270715],[-5.291741,41.26919],[-5.30152,41.262816],[-5.302208,41.259272],[-5.299203,41.254594],[-5.297277,41.24359],[-5.294965,41.24061],[-5.296798,41.237412],[-5.29523,41.237606],[-5.294695,41.236292],[-5.296904,41.235996],[-5.298509,41.231758],[-5.297773,41.229809],[-5.295453,41.229324],[-5.298011,41.226049],[-5.293652,41.226253],[-5.302714,41.22409],[-5.304709,41.226545],[-5.307618,41.224794],[-5.308382,41.222094],[-5.311531,41.2214],[-5.310077,41.219745],[-5.311215,41.216507],[-5.315383,41.211911],[-5.32985,41.204152],[-5.340297,41.194105],[-5.336168,41.189992],[-5.338579,41.188385],[-5.329636,41.184351],[-5.32781,41.181595],[-5.332508,41.178267],[-5.33135,41.178543],[-5.326978,41.177622],[-5.308442,41.184453],[-5.307387,41.183268],[-5.30174,41.185434],[-5.296977,41.18117],[-5.288744,41.181991],[-5.289261,41.178018],[-5.287961,41.177323],[-5.292275,41.172815],[-5.291698,41.16962],[-5.298622,41.162763],[-5.291508,41.151511],[-5.293071,41.14985],[-5.290595,41.146837],[-5.292191,41.146129],[-5.295114,41.133948],[-5.297858,41.125877],[-5.316047,41.119099],[-5.32895,41.117173],[-5.331849,41.117979],[-5.328794,41.121193],[-5.329806,41.122533],[-5.332547,41.124576],[-5.340773,41.123445],[-5.347705,41.133455],[-5.352683,41.133398],[-5.356987,41.140822],[-5.362006,41.1389],[-5.370753,41.138305],[-5.383774,41.134326],[-5.385436,41.136462],[-5.386963,41.135854],[-5.391086,41.142109],[-5.396616,41.145102],[-5.400191,41.145432],[-5.400714,41.147025],[-5.401854,41.149208],[-5.399981,41.159605],[-5.396579,41.163044],[-5.398022,41.166689],[-5.402602,41.170025],[-5.403012,41.174709],[-5.404255,41.175782],[-5.402983,41.176538],[-5.407595,41.185592],[-5.413063,41.185811],[-5.418103,41.18766],[-5.426373,41.187531],[-5.443099,41.185241],[-5.448994,41.182819],[-5.457941,41.18234],[-5.476877,41.178322],[-5.475036,41.175669],[-5.475557,41.168614],[-5.470987,41.161192],[-5.471487,41.158947],[-5.469829,41.157947],[-5.473366,41.153467],[-5.474343,41.154094],[-5.477215,41.151546],[-5.476137,41.150786],[-5.479915,41.149831],[-5.4808,41.146777],[-5.484339,41.145502],[-5.486376,41.147395],[-5.485445,41.147982],[-5.488322,41.157882],[-5.487839,41.171583],[-5.486775,41.177487],[-5.485253,41.178853],[-5.488144,41.179331],[-5.49658,41.177329],[-5.506408,41.180277],[-5.513197,41.1851],[-5.514551,41.190889],[-5.518078,41.194865],[-5.525186,41.195826],[-5.539896,41.204653],[-5.543081,41.205285],[-5.549055,41.210476],[-5.555538,41.214016],[-5.562551,41.215238],[-5.565066,41.217037],[-5.571157,41.216316],[-5.58793,41.202439],[-5.60462,41.208016],[-5.6106,41.213843],[-5.619651,41.215601],[-5.628325,41.214457],[-5.634451,41.231871],[-5.638282,41.232495],[-5.655736,41.245153],[-5.662792,41.245809],[-5.667659,41.244318],[-5.670773,41.239617],[-5.678941,41.23187],[-5.694707,41.234348],[-5.701223,41.234385],[-5.714234,41.230782],[-5.732459,41.227226],[-5.734898,41.227645],[-5.751251,41.225859],[-5.75616,41.223733],[-5.764379,41.216088],[-5.767309,41.215702],[-5.778578,41.216781],[-5.790831,41.216016],[-5.795955,41.219522],[-5.804346,41.220767],[-5.808703,41.224471],[-5.835222,41.220344],[-5.843952,41.222227],[-5.850755,41.225058],[-5.855818,41.224617],[-5.856933,41.2264],[-5.86114,41.228484],[-5.865243,41.228201],[-5.869329,41.232702],[-5.876924,41.237204],[-5.891312,41.235835],[-5.897674,41.238593],[-5.908403,41.232198],[-5.913506,41.230772],[-5.913263,41.227986],[-5.916897,41.224949],[-5.917688,41.222074],[-5.921331,41.218154],[-5.917829,41.204859],[-5.916567,41.189067],[-5.913937,41.183802],[-5.915259,41.182444],[-5.913134,41.178337],[-5.914825,41.177214],[-5.915591,41.17433],[-5.922094,41.175831],[-5.925041,41.174549],[-5.926755,41.171822],[-5.932566,41.166072],[-5.930606,41.159556],[-5.931644,41.157693],[-5.936694,41.158717],[-5.936677,41.156727],[-5.933868,41.151457],[-5.944504,41.150294],[-5.947691,41.147763],[-5.945076,41.144182],[-5.951311,41.140267],[-5.953245,41.1401],[-5.955572,41.143634],[-5.963175,41.146041],[-5.964295,41.152128],[-5.972034,41.162258],[-5.971436,41.168803],[-5.974134,41.172597],[-5.976809,41.174023],[-5.979218,41.174573],[-5.985051,41.173341],[-6.002567,41.153134],[-6.009799,41.152063],[-6.016287,41.152974],[-6.020756,41.154559],[-6.023889,41.157367],[-6.028195,41.166522],[-6.0275,41.179122],[-6.023761,41.182057],[-6.023519,41.184819],[-6.018238,41.190263],[-6.010971,41.193785],[-6.008834,41.200497],[-6.021608,41.203404],[-6.02609,41.20335],[-6.040089,41.208222],[-6.04672,41.20901],[-6.058495,41.214705],[-6.062011,41.221051],[-6.065644,41.217631],[-6.069469,41.216772],[-6.074044,41.211318],[-6.083639,41.211206],[-6.09249,41.212499],[-6.100398,41.210242],[-6.109312,41.212613],[-6.12115,41.203727],[-6.12426,41.20294],[-6.12499,41.198228],[-6.1345,41.190386],[-6.143558,41.197785],[-6.163446,41.207408],[-6.175911,41.207965],[-6.191398,41.213994],[-6.193027,41.215128],[-6.199549,41.21972],[-6.205219,41.220301],[-6.210648,41.223274],[-6.225182,41.227731],[-6.23123,41.232812],[-6.233182,41.236836],[-6.234452,41.238395],[-6.238879,41.240098],[-6.251107,41.241744]]]]}}
]
}
