{
"type": "FeatureCollection",
"name": "cod_prov_42",
"crs": { "type": "name", "properties": { "name": "urn:ogc:def:crs:OGC:1.3:CRS84" } },
"xy_coordinate_resolution": 1e-15,
"features": [
{"type":"Feature","properties":{"fid":9,"cod_ccaa":"07","provincia":"Soria","cod_prov":"42"},"geometry":{"type":"MultiPolygon","coordinates":[[[[-2.92251,41.319257],[-2.93407,41.313427],[-2.94119,41.313936],[-2.940086,41.306008],[-2.944059,41.29748],[-2.950131,41.292637],[-2.953523,41.291944],[-2.966123,41.293228],[-2.967437,41.291913],[-2.976263,41.291348],[-2.988076,41.288773],[-2.989855,41.287368],[-2.997546,41.286783],[-3.005989,41.284396],[-3.011351,41.285414],[-3.018016,41.289115],[-3.036654,41.280797],[-3.053631,41.276872],[-3.060675,41.27649],[-3.060459,41.274643],[-3.061902,41.273427],[-3.073023,41.277744],[-3.083474,41.279701],[-3.089987,41.283416],[-3.09388,41.284007],[-3.094665,41.281899],[-3.097827,41.279933],[-3.100168,41.280075],[-3.108659,41.287886],[-3.121225,41.289468],[-3.12505,41.290887],[-3.130048,41.288152],[-3.141295,41.292184],[-3.148412,41.291995],[-3.164891,41.295359],[-3.170872,41.299017],[-3.178602,41.299807],[-3.188552,41.303917],[-3.192144,41.302668],[-3.198061,41.304162],[-3.203672,41.303179],[-3.207355,41.304236],[-3.206933,41.30675],[-3.208668,41.307755],[-3.220229,41.310562],[-3.224864,41.313814],[-3.236864,41.318529],[-3.236297,41.330285],[-3.248139,41.330098],[-3.269338,41.341544],[-3.272133,41.352734],[-3.281096,41.351938],[-3.288293,41.360225],[-3.302784,41.363053],[-3.305977,41.368314],[-3.329226,41.376267],[-3.335308,41.382402],[-3.341252,41.391536],[-3.35054,41.394868],[-3.347178,41.396995],[-3.347218,41.404534],[-3.34929,41.407194],[-3.348855,41.408681],[-3.346514,41.413859],[-3.341672,41.417017],[-3.342629,41.419058],[-3.341358,41.423314],[-3.346044,41.429019],[-3.340104,41.444458],[-3.339379,41.452287],[-3.330382,41.460717],[-3.334292,41.461868],[-3.335109,41.460109],[-3.346009,41.458474],[-3.347335,41.458055],[-3.34667,41.456841],[-3.348321,41.456494],[-3.356355,41.462973],[-3.360775,41.463311],[-3.362924,41.462142],[-3.363205,41.463195],[-3.362534,41.465233],[-3.364966,41.467549],[-3.366569,41.467337],[-3.367538,41.465064],[-3.381104,41.464795],[-3.384115,41.465658],[-3.390913,41.471031],[-3.403399,41.475978],[-3.413317,41.476114],[-3.424043,41.482723],[-3.426477,41.497783],[-3.422233,41.504635],[-3.420667,41.512693],[-3.424456,41.516715],[-3.432307,41.518712],[-3.440847,41.523283],[-3.451819,41.532518],[-3.451528,41.533852],[-3.456017,41.534708],[-3.45807,41.536844],[-3.464359,41.527784],[-3.479687,41.520903],[-3.48514,41.52406],[-3.501948,41.529177],[-3.507663,41.533493],[-3.51811,41.53877],[-3.524887,41.545099],[-3.534916,41.548656],[-3.538337,41.552008],[-3.538903,41.553816],[-3.536246,41.55726],[-3.536636,41.559483],[-3.543913,41.572068],[-3.541572,41.5776],[-3.540026,41.582048],[-3.536378,41.584821],[-3.536139,41.586462],[-3.550442,41.596581],[-3.545671,41.598541],[-3.540684,41.597762],[-3.539686,41.607594],[-3.541443,41.608162],[-3.532164,41.610862],[-3.529154,41.612623],[-3.523431,41.60992],[-3.516816,41.605122],[-3.516527,41.603502],[-3.510453,41.60026],[-3.511481,41.598237],[-3.510009,41.597181],[-3.507845,41.596668],[-3.505937,41.598145],[-3.505138,41.597275],[-3.499603,41.596875],[-3.481633,41.597447],[-3.481396,41.594701],[-3.47956,41.594573],[-3.475365,41.59695],[-3.473781,41.595273],[-3.470744,41.595033],[-3.468264,41.592224],[-3.46848,41.588971],[-3.465555,41.589271],[-3.465429,41.588479],[-3.459163,41.58963],[-3.456514,41.595171],[-3.452251,41.59979],[-3.449796,41.605772],[-3.442636,41.611645],[-3.440953,41.61838],[-3.43536,41.622031],[-3.439086,41.624557],[-3.440476,41.62946],[-3.436594,41.63415],[-3.436552,41.63859],[-3.435236,41.639379],[-3.433006,41.639766],[-3.432596,41.643181],[-3.429759,41.646281],[-3.421496,41.646059],[-3.419069,41.644104],[-3.416608,41.647887],[-3.417731,41.656242],[-3.414651,41.664837],[-3.41146,41.667406],[-3.410044,41.671356],[-3.406992,41.673186],[-3.407343,41.67559],[-3.396214,41.6846],[-3.394759,41.684461],[-3.393402,41.690617],[-3.385149,41.692978],[-3.381851,41.692025],[-3.374129,41.693005],[-3.369628,41.691768],[-3.36329,41.693004],[-3.359682,41.692547],[-3.358401,41.693425],[-3.360922,41.699451],[-3.361812,41.710302],[-3.35986,41.713668],[-3.360661,41.721583],[-3.352467,41.729147],[-3.355126,41.733768],[-3.354387,41.737257],[-3.35069,41.738511],[-3.344869,41.738321],[-3.339807,41.740732],[-3.335625,41.741366],[-3.330419,41.739255],[-3.328214,41.74091],[-3.322899,41.740934],[-3.321677,41.749188],[-3.313909,41.74948],[-3.309682,41.751004],[-3.309313,41.756752],[-3.307224,41.760153],[-3.296165,41.761993],[-3.287062,41.760133],[-3.283811,41.762222],[-3.278805,41.767305],[-3.275454,41.768673],[-3.279478,41.772672],[-3.281119,41.776721],[-3.281815,41.776224],[-3.283569,41.778246],[-3.285863,41.788247],[-3.275383,41.794326],[-3.278336,41.814855],[-3.281626,41.807272],[-3.28671,41.80535],[-3.282992,41.811205],[-3.284873,41.814596],[-3.28114,41.822901],[-3.284652,41.82726],[-3.28874,41.828565],[-3.289007,41.842463],[-3.285303,41.843841],[-3.283472,41.84653],[-3.284846,41.85212],[-3.279036,41.867914],[-3.284227,41.870027],[-3.28957,41.876409],[-3.283757,41.883809],[-3.279647,41.883783],[-3.274747,41.882138],[-3.271032,41.87876],[-3.269498,41.869288],[-3.265979,41.869251],[-3.263045,41.867844],[-3.256827,41.870641],[-3.246577,41.865692],[-3.243341,41.863996],[-3.246806,41.856324],[-3.242603,41.847227],[-3.239538,41.845792],[-3.234388,41.840641],[-3.224471,41.839301],[-3.224354,41.8404],[-3.206789,41.831597],[-3.20182,41.833272],[-3.194497,41.828925],[-3.198218,41.81721],[-3.188588,41.801661],[-3.181683,41.798844],[-3.178943,41.796074],[-3.174093,41.796406],[-3.171352,41.793015],[-3.158224,41.799338],[-3.138717,41.812271],[-3.1362,41.811941],[-3.136602,41.814057],[-3.134089,41.815951],[-3.136947,41.817794],[-3.135322,41.818166],[-3.127292,41.830578],[-3.113593,41.847255],[-3.112599,41.850688],[-3.107667,41.85453],[-3.100863,41.856329],[-3.097161,41.861385],[-3.096806,41.86588],[-3.101164,41.871307],[-3.101234,41.877342],[-3.097167,41.881056],[-3.095552,41.881589],[-3.091808,41.8759],[-3.087735,41.876344],[-3.082137,41.880176],[-3.07934,41.879944],[-3.078752,41.881467],[-3.075452,41.883117],[-3.069702,41.882554],[-3.063617,41.883368],[-3.058634,41.891324],[-3.045241,41.889483],[-3.044685,41.887322],[-3.038139,41.885766],[-3.034164,41.889064],[-3.01677,41.886906],[-3.015001,41.896184],[-3.016508,41.898426],[-3.014917,41.901588],[-3.007733,41.908794],[-3.010217,41.911028],[-3.011062,41.915288],[-3.008072,41.922224],[-2.998484,41.9326],[-2.987616,41.931519],[-2.983829,41.930005],[-2.982467,41.928203],[-2.970791,41.929273],[-2.964515,41.936837],[-2.963123,41.945258],[-2.96008,41.950121],[-2.96003,41.951913],[-2.964674,41.954184],[-2.967616,41.958013],[-2.965802,41.966038],[-2.960342,41.973575],[-2.955337,41.984615],[-2.951809,41.9881],[-2.950525,41.993899],[-2.94598,42.000202],[-2.937471,42.007971],[-2.932171,42.017974],[-2.913624,42.022852],[-2.897214,42.019488],[-2.891179,42.017006],[-2.891247,42.012646],[-2.889512,42.010402],[-2.883826,42.009487],[-2.87846,42.011399],[-2.87672,42.011866],[-2.869528,42.014974],[-2.867903,42.017819],[-2.862344,42.019244],[-2.859634,42.021303],[-2.856779,42.028847],[-2.844636,42.03447],[-2.840299,42.034545],[-2.833705,42.038165],[-2.823705,42.041032],[-2.815151,42.036596],[-2.812638,42.036637],[-2.807684,42.041015],[-2.80495,42.045874],[-2.797987,42.046844],[-2.798382,42.059309],[-2.794948,42.063545],[-2.796829,42.072546],[-2.799018,42.076018],[-2.803218,42.078133],[-2.803344,42.080484],[-2.790144,42.094222],[-2.790205,42.097618],[-2.793337,42.101532],[-2.791608,42.108752],[-2.787314,42.112149],[-2.782143,42.114138],[-2.775688,42.12288],[-2.770672,42.124942],[-2.765422,42.12485],[-2.751174,42.117768],[-2.746395,42.123945],[-2.73843,42.124818],[-2.734667,42.124954],[-2.728506,42.122868],[-2.722681,42.115892],[-2.706725,42.105675],[-2.706074,42.102512],[-2.708825,42.101375],[-2.710432,42.096353],[-2.707605,42.090474],[-2.709112,42.088974],[-2.708423,42.086288],[-2.721938,42.073064],[-2.725548,42.071344],[-2.72735,42.065557],[-2.734601,42.060008],[-2.738487,42.049713],[-2.746101,42.043615],[-2.752025,42.036386],[-2.757585,42.032616],[-2.754903,42.029602],[-2.755746,42.023929],[-2.748787,42.015142],[-2.748355,42.011502],[-2.746168,42.008678],[-2.723881,42.015553],[-2.711581,42.014117],[-2.703703,42.014791],[-2.698828,42.011238],[-2.696271,42.0107],[-2.694354,42.007561],[-2.687867,42.003049],[-2.687174,42.001417],[-2.673583,41.998064],[-2.665906,42.002239],[-2.661869,42.002885],[-2.659791,42.005365],[-2.650018,42.003795],[-2.642507,42.003889],[-2.626637,42.006504],[-2.624472,42.004921],[-2.615108,42.005782],[-2.609692,42.002908],[-2.596608,42.001944],[-2.57991,41.996264],[-2.575252,42.006658],[-2.569941,42.011763],[-2.5653,42.013953],[-2.558689,42.030337],[-2.555255,42.035935],[-2.551284,42.038856],[-2.552034,42.045605],[-2.549068,42.05151],[-2.544433,42.054068],[-2.539532,42.054985],[-2.535393,42.054149],[-2.532509,42.055227],[-2.514881,42.068861],[-2.514744,42.07422],[-2.519407,42.080967],[-2.522657,42.082881],[-2.521558,42.087542],[-2.518257,42.090771],[-2.519387,42.098008],[-2.516244,42.10266],[-2.516484,42.110848],[-2.514677,42.114542],[-2.508513,42.115443],[-2.50111,42.112421],[-2.495904,42.112947],[-2.491465,42.111496],[-2.48437,42.106348],[-2.478205,42.110301],[-2.474413,42.111068],[-2.471773,42.114307],[-2.458616,42.115317],[-2.453545,42.121264],[-2.448536,42.124095],[-2.448734,42.127708],[-2.446493,42.132227],[-2.441265,42.136489],[-2.437773,42.137283],[-2.426968,42.135806],[-2.417633,42.139019],[-2.409119,42.138489],[-2.4014,42.139575],[-2.397214,42.13695],[-2.392946,42.140422],[-2.387867,42.142485],[-2.376176,42.141377],[-2.370673,42.143436],[-2.351054,42.144885],[-2.348191,42.146706],[-2.344004,42.145502],[-2.33215,42.146028],[-2.326886,42.143674],[-2.319136,42.145222],[-2.315744,42.14449],[-2.307827,42.140246],[-2.28839,42.134993],[-2.28216,42.131703],[-2.278913,42.122433],[-2.282571,42.118826],[-2.280614,42.114347],[-2.281746,42.108392],[-2.271619,42.093882],[-2.269589,42.088555],[-2.258891,42.087279],[-2.254061,42.091877],[-2.25277,42.091581],[-2.244187,42.098504],[-2.236484,42.102506],[-2.231317,42.101742],[-2.22408,42.098154],[-2.217095,42.099727],[-2.208883,42.10466],[-2.196877,42.102424],[-2.188764,42.10316],[-2.18616,42.104447],[-2.182554,42.103665],[-2.175609,42.104768],[-2.148111,42.10445],[-2.138633,42.102316],[-2.136748,42.103086],[-2.127324,42.097169],[-2.128678,42.090992],[-2.12682,42.088051],[-2.127076,42.080893],[-2.135406,42.074633],[-2.142618,42.074093],[-2.146333,42.072932],[-2.152035,42.068705],[-2.161912,42.066734],[-2.161121,42.062549],[-2.158372,42.05934],[-2.158998,42.055859],[-2.156782,42.053447],[-2.154765,42.047038],[-2.149922,42.04503],[-2.150564,42.042161],[-2.144893,42.041597],[-2.129798,42.02683],[-2.120694,42.02395],[-2.119679,42.02224],[-2.117007,42.021508],[-2.115239,42.011452],[-2.107631,42.002774],[-2.112107,41.997017],[-2.119423,41.997065],[-2.124071,41.995308],[-2.119899,41.986144],[-2.119306,41.976637],[-2.116291,41.974704],[-2.115143,41.966094],[-2.116096,41.963571],[-2.10996,41.957867],[-2.10044,41.955271],[-2.095935,41.956424],[-2.092644,41.955363],[-2.091122,41.956332],[-2.086227,41.954393],[-2.080122,41.954353],[-2.078368,41.951331],[-2.076214,41.950881],[-2.069569,41.952377],[-2.067616,41.953901],[-2.063252,41.953622],[-2.062239,41.954434],[-2.051252,41.950867],[-2.045291,41.95007],[-2.044105,41.945502],[-2.03741,41.941466],[-2.036391,41.939403],[-2.0361,41.943517],[-2.033502,41.943837],[-2.034745,41.946208],[-2.030651,41.948056],[-2.031353,41.949502],[-2.029735,41.950362],[-2.029899,41.953057],[-2.028314,41.953386],[-2.020953,41.947928],[-2.019558,41.944476],[-2.01609,41.944842],[-2.013076,41.940808],[-2.004655,41.94006],[-2.001338,41.938509],[-1.998664,41.934433],[-1.998348,41.93071],[-1.991555,41.924761],[-1.98209,41.919264],[-1.970299,41.919141],[-1.961344,41.920303],[-1.95486,41.927441],[-1.940565,41.925454],[-1.93533,41.926955],[-1.932643,41.930415],[-1.929521,41.92954],[-1.921493,41.934265],[-1.915884,41.93287],[-1.915171,41.932251],[-1.911205,41.940635],[-1.908876,41.940639],[-1.904668,41.943328],[-1.906667,41.945589],[-1.890706,41.947797],[-1.877594,41.952435],[-1.856544,41.966401],[-1.854755,41.959153],[-1.856608,41.945948],[-1.85495,41.936782],[-1.858585,41.932503],[-1.856868,41.9233],[-1.857283,41.909515],[-1.852327,41.902809],[-1.838785,41.88902],[-1.83845,41.882216],[-1.839971,41.877475],[-1.839985,41.875288],[-1.83213,41.863328],[-1.827235,41.863475],[-1.822597,41.865438],[-1.820243,41.862379],[-1.81999,41.861736],[-1.817602,41.853379],[-1.820399,41.850636],[-1.820827,41.847001],[-1.818563,41.829955],[-1.825496,41.818974],[-1.833844,41.814754],[-1.841354,41.806843],[-1.843729,41.806019],[-1.852918,41.789564],[-1.852408,41.788507],[-1.839567,41.787125],[-1.825322,41.77837],[-1.824975,41.773638],[-1.821143,41.766096],[-1.818714,41.765378],[-1.812152,41.759167],[-1.80681,41.755942],[-1.802676,41.751224],[-1.803597,41.746973],[-1.808065,41.741436],[-1.809349,41.737036],[-1.798567,41.732915],[-1.787771,41.734135],[-1.784342,41.72846],[-1.778885,41.727142],[-1.77537,41.724789],[-1.784991,41.716992],[-1.788192,41.70275],[-1.78686,41.699431],[-1.793899,41.697731],[-1.794897,41.698993],[-1.800268,41.697077],[-1.812073,41.686454],[-1.809078,41.684676],[-1.806223,41.664263],[-1.813113,41.660561],[-1.829147,41.662599],[-1.834587,41.660646],[-1.840589,41.661544],[-1.849191,41.660748],[-1.85899,41.66153],[-1.873981,41.637981],[-1.878815,41.641045],[-1.897897,41.632412],[-1.900342,41.626347],[-1.907921,41.621096],[-1.91315,41.617083],[-1.914202,41.608725],[-1.918366,41.606594],[-1.9231,41.598334],[-1.958021,41.604844],[-1.969301,41.605639],[-1.977046,41.603051],[-1.984507,41.607071],[-1.993328,41.600133],[-1.991968,41.590357],[-1.99503,41.581719],[-1.993686,41.577086],[-1.980662,41.564704],[-1.981867,41.56203],[-1.978347,41.558603],[-1.976735,41.557409],[-1.973549,41.557966],[-1.971283,41.555649],[-1.968559,41.551274],[-1.970435,41.54867],[-1.967335,41.546066],[-1.973051,41.534156],[-1.971981,41.532813],[-1.978179,41.526689],[-1.978368,41.524547],[-1.976024,41.522734],[-1.974991,41.516059],[-1.978786,41.504087],[-1.976509,41.500337],[-1.976638,41.496708],[-1.981112,41.486435],[-1.969979,41.481454],[-1.957232,41.468188],[-1.952172,41.45963],[-1.9524,41.445509],[-1.94881,41.435784],[-1.948741,41.42964],[-1.953687,41.424263],[-1.947193,41.421033],[-1.936525,41.419899],[-1.939442,41.418647],[-1.939923,41.417003],[-1.939039,41.412482],[-1.937168,41.411294],[-1.937878,41.407391],[-1.952002,41.408457],[-1.952735,41.407527],[-1.953686,41.408635],[-1.962539,41.403437],[-1.970605,41.400987],[-1.981877,41.402322],[-1.987408,41.395912],[-1.991816,41.395545],[-1.993454,41.397145],[-1.993636,41.395435],[-1.998268,41.395242],[-2.001939,41.393769],[-2.009655,41.385837],[-2.016712,41.384979],[-2.016507,41.383554],[-2.025114,41.383798],[-2.029271,41.384158],[-2.032029,41.386838],[-2.03419,41.386343],[-2.038284,41.389296],[-2.042355,41.388997],[-2.043576,41.397149],[-2.034771,41.404417],[-2.033979,41.410265],[-2.035623,41.426889],[-2.047099,41.434335],[-2.10152,41.445789],[-2.10281,41.443376],[-2.103113,41.439658],[-2.104385,41.438587],[-2.107517,41.438008],[-2.11064,41.435402],[-2.116616,41.425513],[-2.116066,41.40871],[-2.118281,41.396179],[-2.120531,41.394323],[-2.119449,41.390333],[-2.120709,41.389965],[-2.119482,41.384281],[-2.116032,41.382047],[-2.120155,41.379674],[-2.12296,41.372913],[-2.125802,41.369637],[-2.131691,41.36834],[-2.134265,41.365324],[-2.141988,41.361761],[-2.149836,41.355883],[-2.156051,41.356901],[-2.163137,41.35535],[-2.162491,41.347869],[-2.156785,41.338045],[-2.157113,41.333967],[-2.15798,41.331613],[-2.164339,41.328642],[-2.169053,41.322569],[-2.170487,41.318832],[-2.167173,41.311647],[-2.168955,41.308643],[-2.168051,41.30651],[-2.169075,41.301104],[-2.172929,41.29579],[-2.173671,41.288085],[-2.163511,41.283192],[-2.158695,41.264881],[-2.156447,41.25864],[-2.154892,41.240388],[-2.149003,41.218807],[-2.146241,41.184395],[-2.106756,41.175223],[-2.079896,41.170985],[-2.077336,41.163127],[-2.051693,41.146849],[-2.05061,41.12941],[-2.050589,41.125897],[-2.059182,41.119797],[-2.06272,41.113115],[-2.060379,41.105196],[-2.063655,41.103511],[-2.065622,41.095789],[-2.057517,41.084689],[-2.048179,41.078378],[-2.056434,41.069691],[-2.064165,41.070132],[-2.07169,41.07249],[-2.078679,41.07742],[-2.076688,41.081943],[-2.08146,41.086351],[-2.089704,41.091127],[-2.097485,41.09244],[-2.109418,41.097551],[-2.117443,41.102936],[-2.120688,41.107852],[-2.128254,41.1139],[-2.130195,41.117509],[-2.131855,41.118098],[-2.135912,41.116687],[-2.143444,41.102574],[-2.167329,41.095408],[-2.175727,41.086578],[-2.175298,41.083755],[-2.198565,41.089279],[-2.222555,41.093434],[-2.227798,41.09619],[-2.232146,41.097012],[-2.263543,41.067536],[-2.266405,41.06813],[-2.276398,41.065365],[-2.284493,41.065263],[-2.29111,41.070852],[-2.293581,41.071255],[-2.302249,41.065417],[-2.315595,41.061623],[-2.323407,41.056508],[-2.32695,41.061474],[-2.330705,41.066748],[-2.333877,41.067343],[-2.349239,41.077411],[-2.355329,41.086454],[-2.372579,41.079144],[-2.381349,41.077003],[-2.383066,41.074148],[-2.389322,41.069515],[-2.40213,41.061655],[-2.414299,41.060916],[-2.41891,41.057705],[-2.420967,41.060598],[-2.4298,41.065858],[-2.429744,41.072289],[-2.438232,41.070791],[-2.440953,41.071363],[-2.440009,41.073223],[-2.442272,41.077296],[-2.447935,41.074873],[-2.449518,41.077664],[-2.465624,41.077803],[-2.469466,41.07811],[-2.469443,41.089838],[-2.475984,41.101353],[-2.477845,41.109892],[-2.482261,41.116272],[-2.484465,41.117813],[-2.487247,41.116916],[-2.503704,41.117474],[-2.508852,41.118856],[-2.511628,41.131498],[-2.517402,41.136954],[-2.516939,41.146446],[-2.525613,41.154896],[-2.536512,41.162525],[-2.539352,41.158663],[-2.539567,41.153601],[-2.542531,41.150667],[-2.555155,41.146681],[-2.567595,41.144918],[-2.575579,41.139471],[-2.581302,41.140807],[-2.594949,41.1499],[-2.596123,41.152679],[-2.593463,41.156939],[-2.587416,41.159512],[-2.582629,41.164359],[-2.577495,41.178663],[-2.58434,41.182192],[-2.602567,41.188661],[-2.61934,41.183286],[-2.622067,41.187988],[-2.620009,41.195367],[-2.603107,41.193986],[-2.593166,41.200914],[-2.58742,41.213757],[-2.588423,41.22312],[-2.589488,41.224538],[-2.616971,41.219435],[-2.623901,41.223737],[-2.629199,41.215215],[-2.636249,41.223812],[-2.6347,41.231933],[-2.645121,41.237919],[-2.646015,41.24021],[-2.654832,41.240651],[-2.670256,41.237192],[-2.67361,41.239373],[-2.68458,41.241286],[-2.695348,41.245594],[-2.709546,41.251981],[-2.713618,41.259702],[-2.716388,41.273265],[-2.716772,41.275671],[-2.73009,41.271668],[-2.760945,41.274024],[-2.76935,41.267411],[-2.776283,41.258066],[-2.77551,41.250083],[-2.782492,41.253763],[-2.794009,41.254334],[-2.803539,41.256512],[-2.81068,41.255731],[-2.819592,41.25734],[-2.822244,41.256614],[-2.821762,41.25837],[-2.826685,41.261017],[-2.836869,41.265311],[-2.844612,41.267213],[-2.855159,41.270505],[-2.85901,41.27287],[-2.866887,41.274465],[-2.863697,41.28128],[-2.864102,41.287352],[-2.865896,41.291786],[-2.873037,41.298505],[-2.869817,41.308301],[-2.866844,41.313072],[-2.868987,41.317056],[-2.875454,41.321378],[-2.882706,41.321755],[-2.888424,41.325238],[-2.897936,41.324805],[-2.906667,41.327632],[-2.910966,41.321213],[-2.92251,41.319257]]]]}}
]
}
