{
"type": "FeatureCollection",
"name": "cod_prov_26",
"crs": { "type": "name", "properties": { "name": "urn:ogc:def:crs:OGC:1.3:CRS84" } },
"xy_coordinate_resolution": 1e-15,
"features": [
{"type":"Feature","properties":{"fid":35,"cod_ccaa":"17","provincia":"La Rioja","cod_prov":"26"},"geometry":{"type":"MultiPolygon","coordinates":[[[[-2.915484,42.032311],[-2.915233,42.039029],[-2.920427,42.049211],[-2.919808,42.05121],[-2.92345,42.057922],[-2.922926,42.061182],[-2.92692,42.066517],[-2.926373,42.069165],[-2.928011,42.074074],[-2.931947,42.079255],[-2.931456,42.085785],[-2.931177,42.086776],[-2.935333,42.089408],[-2.941512,42.089132],[-2.954006,42.08558],[-2.958648,42.085906],[-2.960874,42.084286],[-2.97768,42.08394],[-2.993192,42.087526],[-2.999189,42.086058],[-3.003905,42.083329],[-3.009587,42.084986],[-3.014678,42.088426],[-3.023457,42.089272],[-3.034374,42.085963],[-3.049254,42.112798],[-3.058955,42.126969],[-3.066172,42.133324],[-3.073653,42.13585],[-3.083814,42.133456],[-3.086576,42.135922],[-3.090671,42.148591],[-3.089097,42.156977],[-3.089815,42.159345],[-3.099802,42.167389],[-3.096572,42.169454],[-3.101464,42.169738],[-3.102073,42.172079],[-3.10544,42.173013],[-3.109102,42.176269],[-3.112892,42.176005],[-3.114967,42.178803],[-3.114263,42.184829],[-3.115323,42.188269],[-3.125118,42.193239],[-3.128576,42.19663],[-3.129394,42.199458],[-3.127944,42.201594],[-3.116856,42.205469],[-3.11335,42.209516],[-3.106012,42.211766],[-3.101466,42.217147],[-3.0992,42.224975],[-3.102483,42.232231],[-3.096653,42.239594],[-3.093928,42.241155],[-3.092345,42.244732],[-3.088589,42.245725],[-3.097719,42.263091],[-3.089621,42.273049],[-3.096166,42.279024],[-3.095852,42.287454],[-3.09938,42.29444],[-3.10103,42.302157],[-3.103572,42.305901],[-3.102618,42.308946],[-3.106591,42.311878],[-3.10339,42.320779],[-3.100698,42.322412],[-3.098064,42.322315],[-3.095774,42.32446],[-3.095863,42.32691],[-3.100671,42.328572],[-3.103929,42.331379],[-3.105646,42.335034],[-3.11069,42.338578],[-3.109538,42.346198],[-3.109256,42.351881],[-3.092575,42.352886],[-3.087571,42.352179],[-3.063704,42.356085],[-3.063286,42.362849],[-3.07081,42.369473],[-3.084811,42.385386],[-3.094904,42.383739],[-3.104397,42.38541],[-3.10527,42.386369],[-3.103418,42.390324],[-3.096992,42.398607],[-3.095738,42.405182],[-3.09889,42.408503],[-3.101346,42.416777],[-3.09431,42.417666],[-3.090546,42.419911],[-3.090355,42.42237],[-3.080088,42.416785],[-3.078179,42.41575],[-3.078606,42.407509],[-3.082652,42.397384],[-3.078684,42.391407],[-3.075015,42.391643],[-3.073513,42.385646],[-3.067858,42.380021],[-3.064414,42.37334],[-3.057694,42.370119],[-3.053143,42.373418],[-3.056007,42.385142],[-3.059185,42.393111],[-3.061033,42.394605],[-3.06402,42.404276],[-3.058921,42.409908],[-3.057397,42.417158],[-3.063299,42.424909],[-3.057691,42.433909],[-3.046004,42.445154],[-3.050277,42.451592],[-3.055267,42.455804],[-3.060989,42.461988],[-3.064209,42.470948],[-3.073315,42.476481],[-3.082303,42.474485],[-3.082779,42.475943],[-3.089304,42.478874],[-3.090422,42.477883],[-3.091432,42.486267],[-3.093987,42.486301],[-3.094695,42.488074],[-3.093252,42.491525],[-3.079292,42.499091],[-3.075139,42.507091],[-3.073981,42.515665],[-3.076092,42.520194],[-3.071901,42.528104],[-3.076472,42.532226],[-3.08128,42.531178],[-3.08407,42.532185],[-3.082696,42.533708],[-3.084159,42.535319],[-3.089302,42.538278],[-3.096786,42.534579],[-3.099918,42.536171],[-3.107456,42.52877],[-3.117398,42.532264],[-3.125327,42.533111],[-3.131022,42.537211],[-3.132525,42.539956],[-3.134271,42.542053],[-3.126334,42.543809],[-3.114912,42.551278],[-3.10544,42.553925],[-3.103745,42.553107],[-3.104239,42.55679],[-3.102428,42.559431],[-3.088283,42.567106],[-3.082358,42.574018],[-3.086196,42.582211],[-3.079312,42.583674],[-3.068106,42.588914],[-3.059831,42.589189],[-3.063538,42.591312],[-3.065186,42.594175],[-3.064617,42.598282],[-3.060402,42.600599],[-3.060416,42.602562],[-3.065638,42.607044],[-3.070457,42.621415],[-3.078191,42.623733],[-3.079523,42.626092],[-3.086404,42.627717],[-3.081067,42.631314],[-3.084743,42.635346],[-3.084152,42.640687],[-3.069354,42.638778],[-3.064976,42.639681],[-3.040788,42.640053],[-3.034042,42.638037],[-3.029431,42.63821],[-3.018013,42.632178],[-3.016306,42.633529],[-3.017172,42.634781],[-3.01477,42.640176],[-3.010733,42.641653],[-3.00872,42.640852],[-3.004756,42.644265],[-2.99723,42.64214],[-2.989948,42.642328],[-2.98596,42.63633],[-2.98057,42.635221],[-2.97791,42.636608],[-2.975884,42.639156],[-2.970394,42.6411],[-2.952636,42.638563],[-2.946451,42.639317],[-2.933868,42.634735],[-2.9242,42.621734],[-2.920495,42.620461],[-2.916009,42.619521],[-2.904436,42.620161],[-2.905394,42.6238],[-2.904463,42.626492],[-2.894631,42.627672],[-2.891778,42.627273],[-2.890476,42.625732],[-2.893996,42.621331],[-2.883669,42.620799],[-2.880277,42.618837],[-2.883528,42.624428],[-2.876295,42.631003],[-2.864082,42.633258],[-2.858094,42.638204],[-2.856386,42.637463],[-2.842894,42.629603],[-2.843082,42.623457],[-2.848083,42.617182],[-2.844432,42.61432],[-2.841801,42.608599],[-2.834351,42.609183],[-2.8199,42.614501],[-2.818771,42.612716],[-2.81944,42.609115],[-2.823644,42.601458],[-2.818992,42.599648],[-2.818183,42.597117],[-2.819477,42.59214],[-2.822351,42.589055],[-2.840848,42.581193],[-2.837669,42.571129],[-2.828503,42.563696],[-2.824995,42.554944],[-2.820097,42.554973],[-2.817434,42.557662],[-2.817602,42.562642],[-2.81582,42.567845],[-2.812209,42.569496],[-2.806672,42.567298],[-2.803488,42.5646],[-2.800253,42.566521],[-2.798329,42.573786],[-2.789371,42.578245],[-2.781227,42.579347],[-2.777954,42.58134],[-2.778987,42.58534],[-2.773418,42.592129],[-2.771867,42.596277],[-2.77255,42.602655],[-2.774368,42.605576],[-2.767799,42.614956],[-2.765926,42.620027],[-2.763721,42.622837],[-2.760439,42.619975],[-2.756614,42.619004],[-2.749425,42.623725],[-2.740772,42.622553],[-2.736189,42.619156],[-2.730575,42.617621],[-2.728166,42.613608],[-2.718981,42.606255],[-2.706321,42.599829],[-2.686158,42.595092],[-2.681579,42.595624],[-2.680542,42.594518],[-2.684979,42.587299],[-2.68636,42.581548],[-2.687079,42.55971],[-2.691446,42.542534],[-2.699112,42.527493],[-2.705495,42.516765],[-2.699711,42.516957],[-2.694481,42.518439],[-2.685305,42.520242],[-2.679338,42.525214],[-2.675781,42.525727],[-2.677898,42.511828],[-2.67556,42.509007],[-2.668403,42.509765],[-2.665797,42.509848],[-2.662102,42.506432],[-2.656539,42.504045],[-2.654329,42.497538],[-2.651325,42.492089],[-2.649854,42.485457],[-2.647749,42.483263],[-2.644696,42.483119],[-2.639529,42.484524],[-2.630966,42.490198],[-2.630458,42.493734],[-2.628585,42.495603],[-2.619145,42.495023],[-2.610171,42.495873],[-2.608548,42.498702],[-2.605425,42.503522],[-2.600855,42.498778],[-2.59396,42.494179],[-2.592284,42.491823],[-2.59377,42.489712],[-2.598281,42.488332],[-2.600909,42.484558],[-2.602481,42.480304],[-2.60159,42.476987],[-2.599054,42.474069],[-2.594649,42.472369],[-2.591826,42.472386],[-2.586971,42.474449],[-2.592128,42.480268],[-2.591242,42.482741],[-2.5887,42.483533],[-2.578045,42.482972],[-2.573811,42.491908],[-2.568258,42.494148],[-2.555732,42.484464],[-2.549032,42.484447],[-2.537246,42.483359],[-2.531406,42.483358],[-2.529179,42.484952],[-2.537732,42.490075],[-2.537353,42.495243],[-2.522259,42.505268],[-2.517042,42.510901],[-2.513919,42.518039],[-2.51175,42.519921],[-2.508852,42.519917],[-2.507014,42.518343],[-2.505399,42.512896],[-2.510138,42.504982],[-2.516519,42.501497],[-2.518833,42.498112],[-2.517855,42.492344],[-2.513165,42.489847],[-2.476955,42.486932],[-2.474126,42.490152],[-2.474405,42.49163],[-2.472568,42.492497],[-2.449182,42.496888],[-2.438602,42.489435],[-2.43346,42.490102],[-2.424067,42.488666],[-2.420613,42.489144],[-2.415439,42.490364],[-2.412054,42.484843],[-2.400172,42.471787],[-2.396284,42.473468],[-2.388303,42.470193],[-2.374905,42.470351],[-2.372398,42.468512],[-2.370887,42.464127],[-2.364606,42.461752],[-2.360831,42.462715],[-2.357941,42.467279],[-2.351872,42.465663],[-2.347893,42.456578],[-2.34826,42.452725],[-2.346233,42.451569],[-2.342516,42.451817],[-2.33462,42.452645],[-2.332199,42.453984],[-2.33173,42.457868],[-2.336844,42.464779],[-2.330771,42.468728],[-2.326714,42.468512],[-2.318462,42.462669],[-2.313764,42.461466],[-2.307209,42.461531],[-2.300568,42.457837],[-2.297178,42.457295],[-2.29355,42.459716],[-2.297266,42.465239],[-2.297479,42.468021],[-2.288,42.46718],[-2.288066,42.462783],[-2.285958,42.459383],[-2.278209,42.454927],[-2.276045,42.4464],[-2.27008,42.444529],[-2.2645,42.450002],[-2.257637,42.447524],[-2.237703,42.440313],[-2.235815,42.436001],[-2.235571,42.429095],[-2.234384,42.42642],[-2.226643,42.425094],[-2.21912,42.42572],[-2.215458,42.424597],[-2.211332,42.42178],[-2.209838,42.414752],[-2.204995,42.415381],[-2.198906,42.419202],[-2.194999,42.419553],[-2.190494,42.417879],[-2.186273,42.418886],[-2.182235,42.41656],[-2.180771,42.412121],[-2.177028,42.408302],[-2.165687,42.40814],[-2.158367,42.41041],[-2.157004,42.412154],[-2.156905,42.416298],[-2.153006,42.418695],[-2.149956,42.418733],[-2.148091,42.415942],[-2.145595,42.418201],[-2.139846,42.420613],[-2.133017,42.421194],[-2.126623,42.418921],[-2.114777,42.418733],[-2.111224,42.419696],[-2.10705,42.416832],[-2.104346,42.416401],[-2.1106,42.409086],[-2.115928,42.39941],[-2.11195,42.396681],[-2.109882,42.393481],[-2.094852,42.387673],[-2.087549,42.383624],[-2.092812,42.375821],[-2.078791,42.368591],[-2.079885,42.365747],[-2.086697,42.361155],[-2.08977,42.357422],[-2.089961,42.346971],[-2.070316,42.342828],[-2.061836,42.347901],[-2.056488,42.349162],[-2.049789,42.35277],[-2.045105,42.356902],[-2.044988,42.359137],[-2.028285,42.36296],[-2.019443,42.368511],[-2.012171,42.368589],[-2.008967,42.362589],[-2.006135,42.360585],[-1.997983,42.363878],[-1.995708,42.363701],[-1.990795,42.359357],[-1.981725,42.355805],[-1.980139,42.354278],[-1.98086,42.352324],[-1.97938,42.349977],[-1.977413,42.34974],[-1.972929,42.353608],[-1.969701,42.352474],[-1.967759,42.350382],[-1.969837,42.347553],[-1.964574,42.342762],[-1.968865,42.338538],[-1.964931,42.333842],[-1.961595,42.333771],[-1.955747,42.335779],[-1.947659,42.334682],[-1.942068,42.33508],[-1.934079,42.323092],[-1.930619,42.320792],[-1.927245,42.322741],[-1.926586,42.327426],[-1.920186,42.327742],[-1.91653,42.326325],[-1.916261,42.324929],[-1.916887,42.322055],[-1.91979,42.318802],[-1.919496,42.316328],[-1.906818,42.30879],[-1.909102,42.304574],[-1.915501,42.300764],[-1.895872,42.292358],[-1.894134,42.290618],[-1.883801,42.287263],[-1.876052,42.287068],[-1.872466,42.29025],[-1.869058,42.287043],[-1.867633,42.283657],[-1.869165,42.279195],[-1.866331,42.276017],[-1.868017,42.268494],[-1.870762,42.264874],[-1.876379,42.258963],[-1.875181,42.255091],[-1.872775,42.25291],[-1.866341,42.250793],[-1.855308,42.250183],[-1.853436,42.252489],[-1.854203,42.257394],[-1.850361,42.259119],[-1.847166,42.257855],[-1.842102,42.252929],[-1.840666,42.250822],[-1.835312,42.248914],[-1.829395,42.244285],[-1.824986,42.245538],[-1.823999,42.248446],[-1.820591,42.249185],[-1.818257,42.246918],[-1.821352,42.232352],[-1.817858,42.228723],[-1.816224,42.228122],[-1.8062,42.227683],[-1.803336,42.223892],[-1.800442,42.222732],[-1.790231,42.222931],[-1.78782,42.225107],[-1.780311,42.224352],[-1.774221,42.215349],[-1.771409,42.214127],[-1.769453,42.214037],[-1.767071,42.215705],[-1.766192,42.221659],[-1.740892,42.212335],[-1.739548,42.214288],[-1.736487,42.215301],[-1.72729,42.212363],[-1.72594,42.214286],[-1.721904,42.211994],[-1.718868,42.212129],[-1.707402,42.208702],[-1.705964,42.206535],[-1.70677,42.202581],[-1.703335,42.195516],[-1.704459,42.192024],[-1.703224,42.190914],[-1.700522,42.190456],[-1.697709,42.193188],[-1.689811,42.191923],[-1.686313,42.193955],[-1.681884,42.192843],[-1.679736,42.188832],[-1.697124,42.180376],[-1.700565,42.17338],[-1.699373,42.167579],[-1.693476,42.158442],[-1.685651,42.156078],[-1.679284,42.151826],[-1.690341,42.148098],[-1.708845,42.136272],[-1.7197,42.133064],[-1.725236,42.141264],[-1.735563,42.148114],[-1.74063,42.150172],[-1.76461,42.150071],[-1.769081,42.145482],[-1.779922,42.141575],[-1.780564,42.140578],[-1.778482,42.13753],[-1.781755,42.137444],[-1.798046,42.140939],[-1.801426,42.146234],[-1.808054,42.148636],[-1.821636,42.153755],[-1.832167,42.148535],[-1.838092,42.142133],[-1.837191,42.134443],[-1.838717,42.129456],[-1.859717,42.114886],[-1.863822,42.10728],[-1.867675,42.10668],[-1.869554,42.105258],[-1.874631,42.099246],[-1.892528,42.085936],[-1.897501,42.079555],[-1.905445,42.068266],[-1.905621,42.061474],[-1.908542,42.058135],[-1.9062,42.05538],[-1.903431,42.054419],[-1.905828,42.049016],[-1.903021,42.038433],[-1.903953,42.035554],[-1.902331,42.029295],[-1.899475,42.029664],[-1.895284,42.026343],[-1.886534,42.027453],[-1.883366,42.026832],[-1.883342,42.023628],[-1.880623,42.022203],[-1.872716,42.013094],[-1.869656,42.012301],[-1.864592,42.015101],[-1.861263,42.011339],[-1.862015,42.010226],[-1.860344,42.009434],[-1.859882,42.006068],[-1.854869,42.002506],[-1.849486,42.004999],[-1.847183,42.007842],[-1.847033,42.002503],[-1.851328,41.998071],[-1.847392,41.9907],[-1.844668,41.989096],[-1.844048,41.987334],[-1.854195,41.981618],[-1.865191,41.977601],[-1.856544,41.966401],[-1.877594,41.952435],[-1.890706,41.947797],[-1.906667,41.945589],[-1.904668,41.943328],[-1.908876,41.940639],[-1.911205,41.940635],[-1.915171,41.932251],[-1.915884,41.93287],[-1.921493,41.934265],[-1.929521,41.92954],[-1.932643,41.930415],[-1.93533,41.926955],[-1.940565,41.925454],[-1.95486,41.927441],[-1.961344,41.920303],[-1.970299,41.919141],[-1.98209,41.919264],[-1.991555,41.924761],[-1.998348,41.93071],[-1.998664,41.934433],[-2.001338,41.938509],[-2.004655,41.94006],[-2.013076,41.940808],[-2.01609,41.944842],[-2.019558,41.944476],[-2.020953,41.947928],[-2.028314,41.953386],[-2.029899,41.953057],[-2.029735,41.950362],[-2.031353,41.949502],[-2.030651,41.948056],[-2.034745,41.946208],[-2.033502,41.943837],[-2.0361,41.943517],[-2.036391,41.939403],[-2.03741,41.941466],[-2.044105,41.945502],[-2.045291,41.95007],[-2.051252,41.950867],[-2.062239,41.954434],[-2.063252,41.953622],[-2.067616,41.953901],[-2.069569,41.952377],[-2.076214,41.950881],[-2.078368,41.951331],[-2.080122,41.954353],[-2.086227,41.954393],[-2.091122,41.956332],[-2.092644,41.955363],[-2.095935,41.956424],[-2.10044,41.955271],[-2.10996,41.957867],[-2.116096,41.963571],[-2.115143,41.966094],[-2.116291,41.974704],[-2.119306,41.976637],[-2.119899,41.986144],[-2.124071,41.995308],[-2.119423,41.997065],[-2.112107,41.997017],[-2.107631,42.002774],[-2.115239,42.011452],[-2.117007,42.021508],[-2.119679,42.02224],[-2.120694,42.02395],[-2.129798,42.02683],[-2.144893,42.041597],[-2.150564,42.042161],[-2.149922,42.04503],[-2.154765,42.047038],[-2.156782,42.053447],[-2.158998,42.055859],[-2.158372,42.05934],[-2.161121,42.062549],[-2.161912,42.066734],[-2.152035,42.068705],[-2.146333,42.072932],[-2.142618,42.074093],[-2.135406,42.074633],[-2.127076,42.080893],[-2.12682,42.088051],[-2.128678,42.090992],[-2.127324,42.097169],[-2.136748,42.103086],[-2.138633,42.102316],[-2.148111,42.10445],[-2.175609,42.104768],[-2.182554,42.103665],[-2.18616,42.104447],[-2.188764,42.10316],[-2.196877,42.102424],[-2.208883,42.10466],[-2.217095,42.099727],[-2.22408,42.098154],[-2.231317,42.101742],[-2.236484,42.102506],[-2.244187,42.098504],[-2.25277,42.091581],[-2.254061,42.091877],[-2.258891,42.087279],[-2.269589,42.088555],[-2.271619,42.093882],[-2.281746,42.108392],[-2.280614,42.114347],[-2.282571,42.118826],[-2.278913,42.122433],[-2.28216,42.131703],[-2.28839,42.134993],[-2.307827,42.140246],[-2.315744,42.14449],[-2.319136,42.145222],[-2.326886,42.143674],[-2.33215,42.146028],[-2.344004,42.145502],[-2.348191,42.146706],[-2.351054,42.144885],[-2.370673,42.143436],[-2.376176,42.141377],[-2.387867,42.142485],[-2.392946,42.140422],[-2.397214,42.13695],[-2.4014,42.139575],[-2.409119,42.138489],[-2.417633,42.139019],[-2.426968,42.135806],[-2.437773,42.137283],[-2.441265,42.136489],[-2.446493,42.132227],[-2.448734,42.127708],[-2.448536,42.124095],[-2.453545,42.121264],[-2.458616,42.115317],[-2.471773,42.114307],[-2.474413,42.111068],[-2.478205,42.110301],[-2.48437,42.106348],[-2.491465,42.111496],[-2.495904,42.112947],[-2.50111,42.112421],[-2.508513,42.115443],[-2.514677,42.114542],[-2.516484,42.110848],[-2.516244,42.10266],[-2.519387,42.098008],[-2.518257,42.090771],[-2.521558,42.087542],[-2.522657,42.082881],[-2.519407,42.080967],[-2.514744,42.07422],[-2.514881,42.068861],[-2.532509,42.055227],[-2.535393,42.054149],[-2.539532,42.054985],[-2.544433,42.054068],[-2.549068,42.05151],[-2.552034,42.045605],[-2.551284,42.038856],[-2.555255,42.035935],[-2.558689,42.030337],[-2.5653,42.013953],[-2.569941,42.011763],[-2.575252,42.006658],[-2.57991,41.996264],[-2.596608,42.001944],[-2.609692,42.002908],[-2.615108,42.005782],[-2.624472,42.004921],[-2.626637,42.006504],[-2.642507,42.003889],[-2.650018,42.003795],[-2.659791,42.005365],[-2.661869,42.002885],[-2.665906,42.002239],[-2.673583,41.998064],[-2.687174,42.001417],[-2.687867,42.003049],[-2.694354,42.007561],[-2.696271,42.0107],[-2.698828,42.011238],[-2.703703,42.014791],[-2.711581,42.014117],[-2.723881,42.015553],[-2.746168,42.008678],[-2.748355,42.011502],[-2.748787,42.015142],[-2.755746,42.023929],[-2.754903,42.029602],[-2.757585,42.032616],[-2.752025,42.036386],[-2.746101,42.043615],[-2.738487,42.049713],[-2.734601,42.060008],[-2.72735,42.065557],[-2.725548,42.071344],[-2.721938,42.073064],[-2.708423,42.086288],[-2.709112,42.088974],[-2.707605,42.090474],[-2.710432,42.096353],[-2.708825,42.101375],[-2.706074,42.102512],[-2.706725,42.105675],[-2.722681,42.115892],[-2.728506,42.122868],[-2.734667,42.124954],[-2.73843,42.124818],[-2.746395,42.123945],[-2.751174,42.117768],[-2.765422,42.12485],[-2.770672,42.124942],[-2.775688,42.12288],[-2.782143,42.114138],[-2.787314,42.112149],[-2.791608,42.108752],[-2.793337,42.101532],[-2.790205,42.097618],[-2.790144,42.094222],[-2.803344,42.080484],[-2.803218,42.078133],[-2.799018,42.076018],[-2.796829,42.072546],[-2.794948,42.063545],[-2.798382,42.059309],[-2.797987,42.046844],[-2.80495,42.045874],[-2.807684,42.041015],[-2.812638,42.036637],[-2.815151,42.036596],[-2.823705,42.041032],[-2.833705,42.038165],[-2.840299,42.034545],[-2.844636,42.03447],[-2.856779,42.028847],[-2.859634,42.021303],[-2.862344,42.019244],[-2.867903,42.017819],[-2.869528,42.014974],[-2.87672,42.011866],[-2.87846,42.011399],[-2.883826,42.009487],[-2.889512,42.010402],[-2.891247,42.012646],[-2.891179,42.017006],[-2.897214,42.019488],[-2.913624,42.022852],[-2.915484,42.032311]],[[-2.982858,42.610798],[-2.985222,42.614221],[-2.994525,42.615491],[-2.994087,42.610448],[-2.997867,42.605432],[-2.999378,42.600947],[-2.991942,42.604558],[-2.986248,42.607052],[-2.985772,42.609853],[-2.982858,42.610798]],[[-2.936265,42.594102],[-2.934887,42.594408],[-2.927657,42.596141],[-2.922629,42.60083],[-2.929559,42.606247],[-2.929736,42.611219],[-2.9345,42.614076],[-2.940262,42.60728],[-2.945215,42.603887],[-2.944971,42.603572],[-2.943123,42.598519],[-2.939604,42.594455],[-2.936265,42.594102]]]]}}
]
}
