{
"type": "FeatureCollection",
"name": "cod_prov_28",
"crs": { "type": "name", "properties": { "name": "urn:ogc:def:crs:OGC:1.3:CRS84" } },
"xy_coordinate_resolution": 1e-15,
"features": [
{"type":"Feature","properties":{"fid":37,"cod_ccaa":"13","provincia":"Madrid","cod_prov":"28"},"geometry":{"type":"MultiPolygon","coordinates":[[[[-3.956282,40.199072],[-3.952917,40.212339],[-3.956186,40.211465],[-3.962105,40.212287],[-3.976927,40.211928],[-3.991003,40.209478],[-4.001223,40.217542],[-4.006174,40.218249],[-4.008803,40.219816],[-4.020609,40.230835],[-4.022104,40.233588],[-4.026159,40.23561],[-4.026641,40.24474],[-4.023768,40.249019],[-4.04187,40.249709],[-4.052086,40.251529],[-4.072894,40.265451],[-4.077237,40.265842],[-4.080456,40.26694],[-4.087235,40.25419],[-4.099684,40.246958],[-4.104245,40.241798],[-4.111501,40.244107],[-4.120462,40.243561],[-4.124451,40.246048],[-4.128126,40.246306],[-4.130811,40.248491],[-4.135705,40.248142],[-4.14362,40.244864],[-4.148434,40.24645],[-4.150727,40.249232],[-4.144847,40.258998],[-4.144077,40.264267],[-4.147105,40.26666],[-4.149093,40.266019],[-4.157958,40.270705],[-4.161548,40.269498],[-4.164852,40.270789],[-4.172501,40.282825],[-4.172486,40.2881],[-4.17639,40.289797],[-4.178417,40.292733],[-4.182173,40.293587],[-4.190871,40.297355],[-4.197106,40.294128],[-4.198971,40.290231],[-4.202025,40.289274],[-4.203746,40.287372],[-4.204738,40.283317],[-4.203166,40.275199],[-4.204825,40.270651],[-4.203231,40.268818],[-4.208839,40.268224],[-4.213745,40.269446],[-4.217565,40.272855],[-4.219658,40.272009],[-4.220989,40.272627],[-4.221664,40.271096],[-4.226248,40.269953],[-4.228423,40.274106],[-4.229198,40.275971],[-4.231481,40.276666],[-4.234087,40.274132],[-4.245989,40.274213],[-4.25014,40.271992],[-4.253766,40.262814],[-4.260346,40.25743],[-4.261975,40.247649],[-4.267386,40.242697],[-4.269692,40.235977],[-4.275616,40.231585],[-4.286734,40.227888],[-4.291193,40.221466],[-4.295471,40.218735],[-4.306764,40.221964],[-4.309723,40.226438],[-4.305844,40.232147],[-4.307964,40.233869],[-4.311149,40.234579],[-4.321476,40.226455],[-4.326347,40.231728],[-4.32647,40.233503],[-4.333351,40.238256],[-4.341706,40.240468],[-4.348217,40.236845],[-4.34793,40.243885],[-4.344759,40.253297],[-4.347885,40.256037],[-4.350695,40.262771],[-4.356859,40.270267],[-4.358322,40.27563],[-4.356793,40.28449],[-4.358653,40.293773],[-4.356387,40.308621],[-4.356903,40.309652],[-4.363096,40.311588],[-4.364852,40.314045],[-4.373201,40.314279],[-4.375348,40.315092],[-4.376411,40.317043],[-4.379663,40.318011],[-4.378312,40.314828],[-4.381258,40.312684],[-4.383483,40.308788],[-4.381594,40.307343],[-4.387174,40.301169],[-4.382959,40.299426],[-4.385156,40.291299],[-4.383483,40.289049],[-4.389266,40.28668],[-4.393046,40.286907],[-4.397274,40.284648],[-4.407677,40.273701],[-4.411805,40.272545],[-4.420045,40.265081],[-4.426664,40.261593],[-4.427174,40.257556],[-4.435034,40.259303],[-4.43639,40.255048],[-4.434523,40.243881],[-4.437448,40.237689],[-4.447506,40.233612],[-4.473717,40.231465],[-4.479698,40.230072],[-4.482927,40.227296],[-4.497939,40.221669],[-4.504939,40.220781],[-4.514419,40.216882],[-4.517331,40.213669],[-4.516881,40.205509],[-4.518911,40.203369],[-4.522144,40.202399],[-4.528423,40.20056],[-4.533215,40.200992],[-4.535861,40.19956],[-4.550529,40.201842],[-4.57517,40.207077],[-4.572628,40.213013],[-4.575493,40.215928],[-4.579006,40.217403],[-4.574487,40.219708],[-4.565635,40.218035],[-4.560749,40.222759],[-4.559151,40.2346],[-4.560203,40.236369],[-4.565909,40.239653],[-4.566889,40.250531],[-4.569218,40.257202],[-4.556404,40.264519],[-4.556012,40.266201],[-4.554113,40.276415],[-4.555492,40.277045],[-4.549934,40.279894],[-4.54681,40.280107],[-4.547197,40.281093],[-4.542228,40.286565],[-4.533938,40.288765],[-4.529086,40.292748],[-4.53734,40.310143],[-4.539839,40.321217],[-4.539859,40.327793],[-4.544269,40.330185],[-4.542895,40.331897],[-4.547786,40.339372],[-4.546471,40.34211],[-4.538983,40.340562],[-4.526413,40.344908],[-4.526769,40.338228],[-4.520982,40.335836],[-4.518133,40.330558],[-4.515712,40.329175],[-4.512978,40.320581],[-4.505152,40.31535],[-4.498452,40.316229],[-4.490906,40.320453],[-4.485542,40.321098],[-4.472228,40.319531],[-4.466691,40.319672],[-4.464966,40.318436],[-4.455763,40.31935],[-4.456171,40.320827],[-4.453165,40.324757],[-4.453814,40.333093],[-4.45998,40.338295],[-4.460951,40.340493],[-4.457283,40.344683],[-4.452028,40.344619],[-4.447803,40.347271],[-4.444789,40.346742],[-4.439742,40.35029],[-4.438912,40.354439],[-4.441211,40.359286],[-4.439177,40.361567],[-4.44187,40.362676],[-4.440698,40.366721],[-4.441756,40.36802],[-4.440318,40.376332],[-4.441243,40.378505],[-4.439807,40.379497],[-4.441365,40.382737],[-4.443527,40.383448],[-4.443756,40.385625],[-4.441372,40.387215],[-4.44194,40.38876],[-4.437427,40.389674],[-4.438472,40.391308],[-4.437207,40.394035],[-4.433259,40.396087],[-4.432551,40.398169],[-4.423593,40.402128],[-4.42188,40.406401],[-4.417439,40.406465],[-4.414716,40.410372],[-4.402527,40.411394],[-4.385536,40.409302],[-4.378,40.407277],[-4.373548,40.407957],[-4.36538,40.406858],[-4.359551,40.411383],[-4.347435,40.411695],[-4.332107,40.408419],[-4.321203,40.410385],[-4.326718,40.413574],[-4.323974,40.418339],[-4.323853,40.423732],[-4.331218,40.422583],[-4.334576,40.424724],[-4.335699,40.427376],[-4.341084,40.428424],[-4.339002,40.431704],[-4.340535,40.438016],[-4.338913,40.438214],[-4.338084,40.439904],[-4.334972,40.439701],[-4.331248,40.441172],[-4.335202,40.443335],[-4.33078,40.445106],[-4.332691,40.448724],[-4.322601,40.449431],[-4.319732,40.451973],[-4.320057,40.455671],[-4.325634,40.456628],[-4.325441,40.459776],[-4.324295,40.460595],[-4.318427,40.458486],[-4.318049,40.460013],[-4.3201,40.462495],[-4.31567,40.464763],[-4.318578,40.466233],[-4.317105,40.469013],[-4.320301,40.46981],[-4.319648,40.471013],[-4.323893,40.477604],[-4.324742,40.49312],[-4.32429,40.499259],[-4.322636,40.501625],[-4.324531,40.504303],[-4.324214,40.506484],[-4.327309,40.507086],[-4.327514,40.509355],[-4.323687,40.513131],[-4.322033,40.517176],[-4.320391,40.531584],[-4.328298,40.533822],[-4.323971,40.540434],[-4.324099,40.547672],[-4.323472,40.549718],[-4.316854,40.553251],[-4.312637,40.554054],[-4.311252,40.556961],[-4.297542,40.562394],[-4.289246,40.564146],[-4.288987,40.571277],[-4.286821,40.574482],[-4.285308,40.582838],[-4.281142,40.588871],[-4.283039,40.59016],[-4.283465,40.595667],[-4.278911,40.600757],[-4.278576,40.603291],[-4.284448,40.605987],[-4.288896,40.606475],[-4.290116,40.607772],[-4.28854,40.61711],[-4.289531,40.619172],[-4.288532,40.624848],[-4.28997,40.627995],[-4.279469,40.630543],[-4.274556,40.629294],[-4.272153,40.62884],[-4.266669,40.612694],[-4.262078,40.605546],[-4.257248,40.603881],[-4.244101,40.602363],[-4.215202,40.604932],[-4.192928,40.61329],[-4.176498,40.616316],[-4.161418,40.623492],[-4.163022,40.625684],[-4.168772,40.625914],[-4.173117,40.630276],[-4.170726,40.634191],[-4.17131,40.639843],[-4.167902,40.643814],[-4.168064,40.647913],[-4.169243,40.65009],[-4.166726,40.652733],[-4.168658,40.655758],[-4.169099,40.663488],[-4.173953,40.666665],[-4.173414,40.676624],[-4.171978,40.680294],[-4.167516,40.684946],[-4.160277,40.689865],[-4.1571,40.69213],[-4.15068,40.692738],[-4.144765,40.695454],[-4.145192,40.697906],[-4.136117,40.717619],[-4.129827,40.723633],[-4.125733,40.724391],[-4.125536,40.729022],[-4.120783,40.735673],[-4.110649,40.743907],[-4.104112,40.746987],[-4.096961,40.747658],[-4.093987,40.758963],[-4.096249,40.765185],[-4.080594,40.77689],[-4.076635,40.788878],[-4.070096,40.793867],[-4.069041,40.793212],[-4.047021,40.790298],[-4.042236,40.7838],[-4.036059,40.783502],[-4.032389,40.781592],[-4.021484,40.781265],[-4.014435,40.783201],[-4.008335,40.786972],[-4.002369,40.788434],[-3.989836,40.785515],[-3.984297,40.785897],[-3.979527,40.784494],[-3.978152,40.78733],[-3.979659,40.799843],[-3.975415,40.803896],[-3.974933,40.80745],[-3.967825,40.811924],[-3.962103,40.822097],[-3.965401,40.835257],[-3.96489,40.838451],[-3.963019,40.840322],[-3.962318,40.844309],[-3.957201,40.848181],[-3.94663,40.864753],[-3.94763,40.873338],[-3.943712,40.879028],[-3.942915,40.887277],[-3.94329,40.888652],[-3.948009,40.889082],[-3.952725,40.893475],[-3.945615,40.903559],[-3.942097,40.911642],[-3.937313,40.915932],[-3.937652,40.926456],[-3.929803,40.927048],[-3.921756,40.929951],[-3.920087,40.937727],[-3.917225,40.943151],[-3.911881,40.944697],[-3.912522,40.949183],[-3.909918,40.949763],[-3.907156,40.955149],[-3.904208,40.956544],[-3.898699,40.958322],[-3.89512,40.965556],[-3.890451,40.969058],[-3.88078,40.972786],[-3.880807,40.972959],[-3.880244,40.974662],[-3.87451,40.975009],[-3.868251,40.971743],[-3.859841,40.978984],[-3.847362,40.979421],[-3.847053,40.981222],[-3.844512,40.982368],[-3.843951,40.982532],[-3.839567,40.983812],[-3.835033,40.98426],[-3.830194,40.986406],[-3.821221,40.984789],[-3.814984,40.986287],[-3.809279,40.987994],[-3.803051,40.992371],[-3.784547,40.998957],[-3.781851,41.0002],[-3.770637,41.013184],[-3.767444,41.015877],[-3.766956,41.019019],[-3.759016,41.027097],[-3.7559,41.027849],[-3.748406,41.03664],[-3.743365,41.045376],[-3.739271,41.049771],[-3.739276,41.053863],[-3.739171,41.054053],[-3.73044,41.061453],[-3.725625,41.062502],[-3.721423,41.065033],[-3.715981,41.071639],[-3.715009,41.072405],[-3.706195,41.076861],[-3.69768,41.081877],[-3.687431,41.084942],[-3.679538,41.084231],[-3.676065,41.086697],[-3.672172,41.092002],[-3.652304,41.106476],[-3.646371,41.120023],[-3.64502,41.121292],[-3.64316,41.120634],[-3.634212,41.125761],[-3.634142,41.125816],[-3.633989,41.134886],[-3.61984,41.143168],[-3.614097,41.14736],[-3.613703,41.149053],[-3.604624,41.152259],[-3.600047,41.155383],[-3.598808,41.154341],[-3.591484,41.154545],[-3.590043,41.158289],[-3.582721,41.161421],[-3.569194,41.159508],[-3.558024,41.164397],[-3.550449,41.165701],[-3.539704,41.165011],[-3.536706,41.160576],[-3.537627,41.155333],[-3.5411,41.149667],[-3.533457,41.147142],[-3.5301,41.141627],[-3.526183,41.139149],[-3.516528,41.138803],[-3.515574,41.137536],[-3.509264,41.136395],[-3.505611,41.13032],[-3.501724,41.126734],[-3.499758,41.120074],[-3.495369,41.11599],[-3.494095,41.113546],[-3.495428,41.111876],[-3.493007,41.111307],[-3.494012,41.109875],[-3.492848,41.107031],[-3.489631,41.105514],[-3.489467,41.101621],[-3.490822,41.099651],[-3.490485,41.09728],[-3.488212,41.096508],[-3.488797,41.09433],[-3.483426,41.092944],[-3.474499,41.095143],[-3.474145,41.093218],[-3.456608,41.087091],[-3.455535,41.084107],[-3.448945,41.081803],[-3.44839,41.080636],[-3.445399,41.081076],[-3.444236,41.082435],[-3.439701,41.08107],[-3.435501,41.084022],[-3.430321,41.083605],[-3.429491,41.084446],[-3.425865,41.083424],[-3.427737,41.080812],[-3.426729,41.076374],[-3.425307,41.076115],[-3.426359,41.07185],[-3.425146,41.071656],[-3.427056,41.068989],[-3.426006,41.065662],[-3.431089,41.062404],[-3.431276,41.058339],[-3.435615,41.053711],[-3.43473,41.04946],[-3.438279,41.04678],[-3.438935,41.042669],[-3.431179,41.041669],[-3.422034,41.025993],[-3.412913,41.018711],[-3.407998,41.016341],[-3.399689,41.008361],[-3.397428,41.00674],[-3.394501,41.000253],[-3.400511,40.995739],[-3.418297,40.987563],[-3.416283,40.982518],[-3.418481,40.979527],[-3.416848,40.976953],[-3.41835,40.973384],[-3.421587,40.967283],[-3.42274,40.96584],[-3.428005,40.959883],[-3.432017,40.94946],[-3.43604,40.946128],[-3.436745,40.939759],[-3.435418,40.937562],[-3.437033,40.933497],[-3.448508,40.923058],[-3.448383,40.918717],[-3.451287,40.912865],[-3.445251,40.910051],[-3.444152,40.906723],[-3.450527,40.905351],[-3.458865,40.908311],[-3.460692,40.905819],[-3.457892,40.900751],[-3.461093,40.899678],[-3.458742,40.897532],[-3.456087,40.899263],[-3.453591,40.899263],[-3.45266,40.896498],[-3.448699,40.894694],[-3.445705,40.896198],[-3.442968,40.892693],[-3.439703,40.891301],[-3.444815,40.887245],[-3.44147,40.881517],[-3.440663,40.875217],[-3.44825,40.876431],[-3.452112,40.873493],[-3.458138,40.872089],[-3.47257,40.864217],[-3.471539,40.860653],[-3.465822,40.857039],[-3.470238,40.852063],[-3.475258,40.852163],[-3.476331,40.851284],[-3.469777,40.843065],[-3.47065,40.841682],[-3.479039,40.837956],[-3.476574,40.830227],[-3.476972,40.824511],[-3.482689,40.818868],[-3.482733,40.814577],[-3.491115,40.808384],[-3.491668,40.798735],[-3.494919,40.79665],[-3.499486,40.798867],[-3.502205,40.797634],[-3.503354,40.7955],[-3.502644,40.791155],[-3.504507,40.789175],[-3.502193,40.788348],[-3.498281,40.788881],[-3.497682,40.788794],[-3.48611,40.785011],[-3.467761,40.78431],[-3.45901,40.781324],[-3.457878,40.778493],[-3.450025,40.771652],[-3.446807,40.766447],[-3.447884,40.764101],[-3.446861,40.763751],[-3.444126,40.76106],[-3.444808,40.748128],[-3.446945,40.741432],[-3.450029,40.741046],[-3.451284,40.73825],[-3.448874,40.7331],[-3.441893,40.737578],[-3.43861,40.734979],[-3.433946,40.731716],[-3.437852,40.722405],[-3.442182,40.720028],[-3.446491,40.714362],[-3.454805,40.709137],[-3.456072,40.704158],[-3.461214,40.702084],[-3.460266,40.701861],[-3.463392,40.698209],[-3.462299,40.693004],[-3.46433,40.692305],[-3.46838,40.692962],[-3.468545,40.689937],[-3.456335,40.687934],[-3.448823,40.682587],[-3.449112,40.679366],[-3.447789,40.677473],[-3.442277,40.677976],[-3.441705,40.674207],[-3.435935,40.675328],[-3.426776,40.672375],[-3.425554,40.682377],[-3.419118,40.68032],[-3.415308,40.671797],[-3.409538,40.671861],[-3.409322,40.670809],[-3.404736,40.669636],[-3.40477,40.677698],[-3.400379,40.690662],[-3.393355,40.692458],[-3.385794,40.684143],[-3.383065,40.683321],[-3.374652,40.680112],[-3.372879,40.677632],[-3.371513,40.67241],[-3.372321,40.66911],[-3.36784,40.664851],[-3.367734,40.660678],[-3.362264,40.653729],[-3.365452,40.650735],[-3.36632,40.648031],[-3.362155,40.64583],[-3.355688,40.645353],[-3.345076,40.641687],[-3.346785,40.638068],[-3.338887,40.636308],[-3.338778,40.63767],[-3.337054,40.637744],[-3.337447,40.640981],[-3.332297,40.63946],[-3.329284,40.640846],[-3.327173,40.640587],[-3.325594,40.642567],[-3.322385,40.643814],[-3.32377,40.645043],[-3.316781,40.652709],[-3.316499,40.655176],[-3.313859,40.649743],[-3.320752,40.644145],[-3.322677,40.640633],[-3.324528,40.633803],[-3.323678,40.629686],[-3.331861,40.625916],[-3.337578,40.625441],[-3.335772,40.62466],[-3.335987,40.6234],[-3.328209,40.620213],[-3.321642,40.612164],[-3.325612,40.610935],[-3.325251,40.610057],[-3.331419,40.603944],[-3.329556,40.602619],[-3.330719,40.60092],[-3.327753,40.598928],[-3.330343,40.597369],[-3.328277,40.594836],[-3.321165,40.589682],[-3.316086,40.584073],[-3.308341,40.579124],[-3.302688,40.578288],[-3.297703,40.574398],[-3.29635,40.575207],[-3.28956,40.572158],[-3.28671,40.572569],[-3.284071,40.568976],[-3.287117,40.565158],[-3.283134,40.563619],[-3.288357,40.558607],[-3.284829,40.555717],[-3.286397,40.554151],[-3.283103,40.550964],[-3.285142,40.547624],[-3.29094,40.543916],[-3.297128,40.537521],[-3.289853,40.531748],[-3.284567,40.535689],[-3.281559,40.533721],[-3.280811,40.534985],[-3.278237,40.533489],[-3.274931,40.533542],[-3.274843,40.534811],[-3.270945,40.535496],[-3.26661,40.5381],[-3.258898,40.539998],[-3.256097,40.541873],[-3.251722,40.541983],[-3.249962,40.5444],[-3.246854,40.542076],[-3.241996,40.536326],[-3.231061,40.531832],[-3.229994,40.532401],[-3.232786,40.538006],[-3.231782,40.539391],[-3.227364,40.536321],[-3.226842,40.532135],[-3.222937,40.526087],[-3.207381,40.519574],[-3.200494,40.514966],[-3.198966,40.503902],[-3.201229,40.498752],[-3.202127,40.495374],[-3.197212,40.48553],[-3.195395,40.478408],[-3.200163,40.465576],[-3.198711,40.460174],[-3.200462,40.446336],[-3.198597,40.442252],[-3.177303,40.439194],[-3.172641,40.436262],[-3.169041,40.438788],[-3.155577,40.439425],[-3.150945,40.430959],[-3.15101,40.426437],[-3.147825,40.423577],[-3.147366,40.419587],[-3.142074,40.412457],[-3.130597,40.40512],[-3.134097,40.399749],[-3.135402,40.390105],[-3.143344,40.387534],[-3.143269,40.383779],[-3.141594,40.383088],[-3.140744,40.377779],[-3.138287,40.375542],[-3.150126,40.373422],[-3.149482,40.371694],[-3.15343,40.367703],[-3.150576,40.364862],[-3.149139,40.360289],[-3.143566,40.357852],[-3.143868,40.352986],[-3.141176,40.351643],[-3.141212,40.350542],[-3.146533,40.34987],[-3.147195,40.347196],[-3.149329,40.346704],[-3.14859,40.346011],[-3.150385,40.346185],[-3.152821,40.343299],[-3.155607,40.342463],[-3.151327,40.33817],[-3.152905,40.331584],[-3.162318,40.327394],[-3.162111,40.326134],[-3.167579,40.323455],[-3.180554,40.313454],[-3.182896,40.308082],[-3.182069,40.304556],[-3.18034,40.301933],[-3.181828,40.297606],[-3.180764,40.29134],[-3.186611,40.27896],[-3.186538,40.275334],[-3.183738,40.269865],[-3.189408,40.2632],[-3.197305,40.25767],[-3.195113,40.255249],[-3.19445,40.248037],[-3.195381,40.24762],[-3.183169,40.243399],[-3.178402,40.236244],[-3.173398,40.234169],[-3.170468,40.243693],[-3.16145,40.255292],[-3.155701,40.259421],[-3.153618,40.263675],[-3.150466,40.265256],[-3.143449,40.266366],[-3.128235,40.278762],[-3.112084,40.285625],[-3.109507,40.285186],[-3.107735,40.280296],[-3.102403,40.278535],[-3.098246,40.275079],[-3.095885,40.268855],[-3.09906,40.260483],[-3.092004,40.250921],[-3.087422,40.247253],[-3.086921,40.245269],[-3.089967,40.238693],[-3.086977,40.23377],[-3.07991,40.227762],[-3.080501,40.219011],[-3.082541,40.214435],[-3.079451,40.208549],[-3.081476,40.203968],[-3.088231,40.200318],[-3.084639,40.198376],[-3.086699,40.192352],[-3.084401,40.188686],[-3.08576,40.186146],[-3.08312,40.183926],[-3.077128,40.172511],[-3.077754,40.166167],[-3.070467,40.161868],[-3.067908,40.157672],[-3.071695,40.155988],[-3.078014,40.157112],[-3.083043,40.15941],[-3.082492,40.161754],[-3.085175,40.163639],[-3.089277,40.162971],[-3.097561,40.153915],[-3.097323,40.152391],[-3.093191,40.15051],[-3.096468,40.147387],[-3.096756,40.142389],[-3.094394,40.142719],[-3.092959,40.13883],[-3.092853,40.140415],[-3.090188,40.141608],[-3.088091,40.139824],[-3.089964,40.139757],[-3.088651,40.138605],[-3.085183,40.138854],[-3.082378,40.135119],[-3.077212,40.135578],[-3.077329,40.132633],[-3.072374,40.131137],[-3.074389,40.129421],[-3.073321,40.126851],[-3.071485,40.126675],[-3.072895,40.125472],[-3.070209,40.122562],[-3.064935,40.121979],[-3.065575,40.120326],[-3.067979,40.119649],[-3.067583,40.118524],[-3.065778,40.11838],[-3.064598,40.115904],[-3.061875,40.115309],[-3.061476,40.113311],[-3.056194,40.113744],[-3.056033,40.112195],[-3.057765,40.111454],[-3.05353,40.106499],[-3.054155,40.105228],[-3.056099,40.105724],[-3.056549,40.104889],[-3.053372,40.099144],[-3.062764,40.089017],[-3.07263,40.083135],[-3.088802,40.070594],[-3.095339,40.068387],[-3.112265,40.064471],[-3.11819,40.061428],[-3.140913,40.063205],[-3.149612,40.066022],[-3.158123,40.06448],[-3.161377,40.064873],[-3.161233,40.06918],[-3.162893,40.070853],[-3.161631,40.074749],[-3.163167,40.083708],[-3.168047,40.085138],[-3.166357,40.091021],[-3.175993,40.091355],[-3.178138,40.092207],[-3.180627,40.090176],[-3.180937,40.088088],[-3.176103,40.087367],[-3.177995,40.085299],[-3.180344,40.084295],[-3.183537,40.085557],[-3.185765,40.081761],[-3.188618,40.082499],[-3.189182,40.077374],[-3.199597,40.067684],[-3.207454,40.063829],[-3.205107,40.062047],[-3.20064,40.061938],[-3.202098,40.060103],[-3.204719,40.060059],[-3.208997,40.0628],[-3.228999,40.056045],[-3.243623,40.053419],[-3.245643,40.05946],[-3.245812,40.057042],[-3.248339,40.057206],[-3.249378,40.055922],[-3.254339,40.057993],[-3.257519,40.054439],[-3.257705,40.050394],[-3.262174,40.053281],[-3.262853,40.056719],[-3.264781,40.057101],[-3.266529,40.056351],[-3.266972,40.052786],[-3.271942,40.053365],[-3.273652,40.054702],[-3.274173,40.051845],[-3.272627,40.049391],[-3.275165,40.047313],[-3.283154,40.049046],[-3.283212,40.051557],[-3.28643,40.052334],[-3.287368,40.051546],[-3.289965,40.05274],[-3.292622,40.052238],[-3.297509,40.051699],[-3.302494,40.053313],[-3.308071,40.060667],[-3.31179,40.068254],[-3.315643,40.070242],[-3.319098,40.074188],[-3.332241,40.080482],[-3.345027,40.080107],[-3.349943,40.077729],[-3.361894,40.075265],[-3.377708,40.074767],[-3.379129,40.066166],[-3.377671,40.062284],[-3.374735,40.059615],[-3.374302,40.055032],[-3.375918,40.05046],[-3.37643,40.049818],[-3.38521,40.051862],[-3.386539,40.049812],[-3.391659,40.048322],[-3.394188,40.04531],[-3.394079,40.04235],[-3.391444,40.0409],[-3.394179,40.035506],[-3.402263,40.034313],[-3.409643,40.037506],[-3.408328,40.040054],[-3.409939,40.041795],[-3.414478,40.04215],[-3.41762,40.045052],[-3.422057,40.045124],[-3.424812,40.046922],[-3.426248,40.046345],[-3.430351,40.038357],[-3.440152,40.039037],[-3.445967,40.037229],[-3.447865,40.038544],[-3.448621,40.042689],[-3.446794,40.047992],[-3.448329,40.049764],[-3.45078,40.049205],[-3.456488,40.050021],[-3.454904,40.047739],[-3.455561,40.046421],[-3.460567,40.04528],[-3.470068,40.040702],[-3.47311,40.041918],[-3.472555,40.045998],[-3.478845,40.044782],[-3.483301,40.046015],[-3.485242,40.044484],[-3.485749,40.041926],[-3.488567,40.041318],[-3.490593,40.04758],[-3.495652,40.047575],[-3.499583,40.045014],[-3.503797,40.046198],[-3.506114,40.048786],[-3.507461,40.048135],[-3.507236,40.044402],[-3.511542,40.045812],[-3.510566,40.042872],[-3.515197,40.043282],[-3.517292,40.040124],[-3.517191,40.036472],[-3.521998,40.026008],[-3.519883,40.020875],[-3.530577,40.018095],[-3.550738,40.017702],[-3.574688,40.015614],[-3.575233,40.013696],[-3.5833,40.012713],[-3.589996,40.013172],[-3.595329,40.001141],[-3.610344,39.998241],[-3.615617,39.993953],[-3.622474,39.991045],[-3.629264,39.992633],[-3.637946,39.988352],[-3.631029,39.968688],[-3.633953,39.968994],[-3.6345,39.965892],[-3.660118,39.966069],[-3.665956,39.963508],[-3.677645,39.96077],[-3.683395,39.955461],[-3.69759,39.946718],[-3.711107,39.954709],[-3.730578,39.944424],[-3.743871,39.940802],[-3.74846,39.929416],[-3.756584,39.921112],[-3.769998,39.914637],[-3.771334,39.915319],[-3.778798,39.910855],[-3.789779,39.899117],[-3.806421,39.887389],[-3.804455,39.884795],[-3.814836,39.885803],[-3.814871,39.885827],[-3.834549,39.89996],[-3.844879,39.902633],[-3.859773,39.902534],[-3.865438,39.903594],[-3.868927,39.905269],[-3.869691,39.907664],[-3.873143,39.909036],[-3.875395,39.910726],[-3.867448,39.917038],[-3.875691,39.927733],[-3.873925,39.929822],[-3.867444,39.932124],[-3.866887,39.931297],[-3.853157,39.939335],[-3.839022,39.942402],[-3.837619,39.941062],[-3.837077,39.930218],[-3.832683,39.929745],[-3.8299,39.931918],[-3.828497,39.941786],[-3.824765,39.946761],[-3.821988,39.946561],[-3.818326,39.946704],[-3.813958,39.95251],[-3.807313,39.954836],[-3.804804,39.954556],[-3.802336,39.952681],[-3.802338,39.947843],[-3.801069,39.946464],[-3.796233,39.948399],[-3.790719,39.946265],[-3.787011,39.946525],[-3.785662,39.949399],[-3.788656,39.954172],[-3.774449,39.958871],[-3.769102,39.959168],[-3.763603,39.967518],[-3.757974,39.958322],[-3.769133,39.954938],[-3.770704,39.952952],[-3.770486,39.950552],[-3.765631,39.947198],[-3.754371,39.950444],[-3.751482,39.952788],[-3.751424,39.957901],[-3.758817,39.968886],[-3.753083,39.967387],[-3.749381,39.963054],[-3.740841,39.961551],[-3.73294,39.962853],[-3.725106,39.9672],[-3.724225,39.970242],[-3.72666,39.972014],[-3.728879,39.97224],[-3.731329,39.969408],[-3.737156,39.968441],[-3.739263,39.969456],[-3.741232,39.970759],[-3.746741,39.980335],[-3.74385,39.982383],[-3.739286,39.98173],[-3.734938,39.975779],[-3.73372,39.979393],[-3.735799,39.982087],[-3.735497,39.984634],[-3.733216,39.986484],[-3.729682,39.986831],[-3.727382,39.989728],[-3.72291,39.987756],[-3.723956,39.997598],[-3.721745,40.001106],[-3.715723,40.003359],[-3.713857,40.004759],[-3.711697,40.009917],[-3.699305,40.019561],[-3.6964,40.020831],[-3.687034,40.021661],[-3.68564,40.018228],[-3.680533,40.015793],[-3.67592,40.021851],[-3.669741,40.025703],[-3.667873,40.028667],[-3.667524,40.034067],[-3.661764,40.03708],[-3.657337,40.036597],[-3.654172,40.032047],[-3.649645,40.032188],[-3.649235,40.038806],[-3.647284,40.041619],[-3.645141,40.041962],[-3.639314,40.040222],[-3.63555,40.042398],[-3.635393,40.04346],[-3.639722,40.046755],[-3.639442,40.050363],[-3.630682,40.053849],[-3.623932,40.053755],[-3.620127,40.057007],[-3.620062,40.058011],[-3.624282,40.06062],[-3.622403,40.063928],[-3.617502,40.066633],[-3.617262,40.068679],[-3.627901,40.075142],[-3.628954,40.078329],[-3.62332,40.081208],[-3.619239,40.079901],[-3.610696,40.081941],[-3.609694,40.083239],[-3.603902,40.093517],[-3.60582,40.095561],[-3.611196,40.094515],[-3.614361,40.099525],[-3.60932,40.103822],[-3.606715,40.109205],[-3.621124,40.115144],[-3.621882,40.113292],[-3.628943,40.117735],[-3.640989,40.120464],[-3.648202,40.124304],[-3.655903,40.125056],[-3.656804,40.127881],[-3.660623,40.12836],[-3.663884,40.132712],[-3.665868,40.135358],[-3.667185,40.14336],[-3.678081,40.138942],[-3.68366,40.13244],[-3.694995,40.133797],[-3.712709,40.141818],[-3.711949,40.14269],[-3.717949,40.146402],[-3.720661,40.147951],[-3.72849,40.144515],[-3.742137,40.134175],[-3.745676,40.132639],[-3.766586,40.13839],[-3.771871,40.139576],[-3.772428,40.142086],[-3.777844,40.146608],[-3.778994,40.155817],[-3.78431,40.162701],[-3.800054,40.175652],[-3.801365,40.17582],[-3.8068,40.177302],[-3.810332,40.169088],[-3.817556,40.17127],[-3.834183,40.16131],[-3.840868,40.162599],[-3.852795,40.169301],[-3.851486,40.177507],[-3.85344,40.179398],[-3.868032,40.188624],[-3.876246,40.191106],[-3.877748,40.188221],[-3.883267,40.189008],[-3.884698,40.189708],[-3.894424,40.188733],[-3.902104,40.190803],[-3.904974,40.189692],[-3.911871,40.190171],[-3.917343,40.192274],[-3.925088,40.200068],[-3.927815,40.202672],[-3.930995,40.203964],[-3.935836,40.202658],[-3.938662,40.203603],[-3.938629,40.203228],[-3.940133,40.201242],[-3.940985,40.201644],[-3.942819,40.196221],[-3.947712,40.192978],[-3.948701,40.193077],[-3.949151,40.199532],[-3.950752,40.196813],[-3.956282,40.199072]],[[-3.363667,40.631602],[-3.363608,40.63842],[-3.372667,40.638926],[-3.374051,40.640248],[-3.374847,40.638486],[-3.372261,40.635611],[-3.380258,40.632854],[-3.382137,40.63047],[-3.376792,40.628745],[-3.374444,40.626137],[-3.371731,40.625768],[-3.369378,40.627943],[-3.368163,40.632525],[-3.363667,40.631602]]],[[[-4.317407,40.666934],[-4.294298,40.676528],[-4.288125,40.683172],[-4.284401,40.682216],[-4.275011,40.676523],[-4.267408,40.674543],[-4.259852,40.665748],[-4.254461,40.662069],[-4.254107,40.658665],[-4.256046,40.651401],[-4.267368,40.653161],[-4.281544,40.653157],[-4.301925,40.651245],[-4.31971,40.647512],[-4.32341,40.652244],[-4.324773,40.657724],[-4.318605,40.661704],[-4.317407,40.666934]]]]}}
]
}
