{
"type": "FeatureCollection",
"name": "cod_prov_32",
"crs": { "type": "name", "properties": { "name": "urn:ogc:def:crs:OGC:1.3:CRS84" } },
"xy_coordinate_resolution": 1e-15,
"features": [
{"type":"Feature","properties":{"fid":25,"cod_ccaa":"12","provincia":"Ourense","cod_prov":"32"},"geometry":{"type":"MultiPolygon","coordinates":[[[[-7.989888,41.859328],[-7.994969,41.857919],[-7.994876,41.852557],[-7.996875,41.850858],[-8.002171,41.85006],[-8.005369,41.846769],[-8.007658,41.838152],[-8.012121,41.8335],[-8.01362,41.828807],[-8.017365,41.831128],[-8.030263,41.82905],[-8.034591,41.830669],[-8.037369,41.830484],[-8.04153,41.827681],[-8.041362,41.825078],[-8.046728,41.82368],[-8.047407,41.822057],[-8.052249,41.820574],[-8.053697,41.821077],[-8.057894,41.816156],[-8.064688,41.81745],[-8.073533,41.813484],[-8.078913,41.813957],[-8.078757,41.812748],[-8.084974,41.811167],[-8.087303,41.813062],[-8.093162,41.811227],[-8.094219,41.808938],[-8.101202,41.810032],[-8.105997,41.812528],[-8.114481,41.811321],[-8.117535,41.812193],[-8.123621,41.808833],[-8.130306,41.808921],[-8.152852,41.817695],[-8.165462,41.818262],[-8.162052,41.86063],[-8.166483,41.862104],[-8.170958,41.879035],[-8.177101,41.876498],[-8.181744,41.876117],[-8.183197,41.874871],[-8.192715,41.876826],[-8.200075,41.874007],[-8.200894,41.878445],[-8.197916,41.879894],[-8.201083,41.883288],[-8.200335,41.884763],[-8.201705,41.887527],[-8.2056,41.89349],[-8.212184,41.897395],[-8.215078,41.897867],[-8.214072,41.900604],[-8.216813,41.904801],[-8.215865,41.907653],[-8.217376,41.913616],[-8.213116,41.91769],[-8.211169,41.923514],[-8.207768,41.924388],[-8.205676,41.926518],[-8.203051,41.932471],[-8.198601,41.938084],[-8.198698,41.939727],[-8.192686,41.943637],[-8.18961,41.947486],[-8.181812,41.951692],[-8.180311,41.953858],[-8.175596,41.955053],[-8.177072,41.958821],[-8.17469,41.962323],[-8.170035,41.963226],[-8.169964,41.965921],[-8.163543,41.975556],[-8.163831,41.982692],[-8.140949,41.988772],[-8.130604,42.003569],[-8.127952,42.005407],[-8.124855,42.006365],[-8.1152,42.004591],[-8.110282,42.007233],[-8.099539,42.009189],[-8.09471,42.012807],[-8.092838,42.012044],[-8.085819,42.016965],[-8.083293,42.028422],[-8.084649,42.047358],[-8.087326,42.053334],[-8.08926,42.058938],[-8.09725,42.071799],[-8.104893,42.074582],[-8.118875,42.082096],[-8.124507,42.08314],[-8.138087,42.076067],[-8.149463,42.079859],[-8.159336,42.076579],[-8.17181,42.067715],[-8.176695,42.066567],[-8.182674,42.066845],[-8.187658,42.074614],[-8.184697,42.07861],[-8.186463,42.081582],[-8.187346,42.088547],[-8.186322,42.097029],[-8.193555,42.127797],[-8.189335,42.135046],[-8.19162,42.140353],[-8.189246,42.143711],[-8.192468,42.142872],[-8.196183,42.148204],[-8.196169,42.150833],[-8.199401,42.154395],[-8.190223,42.156964],[-8.185759,42.156527],[-8.182021,42.157723],[-8.176404,42.16436],[-8.174668,42.171101],[-8.1719,42.172469],[-8.166693,42.172731],[-8.161629,42.178613],[-8.162111,42.181409],[-8.174911,42.183838],[-8.176406,42.185688],[-8.177869,42.194994],[-8.17486,42.202161],[-8.175138,42.203778],[-8.179735,42.207576],[-8.180047,42.209903],[-8.184869,42.210377],[-8.189806,42.207525],[-8.192624,42.209107],[-8.19066,42.212915],[-8.18347,42.216941],[-8.174083,42.22004],[-8.167279,42.220077],[-8.164967,42.221424],[-8.162706,42.227252],[-8.172109,42.231149],[-8.173033,42.235176],[-8.170114,42.239476],[-8.160192,42.245119],[-8.162205,42.244101],[-8.165388,42.245992],[-8.168598,42.246126],[-8.184016,42.243384],[-8.188063,42.24456],[-8.203809,42.244502],[-8.207571,42.241927],[-8.21248,42.235789],[-8.223354,42.233231],[-8.23305,42.233427],[-8.235221,42.235515],[-8.239609,42.23977],[-8.242027,42.244971],[-8.250827,42.245297],[-8.258188,42.249451],[-8.260739,42.252286],[-8.264942,42.252849],[-8.268959,42.263512],[-8.268329,42.271932],[-8.273265,42.2824],[-8.270719,42.282985],[-8.267743,42.287264],[-8.266836,42.298757],[-8.264162,42.302175],[-8.261922,42.308895],[-8.262307,42.314963],[-8.273275,42.314413],[-8.278047,42.317505],[-8.28195,42.316452],[-8.285167,42.317645],[-8.285262,42.32008],[-8.289135,42.322133],[-8.291811,42.326979],[-8.303338,42.334925],[-8.305596,42.33997],[-8.311572,42.34378],[-8.317099,42.343406],[-8.325064,42.345034],[-8.325734,42.349513],[-8.325426,42.35203],[-8.320931,42.352419],[-8.317823,42.356282],[-8.323292,42.363815],[-8.323338,42.365802],[-8.324864,42.369197],[-8.31761,42.375287],[-8.315067,42.380969],[-8.317506,42.382818],[-8.330659,42.420611],[-8.338626,42.433419],[-8.339544,42.441352],[-8.336207,42.44799],[-8.339857,42.452879],[-8.340722,42.455179],[-8.339393,42.45742],[-8.340837,42.459954],[-8.342563,42.465932],[-8.348343,42.468839],[-8.366708,42.487334],[-8.352985,42.480748],[-8.342437,42.48442],[-8.340915,42.48739],[-8.340855,42.492389],[-8.33462,42.491168],[-8.3232,42.494914],[-8.316733,42.49454],[-8.312672,42.495431],[-8.303093,42.490196],[-8.291739,42.496043],[-8.288917,42.503105],[-8.286708,42.503739],[-8.284934,42.506071],[-8.275127,42.508379],[-8.275015,42.513687],[-8.27298,42.515248],[-8.271732,42.520653],[-8.267307,42.520992],[-8.264098,42.525669],[-8.250955,42.53091],[-8.248903,42.533435],[-8.246142,42.533462],[-8.239589,42.538346],[-8.23576,42.538845],[-8.22677,42.538492],[-8.217946,42.533844],[-8.20727,42.543046],[-8.204845,42.545497],[-8.204149,42.548689],[-8.19971,42.551826],[-8.195632,42.552426],[-8.19046,42.555541],[-8.184679,42.556893],[-8.188695,42.56214],[-8.186835,42.565114],[-8.180757,42.567163],[-8.179142,42.569424],[-8.174225,42.571961],[-8.166228,42.565111],[-8.162047,42.557405],[-8.157101,42.555468],[-8.149719,42.550408],[-8.1472,42.548658],[-8.136015,42.554338],[-8.130182,42.552403],[-8.113336,42.554563],[-8.111855,42.555817],[-8.095827,42.553689],[-8.092374,42.557192],[-8.08982,42.557683],[-8.077917,42.553262],[-8.065187,42.552305],[-8.059743,42.548675],[-8.055919,42.550924],[-8.053063,42.550996],[-8.0488,42.554894],[-8.041709,42.550922],[-8.03902,42.551707],[-8.035163,42.550679],[-8.031793,42.545579],[-8.027965,42.544001],[-8.018994,42.542208],[-8.016769,42.542702],[-8.013773,42.544814],[-8.012215,42.551949],[-8.002815,42.558645],[-8.00316,42.56143],[-8.001024,42.566547],[-7.992851,42.572487],[-7.989653,42.572248],[-7.986702,42.571288],[-7.973607,42.566385],[-7.965257,42.566604],[-7.961591,42.567213],[-7.957852,42.569365],[-7.949615,42.570857],[-7.944852,42.573935],[-7.931114,42.578589],[-7.928368,42.578518],[-7.925506,42.572357],[-7.921613,42.568402],[-7.917795,42.561679],[-7.911922,42.556061],[-7.901197,42.553938],[-7.890407,42.550187],[-7.889097,42.538116],[-7.894497,42.539289],[-7.901381,42.536248],[-7.902453,42.535014],[-7.900602,42.531591],[-7.903123,42.528971],[-7.907841,42.530929],[-7.912353,42.527314],[-7.92437,42.525032],[-7.901966,42.52135],[-7.90305,42.514524],[-7.91109,42.512459],[-7.913544,42.508375],[-7.905616,42.50659],[-7.900437,42.506957],[-7.897182,42.505638],[-7.894538,42.508542],[-7.890063,42.510759],[-7.878493,42.511559],[-7.875778,42.510937],[-7.879921,42.506322],[-7.878257,42.502612],[-7.875342,42.501899],[-7.866481,42.50405],[-7.861862,42.504102],[-7.848216,42.498218],[-7.845489,42.498351],[-7.843212,42.496755],[-7.842449,42.490503],[-7.828657,42.493382],[-7.824331,42.490603],[-7.819156,42.491649],[-7.811037,42.487787],[-7.807204,42.481115],[-7.800163,42.480015],[-7.78519,42.486063],[-7.784431,42.48839],[-7.779998,42.491988],[-7.773798,42.494597],[-7.772164,42.494233],[-7.765391,42.493948],[-7.761721,42.488564],[-7.758046,42.48679],[-7.755659,42.487709],[-7.753076,42.486853],[-7.753119,42.484699],[-7.748674,42.479977],[-7.751285,42.479112],[-7.753297,42.475977],[-7.760186,42.476365],[-7.761504,42.478507],[-7.764453,42.478898],[-7.77396,42.476935],[-7.782032,42.472105],[-7.788716,42.473472],[-7.791284,42.470952],[-7.788618,42.468048],[-7.789263,42.465986],[-7.784038,42.468581],[-7.781644,42.468132],[-7.776019,42.460373],[-7.766168,42.456831],[-7.7645,42.458242],[-7.760627,42.453515],[-7.753095,42.451019],[-7.739537,42.456623],[-7.730989,42.45445],[-7.730705,42.453925],[-7.727168,42.454146],[-7.720464,42.45247],[-7.713539,42.452368],[-7.706313,42.445184],[-7.701843,42.432574],[-7.698237,42.429535],[-7.68228,42.422536],[-7.672009,42.421687],[-7.663945,42.423172],[-7.662074,42.42257],[-7.657295,42.415156],[-7.6478,42.413931],[-7.639512,42.408983],[-7.631776,42.407045],[-7.629023,42.40216],[-7.629625,42.397796],[-7.628556,42.395498],[-7.624103,42.392086],[-7.62053,42.385451],[-7.617014,42.384215],[-7.602522,42.38931],[-7.595528,42.396812],[-7.576485,42.404859],[-7.572279,42.404325],[-7.566027,42.401055],[-7.56005,42.394684],[-7.549875,42.387013],[-7.536283,42.383352],[-7.514406,42.385592],[-7.5015,42.388702],[-7.495881,42.39284],[-7.4853,42.397586],[-7.480068,42.401212],[-7.471305,42.403383],[-7.466191,42.407148],[-7.462596,42.407847],[-7.449266,42.407133],[-7.447525,42.407064],[-7.444068,42.408668],[-7.435349,42.416204],[-7.424559,42.419505],[-7.411924,42.426013],[-7.402103,42.429353],[-7.401929,42.430458],[-7.403666,42.431042],[-7.401297,42.435],[-7.39961,42.435551],[-7.395123,42.433788],[-7.389034,42.433445],[-7.376986,42.427298],[-7.370265,42.421352],[-7.358986,42.426581],[-7.349579,42.427281],[-7.346408,42.42624],[-7.348571,42.429039],[-7.3446,42.429622],[-7.33537,42.428307],[-7.332888,42.427213],[-7.324237,42.427774],[-7.318056,42.426261],[-7.315762,42.427896],[-7.309707,42.429448],[-7.304854,42.428865],[-7.297093,42.42343],[-7.291189,42.414576],[-7.27581,42.411956],[-7.26979,42.414918],[-7.265232,42.407551],[-7.260636,42.405715],[-7.260205,42.40312],[-7.256234,42.399918],[-7.25402,42.395201],[-7.248171,42.389899],[-7.239355,42.390289],[-7.233365,42.391709],[-7.232879,42.390799],[-7.220429,42.38718],[-7.218201,42.38475],[-7.224392,42.383261],[-7.230017,42.376607],[-7.227311,42.370845],[-7.228576,42.364379],[-7.231218,42.361598],[-7.231295,42.359137],[-7.218032,42.336937],[-7.214776,42.333446],[-7.203034,42.325693],[-7.20215,42.329183],[-7.198422,42.332958],[-7.194307,42.344615],[-7.196099,42.352563],[-7.190878,42.364037],[-7.182679,42.365624],[-7.186072,42.371362],[-7.182091,42.376324],[-7.177742,42.376294],[-7.172216,42.379224],[-7.168081,42.392502],[-7.167704,42.393425],[-7.166425,42.393184],[-7.164732,42.401916],[-7.166564,42.404443],[-7.162541,42.409559],[-7.158958,42.41104],[-7.158811,42.413233],[-7.147239,42.42182],[-7.150559,42.42332],[-7.151992,42.426429],[-7.152199,42.431959],[-7.149632,42.436149],[-7.137714,42.441784],[-7.131231,42.440992],[-7.130214,42.446584],[-7.12379,42.448743],[-7.121525,42.451832],[-7.11267,42.457337],[-7.100106,42.458778],[-7.100638,42.467853],[-7.093702,42.47245],[-7.084676,42.490168],[-7.076551,42.496743],[-7.077418,42.508183],[-7.074182,42.506704],[-7.060241,42.506597],[-7.052244,42.508636],[-7.04403,42.507226],[-7.033007,42.504336],[-7.029049,42.497858],[-7.01999,42.501553],[-7.004821,42.503922],[-7.00132,42.505692],[-7.001145,42.501998],[-6.9977,42.499489],[-6.981059,42.493442],[-6.973916,42.494005],[-6.966378,42.51196],[-6.960874,42.51749],[-6.934874,42.51945],[-6.932195,42.520543],[-6.92624,42.519338],[-6.925054,42.519438],[-6.914792,42.51047],[-6.916538,42.50842],[-6.913281,42.507118],[-6.909882,42.508234],[-6.906317,42.507852],[-6.897201,42.50393],[-6.876781,42.499195],[-6.860064,42.488757],[-6.848811,42.486975],[-6.840392,42.489365],[-6.837391,42.495579],[-6.833821,42.493322],[-6.832727,42.492134],[-6.828236,42.493311],[-6.822782,42.490855],[-6.825473,42.485705],[-6.818645,42.481872],[-6.814742,42.473889],[-6.808391,42.469058],[-6.811452,42.461177],[-6.822034,42.454431],[-6.822768,42.452912],[-6.820058,42.439532],[-6.821781,42.433297],[-6.820241,42.430765],[-6.814273,42.427353],[-6.824807,42.425894],[-6.820961,42.421412],[-6.828918,42.41677],[-6.830385,42.413119],[-6.829818,42.410203],[-6.831285,42.408353],[-6.838066,42.409161],[-6.843513,42.405845],[-6.841558,42.402876],[-6.838071,42.401688],[-6.833573,42.395454],[-6.82737,42.39414],[-6.82348,42.391893],[-6.820805,42.385643],[-6.817836,42.386355],[-6.809583,42.384667],[-6.802252,42.386351],[-6.801885,42.383698],[-6.795905,42.382006],[-6.787984,42.382574],[-6.781543,42.381707],[-6.774156,42.378826],[-6.768948,42.372983],[-6.766543,42.365048],[-6.757841,42.367558],[-6.753954,42.364471],[-6.749572,42.362859],[-6.741687,42.360118],[-6.733954,42.35911],[-6.737516,42.346298],[-6.739033,42.344862],[-6.738229,42.340107],[-6.740501,42.328696],[-6.736882,42.325158],[-6.734292,42.318687],[-6.739441,42.321662],[-6.736432,42.3186],[-6.736156,42.311063],[-6.743168,42.303288],[-6.741147,42.298663],[-6.75047,42.291046],[-6.754441,42.283992],[-6.758797,42.280373],[-6.765949,42.270972],[-6.76476,42.267913],[-6.766464,42.264778],[-6.766998,42.257458],[-6.771256,42.25467],[-6.774099,42.254171],[-6.775903,42.255562],[-6.784319,42.253618],[-6.787565,42.254177],[-6.794153,42.249448],[-6.792956,42.24666],[-6.795883,42.242322],[-6.801449,42.240769],[-6.803176,42.238667],[-6.800646,42.232862],[-6.795019,42.227718],[-6.795021,42.224531],[-6.790991,42.218334],[-6.787141,42.215724],[-6.794766,42.212194],[-6.796709,42.20905],[-6.802337,42.218462],[-6.81596,42.220791],[-6.82974,42.226094],[-6.837915,42.226442],[-6.843601,42.228304],[-6.856748,42.227142],[-6.867987,42.223116],[-6.869867,42.223746],[-6.878245,42.219519],[-6.877738,42.218356],[-6.886892,42.214354],[-6.893284,42.207204],[-6.888801,42.201854],[-6.901079,42.189623],[-6.911076,42.188391],[-6.914773,42.189426],[-6.938316,42.177435],[-6.943514,42.172259],[-6.941175,42.169296],[-6.941024,42.166861],[-6.946623,42.145589],[-6.944553,42.141681],[-6.947768,42.138905],[-6.94901,42.135737],[-6.956422,42.129458],[-6.964718,42.128648],[-6.974411,42.124459],[-6.981549,42.123337],[-6.986429,42.124194],[-6.989816,42.121312],[-6.988828,42.117528],[-6.990962,42.115104],[-6.988877,42.111953],[-6.989242,42.107942],[-6.992331,42.10534],[-6.990027,42.102539],[-6.990338,42.101133],[-6.992922,42.098963],[-6.994599,42.09967],[-6.995107,42.101597],[-6.997167,42.101291],[-7.002704,42.096668],[-7.002427,42.091509],[-7.000392,42.089707],[-7.003076,42.087983],[-7.002691,42.08417],[-7.006357,42.083844],[-7.01248,42.085097],[-7.017715,42.081105],[-7.020043,42.08313],[-7.033244,42.07458],[-7.034043,42.071554],[-7.031006,42.063296],[-7.025907,42.062718],[-7.022056,42.060873],[-7.016149,42.054768],[-7.011832,42.052416],[-6.994687,42.051439],[-6.974792,42.055157],[-6.973101,42.039106],[-6.964671,42.033681],[-6.964571,42.031505],[-6.961139,42.027203],[-6.96645,42.023849],[-6.966449,42.02131],[-6.969014,42.018871],[-6.970487,42.01403],[-6.97631,42.009047],[-6.979513,42.00021],[-6.987062,41.996994],[-6.986481,41.994844],[-6.991108,41.988344],[-6.991175,41.98402],[-6.983529,41.972895],[-6.984596,41.970893],[-6.986174,41.971432],[-6.989581,41.967649],[-6.993975,41.966325],[-6.999849,41.962447],[-7.006592,41.950505],[-7.017635,41.949452],[-7.036483,41.951095],[-7.042092,41.953194],[-7.041457,41.954026],[-7.042776,41.955033],[-7.046281,41.954757],[-7.046101,41.953448],[-7.049053,41.950733],[-7.052434,41.949272],[-7.059044,41.949461],[-7.060545,41.951245],[-7.066869,41.94903],[-7.073874,41.950303],[-7.077201,41.952166],[-7.084423,41.963803],[-7.087918,41.973908],[-7.115734,41.983681],[-7.120205,41.986933],[-7.133038,41.987741],[-7.141639,41.990834],[-7.151896,41.986527],[-7.154777,41.979805],[-7.158318,41.976372],[-7.162003,41.977373],[-7.164444,41.979643],[-7.177466,41.980024],[-7.18005,41.97894],[-7.185102,41.972443],[-7.187021,41.96987],[-7.184947,41.961239],[-7.187522,41.956904],[-7.186046,41.956111],[-7.183794,41.956905],[-7.181933,41.951696],[-7.187362,41.947302],[-7.183844,41.944783],[-7.190279,41.941748],[-7.186804,41.941362],[-7.18627,41.938365],[-7.183363,41.937436],[-7.184768,41.936052],[-7.183896,41.933427],[-7.179948,41.931689],[-7.178194,41.925522],[-7.176018,41.923036],[-7.178857,41.922203],[-7.178669,41.920796],[-7.17386,41.91953],[-7.18216,41.913708],[-7.18299,41.91203],[-7.182145,41.907946],[-7.184565,41.904598],[-7.185029,41.898233],[-7.197648,41.880052],[-7.205367,41.879264],[-7.208823,41.880515],[-7.213693,41.878166],[-7.219506,41.873324],[-7.231572,41.868864],[-7.233017,41.867217],[-7.23706,41.868778],[-7.241694,41.868354],[-7.244086,41.869193],[-7.252003,41.867225],[-7.269818,41.86107],[-7.278115,41.856898],[-7.283655,41.852568],[-7.301241,41.851882],[-7.310718,41.844359],[-7.316167,41.84283],[-7.321412,41.844721],[-7.339728,41.845083],[-7.356621,41.840102],[-7.364186,41.852708],[-7.384075,41.843639],[-7.386439,41.841576],[-7.390367,41.842317],[-7.390319,41.838808],[-7.395249,41.832217],[-7.394681,41.829726],[-7.39717,41.826705],[-7.402384,41.825487],[-7.402159,41.822218],[-7.407933,41.817432],[-7.414719,41.814235],[-7.41627,41.811591],[-7.420976,41.811419],[-7.427648,41.80747],[-7.429557,41.812114],[-7.424441,41.816642],[-7.430104,41.82143],[-7.430622,41.823184],[-7.429812,41.825223],[-7.426612,41.82577],[-7.425471,41.827551],[-7.427107,41.832936],[-7.434683,41.835245],[-7.441774,41.839589],[-7.444495,41.839763],[-7.448021,41.84493],[-7.449328,41.853],[-7.446582,41.856816],[-7.445822,41.857674],[-7.453158,41.865133],[-7.465643,41.863314],[-7.474675,41.863808],[-7.485386,41.861274],[-7.491348,41.871404],[-7.502498,41.869625],[-7.511407,41.86561],[-7.5135,41.862151],[-7.510935,41.857552],[-7.507597,41.855468],[-7.505764,41.850462],[-7.521442,41.841912],[-7.539229,41.836509],[-7.542256,41.837083],[-7.544891,41.835538],[-7.549133,41.835757],[-7.551202,41.834045],[-7.559399,41.83452],[-7.574525,41.829866],[-7.57674,41.830867],[-7.589374,41.831451],[-7.599331,41.833141],[-7.613945,41.829267],[-7.615552,41.832696],[-7.612718,41.846351],[-7.610206,41.84909],[-7.607038,41.84857],[-7.60752,41.85343],[-7.600686,41.861403],[-7.600276,41.864075],[-7.602685,41.86659],[-7.599754,41.868877],[-7.590788,41.871515],[-7.588603,41.874312],[-7.585049,41.875652],[-7.584977,41.876997],[-7.584038,41.878862],[-7.586625,41.882018],[-7.588454,41.879622],[-7.591472,41.880545],[-7.607933,41.879416],[-7.612896,41.881422],[-7.616342,41.884759],[-7.619994,41.884612],[-7.626071,41.880171],[-7.633307,41.879599],[-7.654205,41.881363],[-7.663754,41.886575],[-7.668998,41.893538],[-7.678316,41.893581],[-7.682754,41.896424],[-7.688494,41.902555],[-7.697546,41.907496],[-7.704465,41.907825],[-7.722709,41.900754],[-7.729987,41.89633],[-7.73501,41.894673],[-7.745592,41.893398],[-7.750334,41.89511],[-7.754241,41.898702],[-7.764275,41.899285],[-7.778719,41.887276],[-7.787238,41.88439],[-7.792671,41.883254],[-7.800527,41.88342],[-7.80296,41.88212],[-7.820572,41.881615],[-7.831057,41.880057],[-7.845336,41.881524],[-7.8437,41.875984],[-7.84442,41.874045],[-7.842349,41.869757],[-7.845967,41.863932],[-7.849323,41.86244],[-7.858569,41.862858],[-7.865188,41.859939],[-7.869595,41.854539],[-7.876843,41.849459],[-7.881232,41.8557],[-7.887949,41.856296],[-7.892285,41.85992],[-7.888097,41.86659],[-7.888366,41.869945],[-7.884637,41.881386],[-7.887519,41.907741],[-7.883835,41.918676],[-7.884744,41.924417],[-7.887995,41.927042],[-7.90614,41.927356],[-7.909328,41.922871],[-7.909851,41.906939],[-7.915617,41.895717],[-7.920536,41.882748],[-7.919363,41.881277],[-7.921333,41.879013],[-7.923083,41.879677],[-7.937145,41.875344],[-7.94397,41.871538],[-7.948598,41.870942],[-7.95442,41.871924],[-7.956825,41.875295],[-7.969865,41.873974],[-7.971335,41.876143],[-7.981219,41.872355],[-7.989127,41.867635],[-7.989888,41.859328]]]]}}
]
}
