{
"type": "FeatureCollection",
"name": "cod_prov_45",
"crs": { "type": "name", "properties": { "name": "urn:ogc:def:crs:OGC:1.3:CRS84" } },
"xy_coordinate_resolution": 1e-15,
"features": [
{"type":"Feature","properties":{"fid":5,"cod_ccaa":"08","provincia":"Toledo","cod_prov":"45"},"geometry":{"type":"MultiPolygon","coordinates":[[[[-4.762473,39.514038],[-4.767759,39.515615],[-4.771372,39.518155],[-4.779774,39.520099],[-4.786048,39.525247],[-4.810969,39.529807],[-4.848117,39.552125],[-4.863122,39.556147],[-4.872163,39.543947],[-4.879739,39.538365],[-4.888949,39.526575],[-4.891621,39.519126],[-4.898039,39.512615],[-4.89932,39.506261],[-4.902995,39.503696],[-4.908211,39.493691],[-4.911717,39.482452],[-4.910976,39.479158],[-4.919929,39.456378],[-4.926653,39.434247],[-4.931793,39.425576],[-4.94142,39.402431],[-4.942171,39.399347],[-4.940741,39.395118],[-4.943749,39.393455],[-4.949092,39.393104],[-4.952512,39.394993],[-4.957257,39.399814],[-4.972272,39.408868],[-4.978327,39.414783],[-4.995362,39.424782],[-5.000852,39.430309],[-5.008583,39.434951],[-5.018212,39.445695],[-5.024579,39.450891],[-5.039443,39.470407],[-5.044429,39.477536],[-5.048544,39.479897],[-5.058893,39.489417],[-5.067924,39.488122],[-5.068818,39.48689],[-5.074153,39.486858],[-5.083894,39.490666],[-5.103591,39.508771],[-5.123789,39.521594],[-5.135661,39.536629],[-5.143187,39.542977],[-5.146141,39.547067],[-5.146013,39.549349],[-5.15541,39.55404],[-5.159931,39.560956],[-5.163963,39.56262],[-5.174403,39.571155],[-5.177857,39.572531],[-5.187077,39.579935],[-5.189434,39.583431],[-5.202071,39.592021],[-5.206626,39.597232],[-5.205244,39.599907],[-5.19242,39.607979],[-5.192106,39.610201],[-5.187198,39.616366],[-5.182157,39.618298],[-5.181127,39.621102],[-5.177393,39.624631],[-5.17265,39.635396],[-5.162284,39.641878],[-5.162021,39.646135],[-5.164219,39.64676],[-5.161706,39.650249],[-5.162424,39.655344],[-5.158188,39.655179],[-5.152378,39.660242],[-5.148845,39.668109],[-5.156404,39.673897],[-5.154004,39.681059],[-5.152191,39.694786],[-5.146324,39.706039],[-5.137795,39.714998],[-5.141437,39.721868],[-5.155116,39.735921],[-5.156576,39.738975],[-5.165362,39.74228],[-5.173788,39.750852],[-5.174404,39.75521],[-5.164411,39.755892],[-5.158459,39.75966],[-5.16106,39.76745],[-5.160757,39.771185],[-5.163359,39.778217],[-5.165852,39.780639],[-5.167729,39.790965],[-5.166899,39.799881],[-5.168092,39.799949],[-5.171989,39.798317],[-5.181195,39.798793],[-5.186277,39.797733],[-5.193109,39.798821],[-5.206085,39.797728],[-5.211125,39.791722],[-5.214758,39.789932],[-5.217867,39.788206],[-5.231674,39.774617],[-5.243144,39.767937],[-5.244703,39.760925],[-5.24806,39.758644],[-5.250502,39.754768],[-5.254223,39.752542],[-5.266918,39.752439],[-5.276548,39.756746],[-5.285272,39.757944],[-5.295174,39.760875],[-5.302098,39.760593],[-5.304374,39.759539],[-5.308826,39.760388],[-5.31419,39.766839],[-5.316223,39.772123],[-5.311309,39.787148],[-5.315167,39.788684],[-5.316368,39.796623],[-5.313247,39.806307],[-5.311393,39.829082],[-5.306471,39.836305],[-5.298663,39.840812],[-5.290234,39.851978],[-5.283524,39.857209],[-5.284048,39.863874],[-5.287453,39.863618],[-5.28924,39.86461],[-5.292135,39.865886],[-5.294282,39.874879],[-5.309804,39.879976],[-5.310853,39.886486],[-5.317523,39.890794],[-5.320713,39.891055],[-5.326451,39.891967],[-5.330202,39.890856],[-5.340053,39.890612],[-5.368588,39.888583],[-5.393334,39.879201],[-5.406109,39.87773],[-5.40528,39.882116],[-5.401078,39.885663],[-5.394828,39.91843],[-5.382858,39.94099],[-5.380284,39.951809],[-5.372764,39.970601],[-5.365095,39.983848],[-5.365672,39.992763],[-5.362364,40.011974],[-5.364069,40.026073],[-5.365907,40.038576],[-5.373858,40.059322],[-5.373035,40.065329],[-5.368022,40.079025],[-5.367239,40.087888],[-5.369011,40.100085],[-5.365073,40.104588],[-5.359445,40.108405],[-5.346716,40.111141],[-5.339623,40.115401],[-5.335976,40.115817],[-5.329395,40.113788],[-5.320101,40.107885],[-5.315837,40.107033],[-5.302434,40.107201],[-5.296841,40.110104],[-5.293469,40.109595],[-5.278827,40.109235],[-5.270748,40.109709],[-5.267942,40.111061],[-5.265376,40.110463],[-5.260728,40.107941],[-5.249351,40.10873],[-5.238527,40.107787],[-5.216372,40.108005],[-5.210806,40.105661],[-5.211397,40.091687],[-5.207716,40.08955],[-5.206744,40.085623],[-5.202116,40.082846],[-5.192275,40.083519],[-5.185076,40.08798],[-5.1819,40.087706],[-5.172365,40.084759],[-5.166931,40.087951],[-5.154699,40.092837],[-5.149169,40.090786],[-5.141411,40.09175],[-5.140043,40.097126],[-5.128018,40.101969],[-5.105413,40.118733],[-5.101133,40.127225],[-5.095304,40.1277],[-5.090953,40.12358],[-5.087772,40.124322],[-5.085754,40.126638],[-5.085483,40.135039],[-5.082333,40.136438],[-5.077381,40.136482],[-5.078345,40.141149],[-5.07239,40.144886],[-5.069705,40.149249],[-5.063675,40.15169],[-5.057003,40.149223],[-5.054568,40.149474],[-5.051439,40.151601],[-5.042103,40.1511],[-5.033912,40.156712],[-5.018542,40.159053],[-5.017035,40.145828],[-5.013597,40.143482],[-5.006672,40.129936],[-5.007745,40.121729],[-5.013344,40.111056],[-5.005785,40.109746],[-4.989246,40.115931],[-4.982414,40.115409],[-4.975833,40.118693],[-4.960102,40.121311],[-4.954546,40.121126],[-4.958947,40.126051],[-4.955394,40.126156],[-4.959344,40.130459],[-4.956293,40.133348],[-4.952335,40.134073],[-4.948716,40.133115],[-4.945839,40.132641],[-4.943382,40.133322],[-4.925454,40.136036],[-4.925564,40.13825],[-4.922476,40.141545],[-4.918061,40.155293],[-4.923723,40.164956],[-4.92313,40.167641],[-4.924675,40.169985],[-4.913715,40.173599],[-4.902574,40.180061],[-4.896653,40.185068],[-4.885127,40.190878],[-4.878345,40.190294],[-4.876636,40.191772],[-4.875298,40.197794],[-4.871073,40.200934],[-4.862703,40.205069],[-4.859664,40.203469],[-4.857108,40.204087],[-4.8538,40.207743],[-4.849382,40.209039],[-4.840302,40.210004],[-4.83541,40.212504],[-4.835409,40.212505],[-4.831098,40.216924],[-4.825238,40.21926],[-4.821527,40.222435],[-4.822701,40.228966],[-4.81876,40.230965],[-4.807673,40.235319],[-4.809918,40.240608],[-4.811998,40.240584],[-4.811095,40.24376],[-4.813086,40.249188],[-4.816015,40.251007],[-4.818244,40.254774],[-4.810007,40.25938],[-4.81127,40.264],[-4.807178,40.26755],[-4.807694,40.270993],[-4.804251,40.275091],[-4.788868,40.272062],[-4.783327,40.270219],[-4.781677,40.267373],[-4.779821,40.267455],[-4.778114,40.265606],[-4.761188,40.260938],[-4.75332,40.264092],[-4.742624,40.275281],[-4.732175,40.270917],[-4.728601,40.27052],[-4.72749,40.273533],[-4.712135,40.275968],[-4.71368,40.280792],[-4.698141,40.282192],[-4.697729,40.278424],[-4.694908,40.273312],[-4.695413,40.267629],[-4.694147,40.266387],[-4.697573,40.264183],[-4.702604,40.263632],[-4.701797,40.25723],[-4.692918,40.253882],[-4.687203,40.249606],[-4.69368,40.24107],[-4.686566,40.235777],[-4.689649,40.229264],[-4.686221,40.218531],[-4.687258,40.212002],[-4.679284,40.206983],[-4.673769,40.209685],[-4.670226,40.207492],[-4.662765,40.206068],[-4.657792,40.199689],[-4.653997,40.198212],[-4.640099,40.197248],[-4.635783,40.200516],[-4.629436,40.201858],[-4.616908,40.200213],[-4.613676,40.20115],[-4.61131,40.203949],[-4.606881,40.204966],[-4.604326,40.208235],[-4.600318,40.208183],[-4.597313,40.210332],[-4.59172,40.211851],[-4.586678,40.216334],[-4.579006,40.217403],[-4.575493,40.215928],[-4.572628,40.213013],[-4.57517,40.207077],[-4.550529,40.201842],[-4.535861,40.19956],[-4.533215,40.200992],[-4.528423,40.20056],[-4.522144,40.202399],[-4.518911,40.203369],[-4.516881,40.205509],[-4.517331,40.213669],[-4.514419,40.216882],[-4.504939,40.220781],[-4.497939,40.221669],[-4.482927,40.227296],[-4.479698,40.230072],[-4.473717,40.231465],[-4.447506,40.233612],[-4.437448,40.237689],[-4.434523,40.243881],[-4.43639,40.255048],[-4.435034,40.259303],[-4.427174,40.257556],[-4.426664,40.261593],[-4.420045,40.265081],[-4.411805,40.272545],[-4.407677,40.273701],[-4.397274,40.284648],[-4.393046,40.286907],[-4.389266,40.28668],[-4.383483,40.289049],[-4.385156,40.291299],[-4.382959,40.299426],[-4.387174,40.301169],[-4.381594,40.307343],[-4.383483,40.308788],[-4.381258,40.312684],[-4.378312,40.314828],[-4.379663,40.318011],[-4.376411,40.317043],[-4.375348,40.315092],[-4.373201,40.314279],[-4.364852,40.314045],[-4.363096,40.311588],[-4.356903,40.309652],[-4.356387,40.308621],[-4.358653,40.293773],[-4.356793,40.28449],[-4.358322,40.27563],[-4.356859,40.270267],[-4.350695,40.262771],[-4.347885,40.256037],[-4.344759,40.253297],[-4.34793,40.243885],[-4.348217,40.236845],[-4.341706,40.240468],[-4.333351,40.238256],[-4.32647,40.233503],[-4.326347,40.231728],[-4.321476,40.226455],[-4.311149,40.234579],[-4.307964,40.233869],[-4.305844,40.232147],[-4.309723,40.226438],[-4.306764,40.221964],[-4.295471,40.218735],[-4.291193,40.221466],[-4.286734,40.227888],[-4.275616,40.231585],[-4.269692,40.235977],[-4.267386,40.242697],[-4.261975,40.247649],[-4.260346,40.25743],[-4.253766,40.262814],[-4.25014,40.271992],[-4.245989,40.274213],[-4.234087,40.274132],[-4.231481,40.276666],[-4.229198,40.275971],[-4.228423,40.274106],[-4.226248,40.269953],[-4.221664,40.271096],[-4.220989,40.272627],[-4.219658,40.272009],[-4.217565,40.272855],[-4.213745,40.269446],[-4.208839,40.268224],[-4.203231,40.268818],[-4.204825,40.270651],[-4.203166,40.275199],[-4.204738,40.283317],[-4.203746,40.287372],[-4.202025,40.289274],[-4.198971,40.290231],[-4.197106,40.294128],[-4.190871,40.297355],[-4.182173,40.293587],[-4.178417,40.292733],[-4.17639,40.289797],[-4.172486,40.2881],[-4.172501,40.282825],[-4.164852,40.270789],[-4.161548,40.269498],[-4.157958,40.270705],[-4.149093,40.266019],[-4.147105,40.26666],[-4.144077,40.264267],[-4.144847,40.258998],[-4.150727,40.249232],[-4.148434,40.24645],[-4.14362,40.244864],[-4.135705,40.248142],[-4.130811,40.248491],[-4.128126,40.246306],[-4.124451,40.246048],[-4.120462,40.243561],[-4.111501,40.244107],[-4.104245,40.241798],[-4.099684,40.246958],[-4.087235,40.25419],[-4.080456,40.26694],[-4.077237,40.265842],[-4.072894,40.265451],[-4.052086,40.251529],[-4.04187,40.249709],[-4.023768,40.249019],[-4.026641,40.24474],[-4.026159,40.23561],[-4.022104,40.233588],[-4.020609,40.230835],[-4.008803,40.219816],[-4.006174,40.218249],[-4.001223,40.217542],[-3.991003,40.209478],[-3.976927,40.211928],[-3.962105,40.212287],[-3.956186,40.211465],[-3.952917,40.212339],[-3.956282,40.199072],[-3.950752,40.196813],[-3.949151,40.199532],[-3.948701,40.193077],[-3.947712,40.192978],[-3.942819,40.196221],[-3.940985,40.201644],[-3.940133,40.201242],[-3.938629,40.203228],[-3.938662,40.203603],[-3.935836,40.202658],[-3.930995,40.203964],[-3.927815,40.202672],[-3.925088,40.200068],[-3.917343,40.192274],[-3.911871,40.190171],[-3.904974,40.189692],[-3.902104,40.190803],[-3.894424,40.188733],[-3.884698,40.189708],[-3.883267,40.189008],[-3.877748,40.188221],[-3.876246,40.191106],[-3.868032,40.188624],[-3.85344,40.179398],[-3.851486,40.177507],[-3.852795,40.169301],[-3.840868,40.162599],[-3.834183,40.16131],[-3.817556,40.17127],[-3.810332,40.169088],[-3.8068,40.177302],[-3.801365,40.17582],[-3.800054,40.175652],[-3.78431,40.162701],[-3.778994,40.155817],[-3.777844,40.146608],[-3.772428,40.142086],[-3.771871,40.139576],[-3.766586,40.13839],[-3.745676,40.132639],[-3.742137,40.134175],[-3.72849,40.144515],[-3.720661,40.147951],[-3.717949,40.146402],[-3.711949,40.14269],[-3.712709,40.141818],[-3.694995,40.133797],[-3.68366,40.13244],[-3.678081,40.138942],[-3.667185,40.14336],[-3.665868,40.135358],[-3.663884,40.132712],[-3.660623,40.12836],[-3.656804,40.127881],[-3.655903,40.125056],[-3.648202,40.124304],[-3.640989,40.120464],[-3.628943,40.117735],[-3.621882,40.113292],[-3.621124,40.115144],[-3.606715,40.109205],[-3.60932,40.103822],[-3.614361,40.099525],[-3.611196,40.094515],[-3.60582,40.095561],[-3.603902,40.093517],[-3.609694,40.083239],[-3.610696,40.081941],[-3.619239,40.079901],[-3.62332,40.081208],[-3.628954,40.078329],[-3.627901,40.075142],[-3.617262,40.068679],[-3.617502,40.066633],[-3.622403,40.063928],[-3.624282,40.06062],[-3.620062,40.058011],[-3.620127,40.057007],[-3.623932,40.053755],[-3.630682,40.053849],[-3.639442,40.050363],[-3.639722,40.046755],[-3.635393,40.04346],[-3.63555,40.042398],[-3.639314,40.040222],[-3.645141,40.041962],[-3.647284,40.041619],[-3.649235,40.038806],[-3.649645,40.032188],[-3.654172,40.032047],[-3.657337,40.036597],[-3.661764,40.03708],[-3.667524,40.034067],[-3.667873,40.028667],[-3.669741,40.025703],[-3.67592,40.021851],[-3.680533,40.015793],[-3.68564,40.018228],[-3.687034,40.021661],[-3.6964,40.020831],[-3.699305,40.019561],[-3.711697,40.009917],[-3.713857,40.004759],[-3.715723,40.003359],[-3.721745,40.001106],[-3.723956,39.997598],[-3.72291,39.987756],[-3.727382,39.989728],[-3.729682,39.986831],[-3.733216,39.986484],[-3.735497,39.984634],[-3.735799,39.982087],[-3.73372,39.979393],[-3.734938,39.975779],[-3.739286,39.98173],[-3.74385,39.982383],[-3.746741,39.980335],[-3.741232,39.970759],[-3.739263,39.969456],[-3.737156,39.968441],[-3.731329,39.969408],[-3.728879,39.97224],[-3.72666,39.972014],[-3.724225,39.970242],[-3.725106,39.9672],[-3.73294,39.962853],[-3.740841,39.961551],[-3.749381,39.963054],[-3.753083,39.967387],[-3.758817,39.968886],[-3.751424,39.957901],[-3.751482,39.952788],[-3.754371,39.950444],[-3.765631,39.947198],[-3.770486,39.950552],[-3.770704,39.952952],[-3.769133,39.954938],[-3.757974,39.958322],[-3.763603,39.967518],[-3.769102,39.959168],[-3.774449,39.958871],[-3.788656,39.954172],[-3.785662,39.949399],[-3.787011,39.946525],[-3.790719,39.946265],[-3.796233,39.948399],[-3.801069,39.946464],[-3.802338,39.947843],[-3.802336,39.952681],[-3.804804,39.954556],[-3.807313,39.954836],[-3.813958,39.95251],[-3.818326,39.946704],[-3.821988,39.946561],[-3.824765,39.946761],[-3.828497,39.941786],[-3.8299,39.931918],[-3.832683,39.929745],[-3.837077,39.930218],[-3.837619,39.941062],[-3.839022,39.942402],[-3.853157,39.939335],[-3.866887,39.931297],[-3.867444,39.932124],[-3.873925,39.929822],[-3.875691,39.927733],[-3.867448,39.917038],[-3.875395,39.910726],[-3.873143,39.909036],[-3.869691,39.907664],[-3.868927,39.905269],[-3.865438,39.903594],[-3.859773,39.902534],[-3.844879,39.902633],[-3.834549,39.89996],[-3.814871,39.885827],[-3.814836,39.885803],[-3.804455,39.884795],[-3.806421,39.887389],[-3.789779,39.899117],[-3.778798,39.910855],[-3.771334,39.915319],[-3.769998,39.914637],[-3.756584,39.921112],[-3.74846,39.929416],[-3.743871,39.940802],[-3.730578,39.944424],[-3.711107,39.954709],[-3.69759,39.946718],[-3.683395,39.955461],[-3.677645,39.96077],[-3.665956,39.963508],[-3.660118,39.966069],[-3.6345,39.965892],[-3.633953,39.968994],[-3.631029,39.968688],[-3.637946,39.988352],[-3.629264,39.992633],[-3.622474,39.991045],[-3.615617,39.993953],[-3.610344,39.998241],[-3.595329,40.001141],[-3.589996,40.013172],[-3.5833,40.012713],[-3.575233,40.013696],[-3.574688,40.015614],[-3.550738,40.017702],[-3.530577,40.018095],[-3.519883,40.020875],[-3.521998,40.026008],[-3.517191,40.036472],[-3.517292,40.040124],[-3.515197,40.043282],[-3.510566,40.042872],[-3.511542,40.045812],[-3.507236,40.044402],[-3.507461,40.048135],[-3.506114,40.048786],[-3.503797,40.046198],[-3.499583,40.045014],[-3.495652,40.047575],[-3.490593,40.04758],[-3.488567,40.041318],[-3.485749,40.041926],[-3.485242,40.044484],[-3.483301,40.046015],[-3.478845,40.044782],[-3.472555,40.045998],[-3.47311,40.041918],[-3.470068,40.040702],[-3.460567,40.04528],[-3.455561,40.046421],[-3.454904,40.047739],[-3.456488,40.050021],[-3.45078,40.049205],[-3.448329,40.049764],[-3.446794,40.047992],[-3.448621,40.042689],[-3.447865,40.038544],[-3.445967,40.037229],[-3.440152,40.039037],[-3.430351,40.038357],[-3.426248,40.046345],[-3.424812,40.046922],[-3.422057,40.045124],[-3.41762,40.045052],[-3.414478,40.04215],[-3.409939,40.041795],[-3.408328,40.040054],[-3.409643,40.037506],[-3.402263,40.034313],[-3.394179,40.035506],[-3.391444,40.0409],[-3.394079,40.04235],[-3.394188,40.04531],[-3.391659,40.048322],[-3.386539,40.049812],[-3.38521,40.051862],[-3.37643,40.049818],[-3.375918,40.05046],[-3.374302,40.055032],[-3.374735,40.059615],[-3.377671,40.062284],[-3.379129,40.066166],[-3.377708,40.074767],[-3.361894,40.075265],[-3.349943,40.077729],[-3.345027,40.080107],[-3.332241,40.080482],[-3.319098,40.074188],[-3.315643,40.070242],[-3.31179,40.068254],[-3.308071,40.060667],[-3.302494,40.053313],[-3.297509,40.051699],[-3.292622,40.052238],[-3.289965,40.05274],[-3.287368,40.051546],[-3.28643,40.052334],[-3.283212,40.051557],[-3.283154,40.049046],[-3.275165,40.047313],[-3.272627,40.049391],[-3.274173,40.051845],[-3.273652,40.054702],[-3.271942,40.053365],[-3.266972,40.052786],[-3.266529,40.056351],[-3.264781,40.057101],[-3.262853,40.056719],[-3.262174,40.053281],[-3.257705,40.050394],[-3.257519,40.054439],[-3.254339,40.057993],[-3.249378,40.055922],[-3.248339,40.057206],[-3.245812,40.057042],[-3.245643,40.05946],[-3.243623,40.053419],[-3.228999,40.056045],[-3.208997,40.0628],[-3.204719,40.060059],[-3.202098,40.060103],[-3.20064,40.061938],[-3.205107,40.062047],[-3.207454,40.063829],[-3.199597,40.067684],[-3.189182,40.077374],[-3.188618,40.082499],[-3.185765,40.081761],[-3.183537,40.085557],[-3.180344,40.084295],[-3.177995,40.085299],[-3.176103,40.087367],[-3.180937,40.088088],[-3.180627,40.090176],[-3.178138,40.092207],[-3.175993,40.091355],[-3.166357,40.091021],[-3.168047,40.085138],[-3.163167,40.083708],[-3.161631,40.074749],[-3.162893,40.070853],[-3.161233,40.06918],[-3.161377,40.064873],[-3.16138,40.061845],[-3.164705,40.054903],[-3.170234,40.048138],[-3.165406,40.039253],[-3.165497,40.028198],[-3.160804,40.026276],[-3.150481,40.01082],[-3.146792,39.995274],[-3.142565,39.984963],[-3.131882,39.984093],[-3.112819,39.987419],[-3.096596,39.986938],[-3.098594,39.975152],[-3.094853,39.971641],[-3.097532,39.969477],[-3.096227,39.966036],[-3.097365,39.95935],[-3.094832,39.955946],[-3.098913,39.952564],[-3.096692,39.947178],[-3.098464,39.941843],[-3.097059,39.933465],[-3.099721,39.928831],[-3.100354,39.921659],[-3.106852,39.916419],[-3.107023,39.913175],[-3.106879,39.903138],[-3.113284,39.899483],[-3.112924,39.894302],[-3.122185,39.885932],[-3.127228,39.874682],[-3.122121,39.876075],[-3.118563,39.874475],[-3.112062,39.874968],[-3.106852,39.871107],[-3.096267,39.869107],[-3.095224,39.867108],[-3.088918,39.864194],[-3.082269,39.857883],[-3.076293,39.855706],[-3.059676,39.837471],[-3.055743,39.829679],[-3.055691,39.823723],[-3.051839,39.812561],[-3.03769,39.790203],[-3.040538,39.787581],[-3.035829,39.782681],[-3.031694,39.780285],[-3.030092,39.777321],[-3.0209,39.771061],[-3.015528,39.764746],[-3.015364,39.764412],[-3.009338,39.745131],[-2.997748,39.718866],[-2.99349,39.714037],[-2.976694,39.702826],[-2.977524,39.696663],[-2.972592,39.693635],[-2.969876,39.689696],[-2.954437,39.686709],[-2.94957,39.676525],[-2.931327,39.659721],[-2.919254,39.64627],[-2.908233,39.642333],[-2.914854,39.631931],[-2.915538,39.625264],[-2.917859,39.623058],[-2.913746,39.613729],[-2.921271,39.604274],[-2.925514,39.601799],[-2.920517,39.581838],[-2.922778,39.569738],[-2.920648,39.559141],[-2.92477,39.555734],[-2.927502,39.549594],[-2.929082,39.529916],[-2.935079,39.525604],[-2.931269,39.518547],[-2.93586,39.51126],[-2.933923,39.504798],[-2.935201,39.494383],[-2.934619,39.482209],[-2.931374,39.471485],[-2.955311,39.454863],[-2.956792,39.447214],[-2.966043,39.447947],[-2.977735,39.444679],[-2.994784,39.451376],[-3.000119,39.448898],[-2.999549,39.441644],[-3.014866,39.44504],[-3.022587,39.456996],[-3.049805,39.450716],[-3.055001,39.451263],[-3.061845,39.449872],[-3.069598,39.450273],[-3.075743,39.458064],[-3.097164,39.473789],[-3.100166,39.475345],[-3.105666,39.475241],[-3.110166,39.476012],[-3.121804,39.482209],[-3.143424,39.495529],[-3.157312,39.496114],[-3.184516,39.487965],[-3.185166,39.474151],[-3.187587,39.475138],[-3.200912,39.475431],[-3.213076,39.476076],[-3.228426,39.473443],[-3.255785,39.470917],[-3.269378,39.47149],[-3.284137,39.470031],[-3.294197,39.470844],[-3.299275,39.456586],[-3.302254,39.454614],[-3.303432,39.450168],[-3.313785,39.439256],[-3.31589,39.434529],[-3.314458,39.431289],[-3.316376,39.42886],[-3.315474,39.424717],[-3.311767,39.419231],[-3.309137,39.410281],[-3.309319,39.406893],[-3.311448,39.404932],[-3.309134,39.399153],[-3.33058,39.405375],[-3.339464,39.407548],[-3.349562,39.408311],[-3.401611,39.404169],[-3.410278,39.40459],[-3.412442,39.401239],[-3.419968,39.399275],[-3.427022,39.394356],[-3.447914,39.387007],[-3.470481,39.37214],[-3.473565,39.352484],[-3.476879,39.343145],[-3.485789,39.341135],[-3.492891,39.334572],[-3.514739,39.320187],[-3.525014,39.314996],[-3.531431,39.309236],[-3.532588,39.304158],[-3.548345,39.302093],[-3.556173,39.299047],[-3.567111,39.299327],[-3.568432,39.30051],[-3.57385,39.30079],[-3.574502,39.302571],[-3.577366,39.305233],[-3.586595,39.307665],[-3.595059,39.304595],[-3.607913,39.302213],[-3.611692,39.303382],[-3.622371,39.30046],[-3.623887,39.302696],[-3.638927,39.299785],[-3.65749,39.299331],[-3.674616,39.296647],[-3.680187,39.298281],[-3.679744,39.292066],[-3.683762,39.290232],[-3.688139,39.284863],[-3.701285,39.277594],[-3.720459,39.270692],[-3.720693,39.269789],[-3.722523,39.269607],[-3.724286,39.271939],[-3.730089,39.274795],[-3.740666,39.276323],[-3.744851,39.28282],[-3.756917,39.290059],[-3.765696,39.293318],[-3.792923,39.292244],[-3.809124,39.288348],[-3.812178,39.286713],[-3.815269,39.28225],[-3.815372,39.279185],[-3.828307,39.268966],[-3.837336,39.266883],[-3.841492,39.259681],[-3.846746,39.259985],[-3.854284,39.258416],[-3.876038,39.262057],[-3.894228,39.274147],[-3.89641,39.277112],[-3.90241,39.280283],[-3.91532,39.284363],[-3.922705,39.283413],[-3.92863,39.284267],[-3.940532,39.288208],[-3.950162,39.292942],[-3.952039,39.292827],[-3.965471,39.298177],[-3.966856,39.298553],[-3.966301,39.300297],[-3.958474,39.307218],[-3.95868,39.309568],[-3.966256,39.316444],[-3.965458,39.319145],[-3.96829,39.323482],[-3.964714,39.330874],[-3.968554,39.332518],[-3.967711,39.342076],[-3.972041,39.347239],[-3.972202,39.352175],[-4.00252,39.351612],[-4.01935,39.355746],[-4.025539,39.358286],[-4.03156,39.358918],[-4.041584,39.357847],[-4.047069,39.360582],[-4.073373,39.365334],[-4.079579,39.360537],[-4.085874,39.349486],[-4.104449,39.341112],[-4.108712,39.348703],[-4.114247,39.34792],[-4.115508,39.356459],[-4.120539,39.362619],[-4.125105,39.363566],[-4.128025,39.365448],[-4.134315,39.363171],[-4.140758,39.363955],[-4.143072,39.362797],[-4.148074,39.362765],[-4.147904,39.366551],[-4.142824,39.372476],[-4.142935,39.376467],[-4.132492,39.396923],[-4.135103,39.400376],[-4.130462,39.404277],[-4.127899,39.408852],[-4.129839,39.413924],[-4.124371,39.429277],[-4.120473,39.435432],[-4.120361,39.445885],[-4.116276,39.450619],[-4.118363,39.454663],[-4.118073,39.456882],[-4.111926,39.459896],[-4.108572,39.460217],[-4.103674,39.459191],[-4.099964,39.455379],[-4.081322,39.45167],[-4.075698,39.452497],[-4.068131,39.457054],[-4.064329,39.462297],[-4.064573,39.466881],[-4.06216,39.467209],[-4.058829,39.472186],[-4.062713,39.475304],[-4.063199,39.479715],[-4.067744,39.485737],[-4.065071,39.494213],[-4.068245,39.502546],[-4.064969,39.506612],[-4.060077,39.521443],[-4.050752,39.5226],[-4.043358,39.520657],[-4.03896,39.522156],[-4.034747,39.521265],[-4.03008,39.521974],[-4.036275,39.548985],[-4.039908,39.559224],[-4.037839,39.565649],[-4.039651,39.567714],[-4.039592,39.573905],[-4.041779,39.575354],[-4.054029,39.57318],[-4.072281,39.572157],[-4.078446,39.570343],[-4.081857,39.568068],[-4.089465,39.569196],[-4.10145,39.56583],[-4.124346,39.563557],[-4.130125,39.565267],[-4.135851,39.565184],[-4.14516,39.569228],[-4.14975,39.573625],[-4.158732,39.576761],[-4.166461,39.56689],[-4.193234,39.495384],[-4.196098,39.492814],[-4.203451,39.490359],[-4.204991,39.487902],[-4.237278,39.479129],[-4.242093,39.477898],[-4.246522,39.47986],[-4.256898,39.480739],[-4.272002,39.479503],[-4.298023,39.484522],[-4.320652,39.483412],[-4.327733,39.487692],[-4.331413,39.48738],[-4.340548,39.490176],[-4.344861,39.490126],[-4.346418,39.491838],[-4.359571,39.495487],[-4.36417,39.49638],[-4.370758,39.495482],[-4.377211,39.495983],[-4.39529,39.502155],[-4.404436,39.50355],[-4.409271,39.506276],[-4.421746,39.507151],[-4.424628,39.509305],[-4.422977,39.512218],[-4.432096,39.518998],[-4.439944,39.522731],[-4.443593,39.523109],[-4.446643,39.518125],[-4.453081,39.517288],[-4.459484,39.492484],[-4.46265,39.489318],[-4.461588,39.478546],[-4.480286,39.485815],[-4.48327,39.488354],[-4.483149,39.491986],[-4.485453,39.493687],[-4.488175,39.501932],[-4.492906,39.504521],[-4.493838,39.507293],[-4.496077,39.50812],[-4.499888,39.517685],[-4.506353,39.521845],[-4.511222,39.522124],[-4.503411,39.527847],[-4.501671,39.535096],[-4.492906,39.538182],[-4.48353,39.53559],[-4.48219,39.538796],[-4.493864,39.544918],[-4.504902,39.546758],[-4.521417,39.555904],[-4.522153,39.561337],[-4.524406,39.561631],[-4.527073,39.557434],[-4.531455,39.555079],[-4.528374,39.547263],[-4.529992,39.54516],[-4.529963,39.54225],[-4.532737,39.541376],[-4.534817,39.538096],[-4.531091,39.531604],[-4.542489,39.538274],[-4.542686,39.544001],[-4.561446,39.533137],[-4.562567,39.530708],[-4.560089,39.527101],[-4.559725,39.516528],[-4.554629,39.510776],[-4.557578,39.506889],[-4.568174,39.501738],[-4.567923,39.497281],[-4.571345,39.49792],[-4.573132,39.496724],[-4.585486,39.496881],[-4.590284,39.499744],[-4.618427,39.484651],[-4.613999,39.485262],[-4.614703,39.465926],[-4.611594,39.46014],[-4.618133,39.4544],[-4.640514,39.449825],[-4.65967,39.453923],[-4.687696,39.450294],[-4.690278,39.451789],[-4.69721,39.445804],[-4.706634,39.440576],[-4.712696,39.435693],[-4.716935,39.434631],[-4.737842,39.423635],[-4.741403,39.42387],[-4.743946,39.421498],[-4.755371,39.415713],[-4.756524,39.420462],[-4.753709,39.425424],[-4.766895,39.424044],[-4.767941,39.430975],[-4.766984,39.43353],[-4.751835,39.448923],[-4.744969,39.451332],[-4.740511,39.456165],[-4.749951,39.468349],[-4.749188,39.470361],[-4.745871,39.472555],[-4.747155,39.476473],[-4.745803,39.482386],[-4.742851,39.487548],[-4.743897,39.489388],[-4.750472,39.497452],[-4.751709,39.50183],[-4.762473,39.514038]]]]}}
]
}
