{
"type": "FeatureCollection",
"name": "cod_prov_46",
"crs": { "type": "name", "properties": { "name": "urn:ogc:def:crs:OGC:1.3:CRS84" } },
"xy_coordinate_resolution": 1e-15,
"features": [
{"type":"Feature","properties":{"fid":3,"cod_ccaa":"10","provincia":"Valencia","cod_prov":"46"},"geometry":{"type":"MultiPolygon","coordinates":[[[[-0.744788,38.759258],[-0.745751,38.758636],[-0.74336,38.755635],[-0.747232,38.754709],[-0.752078,38.75538],[-0.756502,38.752635],[-0.758062,38.750224],[-0.761458,38.749063],[-0.765746,38.751047],[-0.770477,38.750614],[-0.779585,38.746688],[-0.783733,38.748353],[-0.787586,38.746543],[-0.792657,38.739169],[-0.801059,38.737165],[-0.806638,38.735315],[-0.807747,38.736642],[-0.81038,38.738196],[-0.817417,38.737949],[-0.824117,38.736281],[-0.831677,38.732439],[-0.834622,38.732431],[-0.837559,38.736495],[-0.83575,38.741174],[-0.84119,38.746194],[-0.860173,38.769367],[-0.861693,38.77089],[-0.882537,38.772045],[-0.885129,38.771587],[-0.887827,38.769095],[-0.904989,38.76708],[-0.913225,38.769606],[-0.917556,38.776207],[-0.914907,38.781412],[-0.928938,38.783834],[-0.929013,38.786808],[-0.933848,38.793976],[-0.932796,38.811267],[-0.927784,38.815719],[-0.924879,38.823362],[-0.931189,38.829781],[-0.932297,38.841649],[-0.935697,38.855937],[-0.93075,38.863616],[-0.932574,38.867883],[-0.931932,38.879675],[-0.927585,38.884896],[-0.924537,38.891753],[-0.940855,38.899619],[-0.946668,38.908345],[-0.950487,38.911475],[-0.953429,38.919474],[-0.956524,38.920123],[-0.955973,38.923267],[-0.958646,38.928206],[-0.957548,38.933097],[-0.95941,38.944582],[-0.9773,38.942767],[-0.987774,38.947724],[-0.991825,38.94728],[-0.998794,38.949355],[-1.007076,38.946136],[-1.013443,38.939181],[-1.034595,38.934448],[-1.042628,38.9368],[-1.054215,38.934543],[-1.06992,38.933966],[-1.091123,38.931404],[-1.10592,38.928527],[-1.129105,38.929451],[-1.138325,38.927589],[-1.146654,38.929352],[-1.152731,38.939198],[-1.15453,38.939677],[-1.160888,38.954816],[-1.174775,38.967685],[-1.193263,38.98821],[-1.201812,38.993],[-1.208597,39.005053],[-1.226538,39.024672],[-1.239548,39.030555],[-1.252046,39.039546],[-1.259257,39.041348],[-1.263903,39.045094],[-1.26675,39.05102],[-1.265236,39.052466],[-1.263772,39.068339],[-1.265701,39.075468],[-1.255815,39.084024],[-1.255721,39.10617],[-1.24051,39.113735],[-1.232354,39.133687],[-1.226997,39.151707],[-1.210529,39.162222],[-1.197092,39.176729],[-1.194498,39.18041],[-1.192037,39.194652],[-1.189182,39.19942],[-1.180663,39.212297],[-1.176376,39.23025],[-1.17689,39.246666],[-1.175853,39.26566],[-1.17447,39.268468],[-1.174736,39.279239],[-1.166496,39.293336],[-1.161889,39.305418],[-1.165003,39.310512],[-1.168465,39.312513],[-1.188579,39.315576],[-1.191555,39.314397],[-1.194216,39.316015],[-1.197647,39.313577],[-1.20382,39.317839],[-1.203556,39.320917],[-1.207909,39.326237],[-1.210684,39.326117],[-1.213315,39.323491],[-1.214645,39.319078],[-1.219306,39.316447],[-1.223327,39.316112],[-1.227777,39.319504],[-1.238429,39.322594],[-1.244277,39.32161],[-1.247154,39.328574],[-1.248563,39.327432],[-1.249275,39.323082],[-1.250844,39.322502],[-1.254917,39.327113],[-1.259546,39.32803],[-1.262608,39.329914],[-1.268287,39.328746],[-1.271406,39.330243],[-1.273746,39.333197],[-1.277459,39.332711],[-1.281362,39.328706],[-1.284157,39.329251],[-1.285325,39.330818],[-1.285301,39.332287],[-1.291135,39.334724],[-1.293566,39.331597],[-1.298032,39.331158],[-1.301688,39.333978],[-1.299007,39.335921],[-1.299137,39.337743],[-1.309829,39.340394],[-1.312744,39.343167],[-1.318429,39.343186],[-1.321805,39.339369],[-1.328163,39.342308],[-1.333996,39.340509],[-1.334842,39.339539],[-1.330909,39.338068],[-1.330058,39.336307],[-1.333738,39.335738],[-1.336297,39.333973],[-1.339095,39.33586],[-1.338524,39.33742],[-1.342718,39.340174],[-1.350972,39.33948],[-1.355549,39.342202],[-1.357564,39.347349],[-1.362111,39.348936],[-1.366834,39.355895],[-1.372463,39.355893],[-1.3775,39.356405],[-1.385174,39.354277],[-1.38163,39.35949],[-1.382998,39.365581],[-1.384791,39.366701],[-1.39193,39.367363],[-1.401177,39.363508],[-1.407788,39.365779],[-1.409149,39.36769],[-1.407374,39.369143],[-1.40153,39.368351],[-1.399061,39.369227],[-1.396438,39.374778],[-1.401011,39.376886],[-1.407677,39.371688],[-1.410027,39.372982],[-1.409706,39.375861],[-1.411647,39.378825],[-1.414679,39.380298],[-1.418079,39.380075],[-1.422321,39.381195],[-1.425864,39.379585],[-1.42299,39.373654],[-1.422226,39.366336],[-1.424719,39.363397],[-1.429349,39.361883],[-1.432015,39.36409],[-1.42786,39.371341],[-1.428612,39.376127],[-1.432294,39.377582],[-1.434179,39.376373],[-1.432175,39.372517],[-1.438559,39.37308],[-1.44293,39.367606],[-1.444267,39.361759],[-1.455104,39.360849],[-1.455673,39.363496],[-1.449466,39.366495],[-1.45227,39.373029],[-1.448863,39.376416],[-1.448789,39.37819],[-1.457709,39.380138],[-1.462613,39.379392],[-1.468193,39.383331],[-1.463785,39.387381],[-1.459121,39.386148],[-1.456076,39.383108],[-1.453261,39.383377],[-1.452813,39.385245],[-1.457588,39.387209],[-1.458157,39.389307],[-1.452343,39.390203],[-1.454477,39.39297],[-1.45218,39.397589],[-1.455978,39.400712],[-1.459902,39.4008],[-1.462277,39.399975],[-1.466709,39.390645],[-1.473305,39.391147],[-1.476736,39.393057],[-1.475232,39.398623],[-1.467437,39.400881],[-1.466674,39.402295],[-1.470567,39.407509],[-1.474547,39.408777],[-1.478418,39.405927],[-1.481748,39.401267],[-1.488138,39.40063],[-1.489872,39.405806],[-1.487435,39.41218],[-1.488449,39.417392],[-1.483657,39.41824],[-1.482083,39.420643],[-1.48453,39.422982],[-1.492173,39.420864],[-1.497521,39.415239],[-1.505175,39.417996],[-1.503586,39.423318],[-1.500642,39.426254],[-1.496657,39.427887],[-1.496649,39.42932],[-1.505731,39.428977],[-1.508516,39.433464],[-1.511608,39.435062],[-1.513492,39.433861],[-1.513631,39.428979],[-1.515734,39.428943],[-1.52085,39.431522],[-1.521601,39.434469],[-1.515302,39.437812],[-1.51541,39.43876],[-1.520851,39.440262],[-1.524633,39.443292],[-1.519131,39.446862],[-1.518471,39.448944],[-1.519723,39.450158],[-1.523078,39.449787],[-1.526913,39.450917],[-1.528094,39.452202],[-1.528867,39.455266],[-1.527011,39.457288],[-1.523745,39.45785],[-1.519162,39.455792],[-1.513391,39.458268],[-1.512999,39.471246],[-1.509095,39.477692],[-1.504385,39.477749],[-1.503223,39.479347],[-1.505823,39.481182],[-1.510914,39.481239],[-1.512585,39.483567],[-1.510971,39.485672],[-1.505055,39.487705],[-1.507012,39.489712],[-1.510928,39.490393],[-1.510468,39.492883],[-1.512251,39.496528],[-1.50366,39.491498],[-1.500602,39.49527],[-1.501637,39.497427],[-1.499207,39.500108],[-1.507217,39.507861],[-1.507156,39.512869],[-1.502772656561339,39.514371774906095],[-1.502773,39.514372],[-1.502049,39.5147725],[-1.501326,39.515173],[-1.501172,39.515829],[-1.501464,39.516301],[-1.50344,39.518543],[-1.506798,39.520379],[-1.505928,39.52135],[-1.503715,39.527403],[-1.505847,39.532152],[-1.500921,39.533972],[-1.506108,39.540039],[-1.502637,39.544517],[-1.50329,39.547157],[-1.506754,39.547354],[-1.511215,39.545564],[-1.515768,39.548713],[-1.520851,39.548859],[-1.520232,39.55059],[-1.517817,39.551397],[-1.502855,39.552233],[-1.503166,39.556183],[-1.501047,39.556786],[-1.500646,39.558105],[-1.504362,39.563902],[-1.483492,39.569163],[-1.476799,39.569121],[-1.47014,39.57179],[-1.462082,39.576621],[-1.456192,39.585472],[-1.445684,39.611217],[-1.436517,39.628807],[-1.417931,39.654936],[-1.404005,39.66598],[-1.368534,39.689615],[-1.342709,39.681591],[-1.325798,39.673086],[-1.312827,39.670484],[-1.307852,39.670817],[-1.291978,39.67254],[-1.27958,39.677888],[-1.261995,39.698907],[-1.27137,39.713489],[-1.272226,39.718457],[-1.270951,39.731177],[-1.274318,39.733732],[-1.275575,39.737616],[-1.262066,39.756442],[-1.249205,39.772502],[-1.234113,39.782832],[-1.221187,39.803175],[-1.215003,39.808774],[-1.216891,39.814389],[-1.211714,39.8203],[-1.210711,39.833258],[-1.210876,39.83818],[-1.206838,39.846054],[-1.200199,39.858123],[-1.200732,39.870834],[-1.197623,39.873011],[-1.200105,39.87377],[-1.200037,39.888445],[-1.198159,39.908794],[-1.19586,39.913929],[-1.198649,39.915982],[-1.197287,39.918393],[-1.2004,39.920577],[-1.200766,39.92315],[-1.208966,39.92816],[-1.206944,39.932138],[-1.209737,39.934064],[-1.206838,39.940199],[-1.208435,39.941359],[-1.208184,39.943805],[-1.20362,39.949573],[-1.153944,39.963882],[-1.142395,39.971841],[-1.136991,39.97207],[-1.133752,39.970621],[-1.131008,39.970739],[-1.128436,39.962887],[-1.121748,39.960851],[-1.123831,39.96602],[-1.119171,39.968178],[-1.116728,39.97185],[-1.114654,39.972763],[-1.112723,39.973137],[-1.109816,39.968999],[-1.107363,39.970085],[-1.107818,39.97184],[-1.105015,39.974975],[-1.100539,39.97337],[-1.092146,39.9678],[-1.0876,39.970427],[-1.084551,39.971854],[-1.086937,39.973218],[-1.085937,39.976328],[-1.071546,39.979657],[-1.056466,39.980359],[-1.025693,39.974596],[-1.00252,39.981829],[-0.999091,39.980148],[-0.991313,39.981833],[-0.987142,39.980725],[-0.984363,39.97846],[-0.976293,39.975743],[-0.96845,39.974471],[-0.953242,39.967311],[-0.949204,39.967267],[-0.944549,39.962833],[-0.93525,39.960199],[-0.931886,39.956077],[-0.924889,39.959068],[-0.920454,39.964403],[-0.915969,39.958656],[-0.917184,39.954885],[-0.911641,39.950849],[-0.910542,39.948135],[-0.906034,39.943955],[-0.906756,39.942563],[-0.904926,39.940367],[-0.904371,39.934781],[-0.902659,39.931849],[-0.903487,39.92618],[-0.905707,39.926301],[-0.90761,39.927957],[-0.912045,39.92256],[-0.913821,39.918006],[-0.911679,39.914202],[-0.912071,39.910146],[-0.907609,39.900733],[-0.909615,39.898607],[-0.902959,39.89709],[-0.900242,39.891834],[-0.903708,39.88787],[-0.908149,39.886031],[-0.908552,39.880489],[-0.912788,39.873052],[-0.908707,39.86652],[-0.895058,39.856778],[-0.889979,39.854316],[-0.888574,39.852111],[-0.879288,39.852284],[-0.874033,39.848341],[-0.870196,39.848829],[-0.86742,39.846778],[-0.863555,39.84741],[-0.858047,39.850515],[-0.85846,39.852261],[-0.857158,39.851679],[-0.857838,39.853853],[-0.856454,39.855503],[-0.848688,39.857161],[-0.844331,39.860405],[-0.838793,39.862545],[-0.828737,39.871149],[-0.821014,39.873193],[-0.814983,39.873512],[-0.808172,39.877392],[-0.797694,39.881067],[-0.793765,39.881434],[-0.790971,39.879966],[-0.779216,39.872103],[-0.773562,39.869796],[-0.7642,39.858554],[-0.76266,39.854488],[-0.754038,39.843268],[-0.74868,39.840209],[-0.745168,39.835763],[-0.74521,39.831962],[-0.740684,39.83209],[-0.737195,39.829806],[-0.737551,39.822156],[-0.73591,39.819484],[-0.730676,39.816634],[-0.730455,39.814828],[-0.727513,39.816194],[-0.725885,39.814189],[-0.722517,39.813231],[-0.712549,39.816845],[-0.707046,39.835132],[-0.702238,39.839487],[-0.695119,39.850057],[-0.691111,39.852463],[-0.668551,39.840399],[-0.656151,39.83596],[-0.652262,39.822855],[-0.651032,39.811948],[-0.644707,39.791586],[-0.647716,39.787926],[-0.64908,39.770838],[-0.652346,39.754085],[-0.631009,39.746335],[-0.588224,39.741688],[-0.581314,39.756715],[-0.577148,39.768024],[-0.577048,39.773202],[-0.558549,39.790543],[-0.548404,39.795734],[-0.530586,39.795977],[-0.52085,39.784473],[-0.513849,39.779143],[-0.513512,39.775857],[-0.508524,39.770759],[-0.505861,39.759477],[-0.501182,39.753296],[-0.498251,39.747557],[-0.489987,39.741811],[-0.482703,39.734185],[-0.475123,39.731841],[-0.470723,39.726439],[-0.46367,39.720573],[-0.461004,39.715353],[-0.456176,39.714698],[-0.448379,39.716418],[-0.445091,39.718904],[-0.439393,39.730066],[-0.437469,39.733177],[-0.439083,39.736861],[-0.433044,39.736412],[-0.430171,39.73961],[-0.419186,39.745996],[-0.409599,39.745197],[-0.396094,39.758614],[-0.388978,39.768697],[-0.38694,39.769182],[-0.38586,39.776437],[-0.3918,39.779895],[-0.388812,39.790079],[-0.382759,39.794194],[-0.377919,39.799877],[-0.357393,39.799745],[-0.350012,39.800954],[-0.338504,39.800159],[-0.328259,39.801482],[-0.328259,39.801483],[-0.316024,39.79983],[-0.308568,39.796991],[-0.297481,39.785185],[-0.276528,39.770542],[-0.275429,39.764086],[-0.27156,39.760363],[-0.273705,39.755099],[-0.271192,39.750454],[-0.262241,39.74455],[-0.259808,39.743529],[-0.259028,39.743177],[-0.246829,39.743005],[-0.240813,39.740241],[-0.234737,39.739006],[-0.23396,39.740059],[-0.225769,39.735405],[-0.195603,39.724336],[-0.188571,39.721962],[-0.196423,39.703377],[-0.200642,39.687273],[-0.201404,39.685347],[-0.202461,39.685511],[-0.201404,39.685346],[-0.203619,39.671779],[-0.208814,39.662362],[-0.210062,39.654067],[-0.208861,39.65351],[-0.209603,39.650536],[-0.208013,39.643426],[-0.210188,39.650181],[-0.209632,39.652403],[-0.215868,39.655344],[-0.22005,39.650071],[-0.213675,39.647615],[-0.213736,39.646571],[-0.215913,39.647288],[-0.232855,39.637651],[-0.237808,39.636146],[-0.24648,39.628637],[-0.258892,39.614931],[-0.266583,39.602988],[-0.268062,39.598248],[-0.275431,39.574799],[-0.280437,39.566169],[-0.280846,39.562837],[-0.283369,39.55994],[-0.281413,39.562634],[-0.282215,39.564139],[-0.285149,39.561116],[-0.284265,39.560521],[-0.286713,39.560128],[-0.289444,39.55665],[-0.295669,39.54947],[-0.299353,39.545089],[-0.310774,39.530471],[-0.312315,39.527895],[-0.313987,39.524978],[-0.319043,39.514492],[-0.322779,39.497155],[-0.323528,39.484624],[-0.321272,39.463161],[-0.319847,39.462806],[-0.31164,39.451027],[-0.301991,39.449273],[-0.302131,39.433956],[-0.303503,39.433894],[-0.302768,39.444607],[-0.304428,39.445415],[-0.303981,39.446957],[-0.307526,39.447045],[-0.310509,39.442002],[-0.313508,39.4417],[-0.312021,39.442122],[-0.313012,39.442842],[-0.310154,39.447951],[-0.308307,39.448428],[-0.30836,39.450233],[-0.313892,39.45067],[-0.315011,39.446697],[-0.323288,39.458406],[-0.325529,39.458057],[-0.324276,39.460011],[-0.32533,39.46148],[-0.328539,39.461837],[-0.331199,39.460253],[-0.330178,39.457543],[-0.328071,39.456054],[-0.325667,39.457458],[-0.326799,39.455344],[-0.322721,39.454046],[-0.326164,39.451982],[-0.320457,39.449886],[-0.321352,39.448204],[-0.325548,39.449541],[-0.324988,39.446191],[-0.31597,39.443245],[-0.318814,39.443251],[-0.320175,39.441662],[-0.328236,39.444442],[-0.325588,39.442345],[-0.329832,39.43984],[-0.332243,39.435229],[-0.33416,39.436434],[-0.334366,39.4346],[-0.333013,39.433556],[-0.333666,39.435056],[-0.332891,39.434683],[-0.332736,39.430149],[-0.330493,39.430019],[-0.332866,39.429301],[-0.332828,39.426993],[-0.329863,39.4264],[-0.330422,39.431256],[-0.329481,39.426362],[-0.333072,39.426704],[-0.334008,39.425187],[-0.336584,39.426265],[-0.337983,39.425633],[-0.333773,39.424016],[-0.333612,39.422341],[-0.332472,39.422716],[-0.33362,39.420153],[-0.331388,39.40998],[-0.320139,39.372272],[-0.302954,39.330082],[-0.291908,39.308537],[-0.297929,39.309364],[-0.291731,39.307705],[-0.275088,39.279372],[-0.273746,39.279093],[-0.273208,39.275848],[-0.244654,39.22543],[-0.220522,39.187415],[-0.215714,39.186039],[-0.217544,39.185416],[-0.21854,39.180999],[-0.220129,39.180343],[-0.222357,39.181955],[-0.225099,39.180822],[-0.227394,39.181633],[-0.228882,39.178525],[-0.232855,39.18052],[-0.236993,39.178303],[-0.23984,39.172686],[-0.241197,39.164034],[-0.239585,39.152284],[-0.235504,39.151601],[-0.239527,39.151688],[-0.235816,39.150717],[-0.238122,39.150925],[-0.239276,39.149529],[-0.238831,39.144329],[-0.237806,39.141863],[-0.235717,39.141147],[-0.237575,39.140948],[-0.236143,39.14031],[-0.236121,39.136427],[-0.222021,39.105777],[-0.199481,39.058499],[-0.199422,39.058255],[-0.181216,39.030788],[-0.156294,38.998382],[-0.151672,38.997224],[-0.156805,38.997869],[-0.155453,38.997539],[-0.155885,38.99662],[-0.152981,38.996812],[-0.161094,38.992375],[-0.155121,38.994532],[-0.15309,38.99423],[-0.151408,38.995883],[-0.152424,38.994142],[-0.149994,38.993128],[-0.152131,38.993387],[-0.151838,38.989767],[-0.146945,38.983405],[-0.136017,38.970993],[-0.133189,38.968437],[-0.132992,38.968179],[-0.127709,38.962698],[-0.125328,38.960477],[-0.118932,38.954022],[-0.117481,38.953103],[-0.107776,38.94352],[-0.107404,38.943294],[-0.069105,38.90968],[-0.037694,38.886421],[-0.037107,38.880576],[-0.033358,38.879265],[-0.029327,38.873937],[-0.02624,38.873894],[-0.024795,38.872335],[-0.027625,38.870245],[-0.028418,38.867247],[-0.027397,38.8616],[-0.034679,38.856893],[-0.042152,38.856452],[-0.045895,38.864583],[-0.056957,38.869061],[-0.06489,38.874846],[-0.06523,38.878629],[-0.067525,38.879705],[-0.067988,38.883572],[-0.069697,38.885183],[-0.070944,38.885701],[-0.076596,38.883635],[-0.078697,38.88412],[-0.07828,38.880515],[-0.0801,38.881381],[-0.082698,38.879851],[-0.086158,38.88037],[-0.089789,38.879235],[-0.089706,38.875891],[-0.092173,38.874466],[-0.090734,38.872736],[-0.092085,38.871527],[-0.095441,38.874872],[-0.102096,38.875028],[-0.148076,38.858431],[-0.155093,38.860477],[-0.153762,38.871886],[-0.15465,38.873629],[-0.160832,38.887391],[-0.162327,38.882833],[-0.167562,38.879888],[-0.180066,38.878758],[-0.197637,38.866318],[-0.196316,38.859438],[-0.230539,38.85349],[-0.240678,38.858883],[-0.242099,38.860574],[-0.245837,38.858654],[-0.260273,38.859931],[-0.27338,38.864021],[-0.282402,38.869817],[-0.289107,38.872622],[-0.299252,38.881695],[-0.310808,38.881511],[-0.312713,38.874988],[-0.315909,38.87307],[-0.317383,38.868807],[-0.322447,38.866526],[-0.323667,38.863491],[-0.33135,38.862946],[-0.335712,38.864037],[-0.34475,38.861766],[-0.348261,38.861557],[-0.35335,38.858573],[-0.354089,38.857905],[-0.349892,38.857342],[-0.351336,38.856329],[-0.355173,38.849795],[-0.369782,38.842926],[-0.38237,38.834542],[-0.393159,38.836243],[-0.402211,38.839787],[-0.404351,38.838924],[-0.404066,38.833125],[-0.431534,38.826551],[-0.432242,38.826423],[-0.44027,38.823824],[-0.443342,38.81908],[-0.444305,38.820498],[-0.447455,38.819693],[-0.453541,38.817276],[-0.460618,38.814862],[-0.461361,38.810463],[-0.461876,38.807645],[-0.474493,38.803856],[-0.477539,38.805291],[-0.479462,38.804648],[-0.51583,38.806833],[-0.525637,38.810582],[-0.535306,38.810363],[-0.546679,38.805449],[-0.548261,38.805653],[-0.560197,38.804119],[-0.567602,38.801705],[-0.580227,38.80087],[-0.596147,38.794805],[-0.59451,38.79456],[-0.593529,38.792215],[-0.596298,38.790317],[-0.592695,38.788252],[-0.591626,38.784797],[-0.589977,38.784538],[-0.591071,38.782812],[-0.589292,38.780262],[-0.590356,38.77841],[-0.588647,38.774482],[-0.584261,38.768364],[-0.576561,38.764285],[-0.571046,38.760972],[-0.565642,38.755427],[-0.563015,38.755534],[-0.559908,38.753856],[-0.556879,38.75528],[-0.556458,38.757505],[-0.541813,38.761766],[-0.54187,38.763803],[-0.53152,38.767225],[-0.529627,38.767095],[-0.525848,38.763888],[-0.525193,38.760189],[-0.520884,38.756692],[-0.515296,38.755231],[-0.50747,38.755263],[-0.507115,38.742975],[-0.51141,38.743219],[-0.514168,38.742305],[-0.515869,38.739701],[-0.523311,38.738057],[-0.524548,38.735552],[-0.530286,38.734619],[-0.537448,38.731401],[-0.551234,38.717113],[-0.571484,38.711049],[-0.577863,38.710803],[-0.58416,38.708563],[-0.587857,38.704279],[-0.590704,38.704094],[-0.593788,38.699887],[-0.596657,38.69973],[-0.603735,38.695388],[-0.608929,38.694422],[-0.616801,38.689691],[-0.618051,38.686653],[-0.6287,38.686554],[-0.629472,38.689624],[-0.638116,38.697682],[-0.63958,38.701424],[-0.642469,38.70414],[-0.640012,38.707172],[-0.643555,38.718335],[-0.64344,38.727766],[-0.653195,38.730548],[-0.671058,38.731645],[-0.674999,38.7293],[-0.677571,38.729107],[-0.686772,38.737688],[-0.688785,38.741268],[-0.707189,38.733819],[-0.708385,38.739231],[-0.712856,38.742968],[-0.717193,38.750576],[-0.722215,38.753675],[-0.733289,38.751701],[-0.736025,38.753592],[-0.731994,38.756262],[-0.734931,38.759445],[-0.737159,38.756668],[-0.744788,38.759258]]],[[[-1.335775,40.016673],[-1.350083,40.01513],[-1.358961,40.012337],[-1.364343,40.012179],[-1.376859,40.016499],[-1.381282,40.027165],[-1.383136,40.038965],[-1.393739,40.053113],[-1.400728,40.067075],[-1.413122,40.081218],[-1.413548,40.086071],[-1.414704,40.088825],[-1.420285,40.093514],[-1.407596,40.101403],[-1.410199,40.104502],[-1.419491,40.108035],[-1.429324,40.113592],[-1.442811,40.118045],[-1.456213,40.130954],[-1.457235,40.135057],[-1.448855,40.145342],[-1.431856,40.139266],[-1.422394,40.142345],[-1.411736,40.140803],[-1.404579,40.139173],[-1.400578,40.136595],[-1.393564,40.134363],[-1.389222,40.135329],[-1.384917,40.138197],[-1.376838,40.140282],[-1.371254,40.138645],[-1.363661,40.13861],[-1.363882,40.131839],[-1.36174,40.129637],[-1.357099,40.128887],[-1.354596,40.129473],[-1.347373,40.135523],[-1.339897,40.138875],[-1.33606,40.142153],[-1.319721,40.146395],[-1.316589,40.149656],[-1.31948,40.156184],[-1.317064,40.160815],[-1.317288,40.164116],[-1.322563,40.171634],[-1.322989,40.184856],[-1.314992,40.20137],[-1.310958,40.203906],[-1.300769,40.206387],[-1.297106,40.209522],[-1.298227,40.211683],[-1.293083,40.206922],[-1.296741,40.199229],[-1.287004,40.181896],[-1.284341,40.171497],[-1.282117,40.171193],[-1.276685,40.167275],[-1.276543,40.162219],[-1.252417,40.143299],[-1.245735,40.147081],[-1.244296,40.145969],[-1.247263,40.140149],[-1.246154,40.138556],[-1.248847,40.135606],[-1.24586,40.128065],[-1.250614,40.123921],[-1.250559,40.123325],[-1.24497,40.116142],[-1.236311,40.113389],[-1.233862,40.114613],[-1.221679,40.115651],[-1.216568,40.112771],[-1.208464,40.110385],[-1.201302,40.111003],[-1.191454,40.110724],[-1.186137,40.11255],[-1.174651,40.112955],[-1.165577,40.114857],[-1.160405,40.113874],[-1.157809,40.115301],[-1.149799,40.114732],[-1.147594,40.114264],[-1.14397,40.108585],[-1.135644,40.104118],[-1.133446,40.097407],[-1.12276,40.095694],[-1.117852,40.092866],[-1.11186,40.092805],[-1.105939,40.08851],[-1.082683,40.071254],[-1.078097,40.06879],[-1.07946,40.067038],[-1.072129,40.060484],[-1.071699,40.051594],[-1.076588,40.047838],[-1.084228,40.036208],[-1.097898,40.032677],[-1.107274,40.026299],[-1.116684,40.023759],[-1.134081,40.015752],[-1.136196,40.015093],[-1.139044,40.016346],[-1.146274,40.01675],[-1.153439,40.012621],[-1.15967,40.012261],[-1.165188,40.010096],[-1.173583,40.010706],[-1.179814,40.006372],[-1.185133,40.005482],[-1.191751,40.001532],[-1.199549,40.003446],[-1.207147,40.001834],[-1.216619,40.001557],[-1.249456,39.995103],[-1.264211,39.99846],[-1.275808,40.004048],[-1.286389,40.008178],[-1.307994,40.010468],[-1.328344,40.013413],[-1.335775,40.016673]]]]}}
]
}
