{
"type": "FeatureCollection",
"name": "cod_prov_21",
"crs": { "type": "name", "properties": { "name": "urn:ogc:def:crs:OGC:1.3:CRS84" } },
"xy_coordinate_resolution": 1e-15,
"features": [
{"type":"Feature","properties":{"fid":43,"cod_ccaa":"01","provincia":"Huelva","cod_prov":"21"},"geometry":{"type":"MultiPolygon","coordinates":[[[[-6.910504,37.153056],[-6.910289,37.156099],[-6.912189,37.154523],[-6.914141,37.154629],[-6.916307,37.157558],[-6.920041,37.158596],[-6.923492,37.161554],[-6.926009,37.160596],[-6.933124,37.165414],[-6.940492,37.165962],[-6.942087,37.164809],[-6.940733,37.162584],[-6.941807,37.162035],[-6.944886,37.165176],[-6.950888,37.166309],[-6.947731,37.166207],[-6.945093,37.168295],[-6.950836,37.168112],[-6.948454,37.17102],[-6.951181,37.170208],[-6.969991,37.177515],[-6.989816,37.187343],[-7.026812,37.203215],[-7.051774,37.20838],[-7.055709,37.206455],[-7.063355,37.20446],[-7.067432,37.206158],[-7.067652,37.207303],[-7.068799,37.206444],[-7.07072,37.209909],[-7.070124,37.206579],[-7.07443,37.20498],[-7.108838,37.207339],[-7.152541,37.20748],[-7.168043,37.205746],[-7.197956,37.206021],[-7.230711,37.203728],[-7.284835,37.200644],[-7.31263,37.193823],[-7.322676,37.192691],[-7.325112,37.193557],[-7.330454,37.192073],[-7.332961,37.189704],[-7.334931,37.186527],[-7.330874,37.184081],[-7.32758,37.180815],[-7.333011,37.185039],[-7.345766,37.181517],[-7.356599,37.174336],[-7.365613,37.171572],[-7.381622,37.171628],[-7.393989,37.177023],[-7.402142,37.174766],[-7.407142,37.181965],[-7.41404,37.211647],[-7.412871,37.219419],[-7.413609,37.224534],[-7.419329,37.237605],[-7.431255,37.24522],[-7.434096,37.24968],[-7.431268,37.260432],[-7.422205,37.273264],[-7.423151,37.276336],[-7.434118,37.289192],[-7.437561,37.300969],[-7.442461,37.310837],[-7.439413,37.326668],[-7.445593,37.344233],[-7.444834,37.347819],[-7.439069,37.354503],[-7.437172,37.359645],[-7.439152,37.37944],[-7.437964,37.379467],[-7.441446,37.39285],[-7.450666,37.40196],[-7.46076,37.406343],[-7.462805,37.409787],[-7.460849,37.413365],[-7.448937,37.415085],[-7.445571,37.419256],[-7.447645,37.421871],[-7.454765,37.425763],[-7.458357,37.431103],[-7.459233,37.43996],[-7.456538,37.451824],[-7.46623,37.462427],[-7.469585,37.471316],[-7.468863,37.479872],[-7.463497,37.485399],[-7.465838,37.489975],[-7.470606,37.493163],[-7.480645,37.495646],[-7.484508,37.498246],[-7.490899,37.508675],[-7.490471,37.518689],[-7.493147,37.522576],[-7.495466,37.523533],[-7.50182,37.5222],[-7.507116,37.522448],[-7.510876,37.523862],[-7.512601,37.526201],[-7.512579,37.537838],[-7.514698,37.542026],[-7.519843,37.547241],[-7.522851,37.553394],[-7.522699,37.556669],[-7.519336,37.559428],[-7.512601,37.56011],[-7.508079,37.556807],[-7.506903,37.557185],[-7.507513,37.566537],[-7.509642,37.567329],[-7.514109,37.565978],[-7.515575,37.569822],[-7.507143,37.576152],[-7.501404,37.57838],[-7.501305,37.583688],[-7.501685,37.585286],[-7.497985,37.589444],[-7.496472,37.594005],[-7.500385,37.597332],[-7.50386,37.604458],[-7.497265,37.606782],[-7.490896,37.603477],[-7.489049,37.603637],[-7.485904,37.609503],[-7.486156,37.612376],[-7.480383,37.617666],[-7.482434,37.623721],[-7.4774,37.625498],[-7.470587,37.624622],[-7.47122,37.634604],[-7.470074,37.636449],[-7.466233,37.637567],[-7.463688,37.642149],[-7.467331,37.649261],[-7.463309,37.649252],[-7.457777,37.645769],[-7.454544,37.646251],[-7.453363,37.648295],[-7.454771,37.654024],[-7.451407,37.658394],[-7.454358,37.659426],[-7.455885,37.661854],[-7.453231,37.663314],[-7.44415,37.664729],[-7.44772,37.673277],[-7.452556,37.677795],[-7.447443,37.681924],[-7.443588,37.688518],[-7.447616,37.697886],[-7.443817,37.701839],[-7.44104,37.699756],[-7.439193,37.701095],[-7.440098,37.705798],[-7.436253,37.717922],[-7.434713,37.719655],[-7.431413,37.720608],[-7.42629,37.73377],[-7.428767,37.737262],[-7.428488,37.740578],[-7.419535,37.743544],[-7.418348,37.74494],[-7.418913,37.749098],[-7.422663,37.754928],[-7.42111,37.75912],[-7.413147,37.759897],[-7.409636,37.763244],[-7.408272,37.767393],[-7.40291,37.766909],[-7.398476,37.764076],[-7.395649,37.764992],[-7.391706,37.770643],[-7.382142,37.775259],[-7.379088,37.782146],[-7.369045,37.786771],[-7.365948,37.792767],[-7.360793,37.79349],[-7.356328,37.799203],[-7.349129,37.802262],[-7.346552,37.805546],[-7.341421,37.806708],[-7.335247,37.811376],[-7.324128,37.815766],[-7.321184,37.819018],[-7.320183,37.823657],[-7.314248,37.828586],[-7.309701,37.836498],[-7.303266,37.839499],[-7.300512,37.842914],[-7.297534,37.856758],[-7.289084,37.861669],[-7.286523,37.86551],[-7.283458,37.86908],[-7.281796,37.874896],[-7.279548,37.876707],[-7.282633,37.888952],[-7.282183,37.897453],[-7.281097,37.898528],[-7.273689,37.899149],[-7.274855,37.901817],[-7.273753,37.904785],[-7.269443,37.906509],[-7.267779,37.912342],[-7.261707,37.918219],[-7.26207,37.924303],[-7.258121,37.922069],[-7.255395,37.922708],[-7.255057,37.925332],[-7.257866,37.933012],[-7.254448,37.936252],[-7.253376,37.938363],[-7.254376,37.939741],[-7.252483,37.941818],[-7.252773,37.944284],[-7.254768,37.945743],[-7.25117,37.948818],[-7.250765,37.952841],[-7.248505,37.954481],[-7.251982,37.959939],[-7.249966,37.966993],[-7.25242,37.969092],[-7.254218,37.969108],[-7.254789,37.970916],[-7.26304,37.977624],[-7.263192,37.979852],[-7.260049,37.979624],[-7.259141,37.981431],[-7.256274,37.981841],[-7.253596,37.985307],[-7.248494,37.987221],[-7.248152,37.989971],[-7.243492,37.99204],[-7.233731,37.990925],[-7.232451,37.989836],[-7.230739,37.991528],[-7.227143,37.98837],[-7.22278,37.989887],[-7.216523,37.995678],[-7.209271,37.996244],[-7.206042,37.997684],[-7.206911,38.000355],[-7.202218,38.003477],[-7.19171,38.001249],[-7.186981,38.002949],[-7.183574,37.997081],[-7.177415,37.998264],[-7.173076,37.993194],[-7.165049,37.995956],[-7.163083,37.993999],[-7.160228,37.995235],[-7.15843,37.993831],[-7.156019,37.993871],[-7.150158,37.998303],[-7.149888,38.000789],[-7.145412,38.002748],[-7.137255,37.999199],[-7.132847,37.999949],[-7.125015,38.004196],[-7.120701,38.005212],[-7.122621,38.005955],[-7.123385,38.008],[-7.129062,38.010782],[-7.12775,38.019862],[-7.131905,38.021464],[-7.131204,38.02256],[-7.126942,38.022287],[-7.124888,38.025052],[-7.128491,38.027375],[-7.12813,38.029865],[-7.121087,38.033003],[-7.119211,38.030619],[-7.117459,38.032482],[-7.11604,38.031937],[-7.114046,38.035385],[-7.115512,38.036342],[-7.112603,38.037678],[-7.110781,38.036247],[-7.108275,38.040928],[-7.103562,38.040967],[-7.09878,38.043845],[-7.095502,38.042861],[-7.094909,38.041611],[-7.093282,38.041848],[-7.093194,38.04068],[-7.090609,38.040266],[-7.090128,38.038175],[-7.082353,38.035987],[-7.08262,38.033834],[-7.080136,38.035028],[-7.073727,38.032188],[-7.071277,38.03402],[-7.06709,38.033463],[-7.068128,38.031031],[-7.066783,38.027718],[-7.064078,38.028433],[-7.064073,38.027091],[-7.062136,38.02687],[-7.063959,38.022573],[-7.063368,38.019702],[-7.059303,38.017438],[-7.057215,38.019005],[-7.05196,38.01888],[-7.047302,38.01742],[-7.044611,38.014234],[-7.042103,38.017067],[-7.038388,38.01742],[-7.030481,38.022718],[-7.024233,38.025058],[-7.016112,38.021481],[-7.007703,38.020948],[-7.00427,38.023137],[-7.002399,38.02266],[-7.003043,38.030088],[-6.999074,38.035006],[-7.002563,38.043858],[-7.000119,38.049382],[-6.990117,38.055433],[-6.990478,38.070238],[-6.987561,38.074643],[-6.989826,38.091761],[-6.987363,38.103897],[-6.985012,38.102787],[-6.982226,38.102927],[-6.978892,38.104914],[-6.975527,38.104253],[-6.97518,38.108138],[-6.970855,38.11059],[-6.972263,38.115326],[-6.970257,38.120591],[-6.967853,38.122519],[-6.967278,38.126213],[-6.96485,38.128115],[-6.966844,38.129569],[-6.964109,38.13086],[-6.966677,38.131106],[-6.966068,38.133766],[-6.960417,38.13302],[-6.957612,38.13724],[-6.961461,38.140299],[-6.958239,38.145461],[-6.958722,38.150372],[-6.952213,38.152348],[-6.952914,38.154143],[-6.957196,38.156125],[-6.9604,38.156089],[-6.962507,38.154549],[-6.964493,38.15732],[-6.968812,38.159966],[-6.968876,38.166188],[-6.967595,38.167807],[-6.965392,38.167999],[-6.961482,38.176904],[-6.95662,38.183211],[-6.952596,38.187085],[-6.941412,38.194064],[-6.935049,38.200304],[-6.931732,38.208032],[-6.927226,38.204436],[-6.925091,38.205271],[-6.924157,38.205097],[-6.9254,38.201884],[-6.922768,38.200279],[-6.918198,38.201261],[-6.913815,38.199768],[-6.902806,38.201802],[-6.898741,38.198566],[-6.894744,38.198107],[-6.892785,38.195405],[-6.883623,38.193528],[-6.860116,38.18045],[-6.848751,38.177232],[-6.822692,38.173814],[-6.812404,38.175879],[-6.806045,38.178653],[-6.795411,38.178535],[-6.79287,38.173316],[-6.792862,38.166336],[-6.79426,38.159868],[-6.798903,38.155241],[-6.79954,38.143798],[-6.809139,38.134704],[-6.813373,38.123829],[-6.816124,38.120155],[-6.812636,38.115143],[-6.80782,38.11111],[-6.799951,38.114797],[-6.797828,38.113875],[-6.796877,38.110474],[-6.789159,38.109174],[-6.783339,38.11192],[-6.78035,38.109017],[-6.774859,38.112643],[-6.770055,38.112113],[-6.769623,38.11037],[-6.773639,38.104665],[-6.771363,38.103189],[-6.764929,38.105999],[-6.764574,38.102407],[-6.770088,38.099456],[-6.761024,38.097873],[-6.758217,38.092711],[-6.754494,38.09501],[-6.747678,38.091463],[-6.742245,38.093311],[-6.731991,38.090053],[-6.73046,38.092443],[-6.735164,38.093942],[-6.729395,38.099504],[-6.727125,38.099711],[-6.726864,38.097485],[-6.724168,38.096913],[-6.71975,38.10062],[-6.716968,38.099925],[-6.715458,38.092622],[-6.711335,38.09495],[-6.705901,38.096581],[-6.692608,38.09473],[-6.690611,38.096045],[-6.689956,38.100029],[-6.688667,38.100232],[-6.686025,38.097576],[-6.681935,38.096471],[-6.680022,38.097431],[-6.676797,38.095397],[-6.673568,38.095805],[-6.672501,38.094289],[-6.666378,38.094255],[-6.660368,38.092371],[-6.658913,38.092902],[-6.658711,38.09526],[-6.653027,38.096482],[-6.65012,38.095329],[-6.651516,38.0927],[-6.649297,38.090022],[-6.646167,38.091254],[-6.642714,38.097226],[-6.637647,38.096215],[-6.631799,38.096606],[-6.628253,38.098428],[-6.62446,38.096662],[-6.622775,38.097156],[-6.612781,38.085897],[-6.607714,38.083431],[-6.604496,38.077332],[-6.598835,38.073912],[-6.595117,38.069785],[-6.594317,38.066864],[-6.58836,38.062019],[-6.587376,38.059131],[-6.580526,38.052772],[-6.580514,38.050422],[-6.584461,38.044238],[-6.583848,38.034249],[-6.587174,38.026778],[-6.58474,38.0266],[-6.586115,38.023739],[-6.582329,38.020845],[-6.579068,38.022152],[-6.576283,38.020615],[-6.572153,38.020227],[-6.569654,38.022709],[-6.571566,38.023146],[-6.571523,38.024138],[-6.565238,38.026987],[-6.55342,38.02657],[-6.545693,38.028119],[-6.542841,38.027313],[-6.52482,38.021513],[-6.495041,38.019133],[-6.49283,38.016207],[-6.495603,38.015152],[-6.491747,38.012114],[-6.491735,38.009465],[-6.484357,38.008018],[-6.480012,38.009552],[-6.478656,38.008097],[-6.47656,38.007834],[-6.47398,38.009857],[-6.470559,38.009985],[-6.46928,38.012085],[-6.465449,38.011009],[-6.464725,38.013769],[-6.472177,38.015793],[-6.47386,38.024427],[-6.46962,38.03112],[-6.465778,38.032233],[-6.465855,38.035321],[-6.46125,38.035689],[-6.452669,38.042878],[-6.447932,38.043648],[-6.444642,38.046114],[-6.444016,38.047592],[-6.45276,38.055957],[-6.444637,38.0596],[-6.443568,38.059163],[-6.436517,38.057496],[-6.418912,38.059163],[-6.414223,38.058561],[-6.403891,38.054176],[-6.402618,38.052528],[-6.388778,38.048136],[-6.373322,38.049698],[-6.367567,38.048917],[-6.367529,38.046098],[-6.363324,38.043075],[-6.362036,38.04058],[-6.361803,38.037226],[-6.358166,38.028224],[-6.359555,38.022473],[-6.357818,38.018846],[-6.359096,38.016657],[-6.356571,38.014738],[-6.354913,38.009848],[-6.347044,38.00282],[-6.339989,37.999652],[-6.336675,37.99962],[-6.333508,37.99807],[-6.329293,37.998271],[-6.321743,37.99343],[-6.31995,37.990273],[-6.314825,37.988697],[-6.309428,37.98528],[-6.308792,37.983091],[-6.303691,37.978243],[-6.290773,37.976975],[-6.288647,37.975494],[-6.280433,37.973525],[-6.276535,37.973913],[-6.272591,37.972762],[-6.265435,37.973582],[-6.257514,37.971271],[-6.252896,37.971588],[-6.247327,37.96712],[-6.246018,37.962724],[-6.240008,37.95906],[-6.233564,37.95794],[-6.226751,37.959845],[-6.221468,37.959535],[-6.214806,37.961493],[-6.210346,37.960723],[-6.208715,37.95856],[-6.20533,37.959733],[-6.204314,37.962013],[-6.202149,37.962207],[-6.200432,37.96093],[-6.202111,37.959497],[-6.200807,37.958568],[-6.19433,37.955086],[-6.195989,37.948744],[-6.185717,37.945103],[-6.18024,37.941026],[-6.18227,37.938512],[-6.181585,37.935818],[-6.183938,37.92761],[-6.169969,37.909815],[-6.166586,37.909158],[-6.166785,37.911423],[-6.163745,37.917965],[-6.156897,37.916591],[-6.150969,37.919191],[-6.151473,37.91634],[-6.150483,37.915807],[-6.145213,37.920498],[-6.138354,37.909248],[-6.131119,37.90863],[-6.125237,37.905066],[-6.125095,37.90334],[-6.12539,37.900908],[-6.136313,37.895725],[-6.141417,37.884994],[-6.145983,37.883854],[-6.150841,37.87648],[-6.159191,37.873445],[-6.160638,37.870063],[-6.160232,37.865894],[-6.164294,37.86201],[-6.163619,37.857937],[-6.159035,37.854105],[-6.151726,37.853761],[-6.145667,37.856914],[-6.14216,37.855674],[-6.138429,37.844332],[-6.134579,37.841695],[-6.135418,37.834934],[-6.129594,37.832341],[-6.129079,37.82875],[-6.126213,37.824096],[-6.125945,37.818553],[-6.12166,37.816595],[-6.124525,37.812618],[-6.127133,37.811458],[-6.124296,37.804758],[-6.126428,37.797169],[-6.129073,37.795802],[-6.138198,37.79546],[-6.133859,37.790025],[-6.134016,37.787832],[-6.135562,37.789232],[-6.142996,37.787313],[-6.143849,37.790813],[-6.147105,37.793708],[-6.149998,37.793388],[-6.152434,37.794863],[-6.153925,37.794688],[-6.15725,37.790662],[-6.159089,37.790657],[-6.163113,37.794225],[-6.167423,37.792785],[-6.167755,37.795785],[-6.172847,37.79591],[-6.171982,37.798501],[-6.177873,37.798459],[-6.184238,37.80945],[-6.187663,37.80988],[-6.202397,37.805534],[-6.204486,37.802369],[-6.20839,37.800235],[-6.207308,37.798309],[-6.212164,37.79588],[-6.215528,37.791238],[-6.212291,37.786227],[-6.207571,37.771327],[-6.208907,37.769399],[-6.205697,37.766027],[-6.219893,37.754468],[-6.220406,37.748516],[-6.216999,37.743735],[-6.222018,37.741481],[-6.222234,37.739655],[-6.226938,37.739031],[-6.227058,37.741532],[-6.232484,37.738482],[-6.234814,37.738562],[-6.232996,37.742937],[-6.233836,37.743986],[-6.236323,37.744305],[-6.243516,37.740909],[-6.246596,37.74077],[-6.251668,37.74236],[-6.255003,37.745178],[-6.253892,37.747542],[-6.245483,37.746738],[-6.244665,37.747751],[-6.247452,37.757504],[-6.252318,37.763145],[-6.257836,37.760632],[-6.266177,37.761401],[-6.271214,37.758774],[-6.278494,37.75841],[-6.303207,37.761656],[-6.311022,37.76487],[-6.319889,37.763953],[-6.329248,37.759815],[-6.348796,37.757441],[-6.353001,37.75533],[-6.360199,37.754909],[-6.376081,37.750085],[-6.39003,37.747693],[-6.423485,37.734068],[-6.430882,37.727465],[-6.449994,37.718898],[-6.454292,37.721339],[-6.456449,37.720402],[-6.458168,37.721748],[-6.462082,37.721048],[-6.473783,37.725334],[-6.481045,37.722507],[-6.480589,37.720754],[-6.483042,37.720817],[-6.483683,37.719987],[-6.480766,37.715812],[-6.475669,37.714494],[-6.473365,37.709355],[-6.474979,37.708956],[-6.476505,37.71201],[-6.478672,37.711775],[-6.479504,37.705336],[-6.484841,37.701142],[-6.484918,37.69769],[-6.485466,37.696817],[-6.488314,37.698301],[-6.49119,37.696531],[-6.490782,37.69484],[-6.494062,37.691293],[-6.493566,37.68846],[-6.501423,37.688705],[-6.49813,37.682334],[-6.500924,37.677152],[-6.500526,37.670362],[-6.502339,37.66675],[-6.504439,37.666093],[-6.508867,37.668186],[-6.511829,37.664656],[-6.515964,37.665353],[-6.519314,37.662145],[-6.52192,37.664526],[-6.525363,37.664234],[-6.529445,37.658067],[-6.533248,37.657025],[-6.536089,37.650976],[-6.533561,37.645944],[-6.536601,37.640528],[-6.532418,37.639267],[-6.529602,37.636504],[-6.530514,37.634224],[-6.533421,37.633191],[-6.533958,37.62922],[-6.538515,37.62666],[-6.536358,37.623455],[-6.536976,37.620959],[-6.535211,37.621489],[-6.53256,37.620262],[-6.532309,37.618549],[-6.530321,37.61914],[-6.528281,37.61576],[-6.526411,37.61814],[-6.522392,37.618882],[-6.522623,37.621857],[-6.520513,37.62083],[-6.518848,37.622997],[-6.516469,37.6225],[-6.514991,37.625265],[-6.512827,37.624771],[-6.513253,37.623713],[-6.511248,37.622521],[-6.508586,37.624672],[-6.508212,37.621052],[-6.50442,37.62303],[-6.504009,37.624421],[-6.501079,37.621598],[-6.498639,37.622706],[-6.497959,37.621006],[-6.501013,37.619699],[-6.499883,37.618318],[-6.49748,37.61947],[-6.496552,37.617083],[-6.490043,37.621024],[-6.489102,37.617863],[-6.485109,37.616017],[-6.484222,37.620313],[-6.481414,37.621063],[-6.481217,37.619744],[-6.476566,37.619341],[-6.473867,37.622448],[-6.471982,37.620143],[-6.467342,37.621207],[-6.466246,37.619789],[-6.464965,37.621484],[-6.461298,37.621042],[-6.456433,37.623113],[-6.45427,37.62069],[-6.446442,37.620892],[-6.443825,37.623347],[-6.438681,37.621344],[-6.43533,37.622595],[-6.431191,37.620292],[-6.427825,37.621227],[-6.424059,37.62185],[-6.417372,37.619279],[-6.413281,37.619487],[-6.409636,37.614565],[-6.399325,37.612728],[-6.397502,37.610501],[-6.395257,37.611187],[-6.395627,37.609792],[-6.394257,37.604126],[-6.397803,37.601438],[-6.397261,37.600219],[-6.400434,37.601029],[-6.402092,37.5989],[-6.399213,37.598334],[-6.398279,37.595478],[-6.400213,37.594684],[-6.398201,37.594012],[-6.399578,37.591414],[-6.393246,37.588109],[-6.393384,37.585664],[-6.395532,37.585106],[-6.395271,37.582844],[-6.397625,37.584325],[-6.400202,37.583981],[-6.402429,37.579944],[-6.392401,37.554051],[-6.389081,37.551453],[-6.384287,37.55105],[-6.375342,37.546405],[-6.372895,37.544087],[-6.371414,37.540102],[-6.366478,37.535757],[-6.367299,37.531373],[-6.369778,37.529644],[-6.368514,37.528221],[-6.367242,37.518283],[-6.362165,37.513536],[-6.361991,37.510919],[-6.358082,37.504706],[-6.360477,37.504412],[-6.358093,37.499903],[-6.356676,37.500854],[-6.355596,37.499956],[-6.356184,37.496174],[-6.346653,37.493417],[-6.343546,37.489162],[-6.338355,37.485336],[-6.339277,37.48267],[-6.336064,37.478563],[-6.332575,37.470264],[-6.332766,37.464898],[-6.324912,37.457524],[-6.324999,37.455404],[-6.322186,37.454168],[-6.321249,37.451375],[-6.318642,37.450943],[-6.311933,37.445663],[-6.31161,37.442176],[-6.309196,37.440225],[-6.309345,37.437951],[-6.306631,37.435072],[-6.305613,37.42582],[-6.311911,37.422346],[-6.312632,37.418722],[-6.320428,37.419269],[-6.321329,37.420478],[-6.325059,37.419004],[-6.326989,37.416156],[-6.327931,37.417013],[-6.330744,37.415483],[-6.356259,37.412166],[-6.361922,37.401401],[-6.354275,37.39732],[-6.356531,37.386364],[-6.355639,37.385866],[-6.362081,37.375881],[-6.355366,37.373918],[-6.355137,37.37079],[-6.349532,37.368128],[-6.346039,37.365732],[-6.349099,37.362465],[-6.361938,37.355748],[-6.36843,37.349491],[-6.373949,37.34873],[-6.37822,37.346076],[-6.384572,37.337489],[-6.376579,37.330609],[-6.373717,37.330438],[-6.371462,37.327457],[-6.367124,37.326067],[-6.357967,37.31957],[-6.343986,37.313128],[-6.333,37.299104],[-6.336499,37.289455],[-6.338451,37.288202],[-6.340305,37.282707],[-6.342818,37.28115],[-6.341674,37.277966],[-6.338347,37.276663],[-6.337078,37.274744],[-6.342135,37.272078],[-6.349732,37.265169],[-6.35433,37.255498],[-6.35124,37.249612],[-6.355495,37.241851],[-6.359847,37.238096],[-6.345245,37.218283],[-6.347946,37.209296],[-6.350848,37.207412],[-6.349844,37.203053],[-6.353379,37.198943],[-6.352029,37.197945],[-6.353213,37.196722],[-6.350562,37.180562],[-6.346754,37.176435],[-6.336117,37.169617],[-6.34811,37.153079],[-6.352943,37.150374],[-6.3529,37.147357],[-6.358995,37.14113],[-6.359674,37.138426],[-6.355528,37.134507],[-6.351537,37.132304],[-6.348659,37.132368],[-6.345829,37.128664],[-6.343178,37.128009],[-6.34225,37.12353],[-6.343292,37.12114],[-6.345236,37.12031],[-6.349972,37.121041],[-6.353637,37.118189],[-6.360089,37.117286],[-6.360166,37.115446],[-6.356417,37.112597],[-6.356308,37.110645],[-6.3684,37.104256],[-6.376631,37.097588],[-6.380566,37.092998],[-6.385917,37.082079],[-6.385929,37.071978],[-6.383284,37.062801],[-6.380452,37.05852],[-6.378702,37.044416],[-6.359246,37.006181],[-6.353941,36.988491],[-6.355094,36.983278],[-6.361175,36.971897],[-6.359719,36.959721],[-6.363811,36.945801],[-6.373171,36.936589],[-6.37889,36.934705],[-6.369869,36.925852],[-6.356844,36.91904],[-6.345613,36.907518],[-6.334655,36.90324],[-6.331007,36.898802],[-6.339827,36.895238],[-6.345292,36.889128],[-6.3529,36.857378],[-6.353918,36.83832],[-6.352894,36.82924],[-6.351813,36.82527],[-6.344068,36.814189],[-6.34238,36.805271],[-6.342591,36.8024],[-6.34576,36.798767],[-6.353172,36.796317],[-6.363714,36.796821],[-6.371256,36.795058],[-6.387925,36.800629],[-6.397193,36.807276],[-6.435766,36.885292],[-6.449142,36.9076],[-6.465171,36.926856],[-6.498645,36.95893],[-6.51274,36.970532],[-6.5924,37.020509],[-6.619816,37.033063],[-6.668748,37.059757],[-6.729729,37.08998],[-6.776581,37.113135],[-6.795484,37.121107],[-6.822514,37.129084],[-6.841846,37.137827],[-6.865644,37.145548],[-6.883648,37.154093],[-6.893613,37.161423],[-6.899885,37.157965],[-6.907748,37.153309],[-6.910504,37.153056]]]]}}
]
}
