{
"type": "FeatureCollection",
"name": "cod_prov_18",
"crs": { "type": "name", "properties": { "name": "urn:ogc:def:crs:OGC:1.3:CRS84" } },
"xy_coordinate_resolution": 1e-15,
"features": [
{"type":"Feature","properties":{"fid":33,"cod_ccaa":"01","provincia":"Granada","cod_prov":"18"},"geometry":{"type":"MultiPolygon","coordinates":[[[[-3.654631,36.745302],[-3.656276,36.746401],[-3.660504,36.745839],[-3.66182,36.743092],[-3.663312,36.743127],[-3.668338,36.738732],[-3.673996,36.730903],[-3.677777,36.72964],[-3.690608,36.730639],[-3.694585,36.727613],[-3.703373,36.73368],[-3.709392,36.731624],[-3.714309,36.733133],[-3.718624,36.732579],[-3.722802,36.729576],[-3.724771,36.730033],[-3.726847,36.728726],[-3.726374,36.725091],[-3.725521,36.728242],[-3.725237,36.726033],[-3.729091,36.719383],[-3.7356,36.720318],[-3.734818,36.721766],[-3.736877,36.724187],[-3.735312,36.727835],[-3.74925,36.737825],[-3.754175,36.738433],[-3.762015,36.735036],[-3.762474,36.730974],[-3.764592,36.728952],[-3.76664,36.729876],[-3.768526,36.72917],[-3.773076,36.731709],[-3.773691,36.735014],[-3.777439,36.737919],[-3.777341,36.744879],[-3.779383,36.746299],[-3.781483,36.751261],[-3.77954,36.752951],[-3.77923,36.758866],[-3.782278,36.764453],[-3.779485,36.767473],[-3.777654,36.774724],[-3.774714,36.775482],[-3.77042,36.783091],[-3.766984,36.7847],[-3.766063,36.788988],[-3.771015,36.796555],[-3.770869,36.798819],[-3.768143,36.801956],[-3.770794,36.804697],[-3.777848,36.807166],[-3.7865,36.812383],[-3.786419,36.815421],[-3.79061,36.820694],[-3.795334,36.820996],[-3.795377,36.824042],[-3.793385,36.826625],[-3.796093,36.831538],[-3.806301,36.836891],[-3.8152,36.841838],[-3.81532,36.846849],[-3.821494,36.849349],[-3.822903,36.852133],[-3.827169,36.855529],[-3.831479,36.85677],[-3.838463,36.856343],[-3.842331,36.858208],[-3.85878,36.851528],[-3.861029,36.851043],[-3.864091,36.852968],[-3.86761,36.85068],[-3.875757,36.853009],[-3.877707,36.85477],[-3.877137,36.856929],[-3.882553,36.857691],[-3.880794,36.859877],[-3.883032,36.860365],[-3.885088,36.863478],[-3.890565,36.867547],[-3.895498,36.865365],[-3.899101,36.867438],[-3.904821,36.868233],[-3.90957,36.867475],[-3.914015,36.869542],[-3.918597,36.868082],[-3.92009,36.869071],[-3.922435,36.873722],[-3.924103,36.878983],[-3.929525,36.88288],[-3.940035,36.884312],[-3.944135,36.886461],[-3.94645,36.884955],[-3.95212,36.887866],[-3.960005,36.887532],[-3.961532,36.889404],[-3.970779,36.892051],[-3.972688,36.891269],[-3.982727,36.892584],[-3.990983,36.891416],[-3.999211,36.889832],[-4.0122,36.896059],[-4.014154,36.898738],[-4.035629,36.904836],[-4.042578,36.903252],[-4.047409,36.903588],[-4.049061,36.906169],[-4.053773,36.91497],[-4.058549,36.917512],[-4.063651,36.921346],[-4.072246,36.924207],[-4.074154,36.926579],[-4.081624,36.930017],[-4.087064,36.930427],[-4.092,36.933249],[-4.099159,36.942314],[-4.099893,36.952709],[-4.111327,36.949655],[-4.138949,36.952251],[-4.141999,36.951897],[-4.147444,36.954017],[-4.166641,36.957075],[-4.169239,36.962467],[-4.177133,36.966653],[-4.188027,36.977334],[-4.191371,36.978526],[-4.193086,36.980447],[-4.207154,36.986182],[-4.215423,36.991767],[-4.220674,37.005351],[-4.224399,37.009189],[-4.223348,37.012336],[-4.231336,37.016941],[-4.251927,37.022981],[-4.255056,37.022588],[-4.256276,37.020195],[-4.260444,37.017303],[-4.27251,37.014902],[-4.270037,37.027034],[-4.27165,37.030046],[-4.272355,37.039953],[-4.280829,37.055825],[-4.282835,37.071443],[-4.284648,37.088891],[-4.283461,37.09187],[-4.286584,37.098227],[-4.285632,37.10853],[-4.287261,37.111649],[-4.287068,37.11952],[-4.291538,37.130252],[-4.296975,37.133501],[-4.302872,37.145208],[-4.309368,37.153005],[-4.323364,37.180728],[-4.327618,37.184331],[-4.323696,37.190089],[-4.320627,37.191746],[-4.295566,37.199387],[-4.292667,37.201221],[-4.291599,37.204009],[-4.283148,37.207327],[-4.282709,37.210036],[-4.263448,37.227486],[-4.25531,37.229564],[-4.257303,37.248444],[-4.258691,37.251535],[-4.263252,37.260378],[-4.248128,37.269119],[-4.241487,37.289829],[-4.236509,37.297218],[-4.235203,37.311923],[-4.239118,37.327683],[-4.238197,37.33347],[-4.236419,37.33585],[-4.228485,37.337339],[-4.223072,37.340468],[-4.223359,37.342106],[-4.209334,37.352471],[-4.204035,37.352913],[-4.20105,37.351942],[-4.194783,37.350474],[-4.187122,37.350767],[-4.183565,37.349351],[-4.173168,37.348644],[-4.161966,37.34194],[-4.157839,37.342251],[-4.150295,37.351707],[-4.144842,37.362856],[-4.130202,37.373073],[-4.127219,37.378257],[-4.119323,37.38274],[-4.107808,37.386201],[-4.102896,37.389429],[-4.102611,37.393893],[-4.098266,37.396511],[-4.098228,37.400117],[-4.091871,37.40114],[-4.085943,37.403746],[-4.072321,37.40241],[-4.066736,37.40456],[-4.053726,37.402559],[-4.031169,37.406273],[-4.017464,37.401326],[-4.01525,37.402174],[-4.000821,37.40209],[-3.981423,37.387453],[-3.976321,37.388658],[-3.973186,37.38817],[-3.96497,37.38346],[-3.957297,37.381495],[-3.950887,37.378347],[-3.936606,37.379831],[-3.923727,37.378706],[-3.91227,37.378399],[-3.904878,37.380736],[-3.900858,37.383714],[-3.881227,37.38763],[-3.864331,37.387935],[-3.857744,37.387821],[-3.842245,37.385751],[-3.836367,37.395536],[-3.8305,37.401409],[-3.825416,37.402428],[-3.824232,37.405807],[-3.824878,37.408038],[-3.827488,37.410029],[-3.826532,37.413515],[-3.818029,37.421362],[-3.817094,37.426894],[-3.81354,37.430569],[-3.813609,37.432777],[-3.810088,37.438507],[-3.802209,37.453352],[-3.808363,37.457943],[-3.808283,37.459881],[-3.802039,37.460744],[-3.799507,37.463006],[-3.791716,37.466186],[-3.790984,37.472897],[-3.786562,37.478316],[-3.791544,37.478878],[-3.792544,37.482468],[-3.790761,37.482876],[-3.785574,37.490897],[-3.78331,37.491876],[-3.78153,37.490347],[-3.777669,37.490057],[-3.775701,37.48788],[-3.77624,37.476483],[-3.770834,37.479871],[-3.744697,37.486818],[-3.731966,37.488475],[-3.730101,37.487522],[-3.717961,37.495483],[-3.711517,37.50313],[-3.708211,37.504042],[-3.696294,37.512207],[-3.689946,37.513452],[-3.68444,37.517648],[-3.671975,37.518225],[-3.662907,37.521701],[-3.659107,37.520641],[-3.652526,37.523886],[-3.65132,37.523163],[-3.649445,37.524922],[-3.633049,37.527886],[-3.632268,37.529188],[-3.627068,37.52854],[-3.627031,37.529568],[-3.61715,37.535055],[-3.612107,37.539759],[-3.599987,37.547339],[-3.590869,37.548124],[-3.591183,37.550646],[-3.582887,37.553869],[-3.571792,37.561251],[-3.558987,37.565954],[-3.559297,37.569531],[-3.55525,37.573588],[-3.535207,37.581721],[-3.534578,37.585608],[-3.537253,37.589048],[-3.538453,37.593658],[-3.536157,37.597337],[-3.531111,37.59982],[-3.53011,37.602357],[-3.525533,37.605605],[-3.506544,37.617224],[-3.486472,37.604356],[-3.480062,37.601255],[-3.472279,37.599483],[-3.466231,37.599652],[-3.461159,37.598419],[-3.458997,37.595029],[-3.453367,37.591292],[-3.453272,37.588588],[-3.449724,37.584456],[-3.436875,37.573895],[-3.433793,37.575547],[-3.424506,37.569532],[-3.409524,37.567331],[-3.399303,37.564049],[-3.385632,37.565338],[-3.378831,37.564161],[-3.374455,37.56751],[-3.366574,37.567607],[-3.357319,37.576369],[-3.350992,37.574874],[-3.344824,37.575622],[-3.335676,37.57892],[-3.331318,37.581835],[-3.325541,37.581752],[-3.316969,37.584911],[-3.306486,37.586246],[-3.302226,37.588726],[-3.299154,37.588202],[-3.296933,37.587956],[-3.290797,37.594479],[-3.288783,37.603948],[-3.286112,37.607623],[-3.280314,37.614505],[-3.273133,37.618415],[-3.263791,37.629748],[-3.263612,37.630488],[-3.263557,37.630984],[-3.263581,37.631263],[-3.263514,37.631615],[-3.261073,37.633567],[-3.262893,37.635357],[-3.262487,37.639206],[-3.233534,37.638014],[-3.225797,37.639245],[-3.215746,37.644185],[-3.180117,37.643938],[-3.172055,37.642869],[-3.152255,37.627464],[-3.147832,37.62592],[-3.142905,37.621482],[-3.129166,37.612457],[-3.116515,37.608116],[-3.099731,37.605491],[-3.099421,37.602156],[-3.091688,37.596556],[-3.086091,37.595757],[-3.083602,37.599229],[-3.076499,37.599297],[-3.076037,37.601362],[-3.073467,37.6034],[-3.070872,37.603041],[-3.070873,37.603961],[-3.068754,37.602943],[-3.069095,37.604322],[-3.066161,37.604207],[-3.066343,37.605297],[-3.061233,37.605002],[-3.061291,37.606661],[-3.057926,37.606636],[-3.055289,37.611026],[-3.056379,37.613369],[-3.052097,37.614877],[-3.051317,37.618329],[-3.047997,37.618357],[-3.043497,37.615871],[-3.040382,37.618],[-3.036994,37.617406],[-3.035079,37.618605],[-3.035181,37.617587],[-3.030987,37.615424],[-3.029605,37.61611],[-3.028369,37.613965],[-3.026432,37.615651],[-3.024154,37.613245],[-3.024539,37.611622],[-3.02174,37.611596],[-3.021468,37.610018],[-3.008211,37.607956],[-3.00343,37.608127],[-3.001844,37.605666],[-2.995658,37.603124],[-2.990141,37.603944],[-2.983231,37.601446],[-2.979378,37.603212],[-2.978178,37.602752],[-2.976375,37.606664],[-2.984406,37.614255],[-2.978457,37.616877],[-2.97399,37.622906],[-2.974624,37.624393],[-2.973389,37.625258],[-2.975122,37.627079],[-2.97605,37.632668],[-2.977919,37.633984],[-2.938147,37.649941],[-2.919602,37.659618],[-2.902203,37.665707],[-2.891205,37.673025],[-2.888422,37.676492],[-2.884037,37.681319],[-2.898912,37.684794],[-2.901017,37.687806],[-2.904124,37.705926],[-2.902817,37.70797],[-2.904097,37.709891],[-2.900721,37.723156],[-2.90132,37.724725],[-2.904769,37.725097],[-2.907147,37.729182],[-2.906303,37.733147],[-2.902425,37.738949],[-2.903783,37.751172],[-2.898621,37.75717],[-2.890055,37.761461],[-2.880294,37.759946],[-2.874837,37.778147],[-2.876009,37.783367],[-2.872713,37.792025],[-2.859446,37.804412],[-2.856959,37.809889],[-2.847363,37.813905],[-2.843549,37.817731],[-2.840587,37.821404],[-2.839583,37.828667],[-2.835092,37.830004],[-2.832875,37.835517],[-2.828893,37.83717],[-2.830354,37.839407],[-2.827207,37.844008],[-2.823452,37.846003],[-2.81973,37.852929],[-2.819836,37.855921],[-2.821616,37.857934],[-2.820116,37.867278],[-2.817773,37.872313],[-2.819605,37.876137],[-2.814472,37.878211],[-2.810571,37.878449],[-2.806244,37.880938],[-2.799487,37.890039],[-2.798607,37.895923],[-2.79546,37.902785],[-2.789054,37.907614],[-2.784611,37.917647],[-2.774314,37.925577],[-2.773198,37.925935],[-2.768622,37.922808],[-2.767449,37.919353],[-2.762845,37.921805],[-2.754771,37.92743],[-2.752483,37.931211],[-2.743148,37.935778],[-2.736677,37.947328],[-2.734212,37.94908],[-2.731299,37.948848],[-2.728066,37.955303],[-2.724183,37.955825],[-2.72286,37.962456],[-2.718734,37.963699],[-2.715564,37.962231],[-2.710225,37.967932],[-2.706095,37.967327],[-2.702674,37.971528],[-2.69426,37.974453],[-2.691454,37.972815],[-2.689731,37.97382],[-2.683596,37.968062],[-2.678508,37.965173],[-2.674468,37.96491],[-2.670488,37.961365],[-2.660677,37.965961],[-2.6557,37.966262],[-2.650371,37.971384],[-2.642525,37.981076],[-2.63829,37.983253],[-2.628787,37.984522],[-2.624868,37.987078],[-2.61969,37.988548],[-2.609684,37.996582],[-2.60512,37.998153],[-2.604533,38.001396],[-2.600515,38.003005],[-2.5982,38.005583],[-2.598526,38.033524],[-2.599941,38.043624],[-2.595854,38.05319],[-2.598958,38.058771],[-2.606725,38.060185],[-2.606317,38.06186],[-2.602383,38.062054],[-2.593966,38.064945],[-2.594275,38.066767],[-2.591432,38.069533],[-2.586789,38.070112],[-2.585533,38.072541],[-2.581703,38.072338],[-2.580632,38.074245],[-2.577399,38.073395],[-2.573404,38.074264],[-2.573088,38.075678],[-2.571354,38.075789],[-2.572995,38.077832],[-2.569946,38.078722],[-2.565379,38.083545],[-2.557854,38.081543],[-2.555714,38.082905],[-2.553048,38.082507],[-2.551294,38.084096],[-2.54975,38.082891],[-2.546796,38.079347],[-2.539305,38.07574],[-2.531186,38.074085],[-2.52256,38.069941],[-2.504398,38.068324],[-2.491454,38.059112],[-2.481769,38.055257],[-2.480702,38.053116],[-2.4784,38.053088],[-2.47164,38.056384],[-2.46235,38.050186],[-2.458538,38.050826],[-2.436096,38.043411],[-2.431699,38.043165],[-2.424078,38.03407],[-2.422112,38.033366],[-2.397192,38.031952],[-2.373075,38.023282],[-2.357918,38.022443],[-2.352352,38.024467],[-2.341628,38.026003],[-2.323087,38.013982],[-2.312106,38.010223],[-2.298469,38.002121],[-2.299182,38.00016],[-2.297226,37.989126],[-2.277812,37.960951],[-2.274218,37.959451],[-2.266804,37.952933],[-2.258821,37.949927],[-2.253417,37.939564],[-2.247153,37.934431],[-2.241059,37.931724],[-2.237906,37.928495],[-2.229556,37.926115],[-2.227705,37.923643],[-2.22283,37.924133],[-2.220071,37.921411],[-2.207665,37.916569],[-2.250774,37.897177],[-2.256795,37.889969],[-2.26538,37.880947],[-2.278549,37.884346],[-2.288514,37.885136],[-2.294944,37.876316],[-2.296366,37.865463],[-2.294862,37.847888],[-2.293842,37.841564],[-2.29088,37.837607],[-2.289381,37.831479],[-2.293561,37.828124],[-2.301797,37.810229],[-2.300224,37.803486],[-2.291273,37.789192],[-2.285489,37.785994],[-2.276781,37.776215],[-2.28707,37.751402],[-2.288743,37.752089],[-2.294717,37.748168],[-2.294271,37.746119],[-2.297197,37.744001],[-2.296892,37.741493],[-2.307514,37.723269],[-2.308073,37.720523],[-2.305022,37.719135],[-2.307949,37.71671],[-2.306592,37.710212],[-2.313274,37.711369],[-2.323068,37.69486],[-2.326031,37.675733],[-2.323459,37.665443],[-2.321129,37.659833],[-2.31951,37.659625],[-2.319955,37.648091],[-2.316549,37.644952],[-2.31547,37.641431],[-2.308739,37.635164],[-2.310418,37.630009],[-2.315816,37.62219],[-2.340429,37.623421],[-2.345432,37.629217],[-2.35647,37.625366],[-2.359565,37.621264],[-2.363767,37.621467],[-2.373878,37.629209],[-2.381567,37.629827],[-2.39127,37.632482],[-2.389778,37.62914],[-2.388792,37.618003],[-2.38032,37.612136],[-2.37598,37.612258],[-2.367895,37.591574],[-2.367931,37.588618],[-2.369936,37.585898],[-2.369808,37.581012],[-2.374567,37.579325],[-2.374931,37.57783],[-2.367889,37.572223],[-2.367457,37.563045],[-2.374298,37.557349],[-2.355729,37.546991],[-2.355404,37.545205],[-2.357871,37.543975],[-2.35743,37.541277],[-2.36044,37.537499],[-2.358755,37.535922],[-2.360419,37.534597],[-2.35851,37.522292],[-2.362637,37.520034],[-2.381149,37.522918],[-2.394399,37.517623],[-2.395569,37.514222],[-2.397217,37.513383],[-2.402947,37.515558],[-2.4072,37.524457],[-2.4117,37.52494],[-2.414816,37.521575],[-2.413476,37.519243],[-2.416036,37.515975],[-2.428846,37.51154],[-2.432623,37.511765],[-2.434281,37.509475],[-2.440084,37.51117],[-2.44479,37.50975],[-2.456323,37.509425],[-2.46016,37.50755],[-2.458744,37.504704],[-2.459373,37.50221],[-2.461967,37.498689],[-2.458345,37.494256],[-2.457521,37.490827],[-2.474099,37.483466],[-2.503089,37.48351],[-2.514154,37.479527],[-2.514425,37.477906],[-2.530011,37.465152],[-2.534815,37.463657],[-2.535051,37.462044],[-2.540884,37.458624],[-2.546595,37.456582],[-2.550893,37.456346],[-2.556695,37.450383],[-2.561592,37.450131],[-2.568454,37.446388],[-2.569319,37.443309],[-2.571211,37.442658],[-2.571738,37.437441],[-2.574907,37.434766],[-2.574327,37.43334],[-2.576858,37.431546],[-2.577268,37.429033],[-2.596786,37.421025],[-2.602478,37.417484],[-2.605157,37.41304],[-2.608207,37.411067],[-2.61506,37.40569],[-2.635624,37.394209],[-2.638521,37.38844],[-2.641642,37.387792],[-2.641306,37.377668],[-2.643189,37.375943],[-2.635089,37.364723],[-2.63698,37.359105],[-2.635722,37.353035],[-2.637597,37.348236],[-2.637293,37.343331],[-2.646494,37.343314],[-2.654295,37.340868],[-2.653454,37.332374],[-2.650482,37.325857],[-2.654307,37.321118],[-2.654594,37.317631],[-2.651041,37.314664],[-2.650872,37.312329],[-2.651745,37.308987],[-2.656028,37.307629],[-2.655033,37.305517],[-2.657204,37.302035],[-2.659826,37.301259],[-2.659035,37.299012],[-2.663031,37.296139],[-2.662151,37.29345],[-2.665651,37.28533],[-2.664271,37.283604],[-2.665101,37.279694],[-2.663232,37.276417],[-2.66432,37.272562],[-2.661707,37.266677],[-2.66398,37.262781],[-2.667512,37.249522],[-2.666294,37.247094],[-2.666289,37.238089],[-2.664344,37.23674],[-2.663787,37.232764],[-2.662834,37.231679],[-2.659913,37.231968],[-2.657627,37.228924],[-2.660115,37.211994],[-2.664613,37.211826],[-2.668367,37.216777],[-2.670281,37.217188],[-2.672511,37.217482],[-2.676474,37.215934],[-2.68171,37.21703],[-2.690552,37.218459],[-2.692733,37.21723],[-2.694161,37.220758],[-2.698516,37.222581],[-2.70494,37.222778],[-2.706746,37.225072],[-2.709856,37.225431],[-2.710688,37.228949],[-2.712811,37.230793],[-2.716562,37.231523],[-2.718527,37.233799],[-2.720495,37.232109],[-2.725323,37.231138],[-2.726233,37.231906],[-2.730401,37.232853],[-2.733023,37.237321],[-2.736502,37.23229],[-2.739867,37.230702],[-2.739986,37.228755],[-2.746214,37.227192],[-2.752919,37.227855],[-2.759033,37.226714],[-2.76471,37.231665],[-2.76209,37.233102],[-2.767454,37.237565],[-2.772083,37.239107],[-2.775592,37.245595],[-2.778574,37.251703],[-2.777193,37.253269],[-2.774745,37.253661],[-2.779257,37.257113],[-2.777037,37.260227],[-2.779004,37.262656],[-2.794847,37.263433],[-2.802165,37.268186],[-2.808345,37.268756],[-2.814881,37.270893],[-2.817111,37.272348],[-2.819364,37.278328],[-2.82541,37.278301],[-2.82835,37.280207],[-2.830369,37.280093],[-2.834717,37.27781],[-2.840106,37.279494],[-2.844573,37.279419],[-2.851145,37.276119],[-2.855671,37.268625],[-2.856089,37.262451],[-2.859793,37.253964],[-2.859111,37.250484],[-2.863899,37.247037],[-2.869426,37.245556],[-2.866522,37.243047],[-2.874963,37.231455],[-2.875236,37.223704],[-2.87283,37.219888],[-2.880272,37.20395],[-2.879197,37.192555],[-2.880986,37.187103],[-2.882844,37.187817],[-2.888813,37.182072],[-2.889248,37.177025],[-2.8953,37.167052],[-2.911006,37.163504],[-2.914695,37.158495],[-2.917826,37.158957],[-2.929147,37.156567],[-2.92843,37.152483],[-2.931422,37.143777],[-2.930581,37.139801],[-2.933749,37.135305],[-2.937015,37.134667],[-2.940903,37.130658],[-2.941729,37.124655],[-2.943904,37.122438],[-2.946988,37.122205],[-2.946719,37.120565],[-2.94367,37.118697],[-2.942876,37.111774],[-2.945086,37.107106],[-2.948328,37.106152],[-2.950009,37.099482],[-2.948965,37.096552],[-2.969738,37.096568],[-2.979113,37.093217],[-2.984166,37.093047],[-2.996488,37.095716],[-3.000257,37.094977],[-3.003622,37.096789],[-3.011208,37.108615],[-3.013595,37.10967],[-3.015013,37.113284],[-3.017681,37.112392],[-3.022082,37.113337],[-3.026394,37.116573],[-3.029578,37.113255],[-3.025591,37.105305],[-3.025816,37.102709],[-3.021977,37.098915],[-3.02228,37.094426],[-3.022256,37.092163],[-3.024439,37.089395],[-3.023931,37.08442],[-3.017627,37.070079],[-3.016557,37.063787],[-3.017445,37.059758],[-3.015374,37.053691],[-3.016229,37.052213],[-3.005982,37.034591],[-3.005711,37.023341],[-2.999067,37.021331],[-2.998944,37.012217],[-2.993334,37.01347],[-2.989097,37.007304],[-2.982511,37.005969],[-2.982736,37.003607],[-2.979579,36.999126],[-2.980108,36.996873],[-2.978491,36.992663],[-2.97683,36.986992],[-2.978416,36.981557],[-2.976214,36.978122],[-2.978418,36.97385],[-2.985013,36.971913],[-2.986149,36.968235],[-2.984768,36.964431],[-2.987375,36.960393],[-2.992543,36.957337],[-3.00664,36.957338],[-3.011762,36.955724],[-3.014177,36.956373],[-3.017221,36.953957],[-3.023443,36.953225],[-3.029338,36.947527],[-3.032133,36.942722],[-3.030265,36.935069],[-3.02839,36.934087],[-3.031376,36.9324],[-3.031847,36.93012],[-3.029499,36.928245],[-3.031307,36.927659],[-3.031317,36.924585],[-3.043621,36.921138],[-3.045888,36.919866],[-3.048064,36.91607],[-3.057188,36.911541],[-3.066293,36.91242],[-3.068699,36.916745],[-3.071935,36.919285],[-3.06935,36.916447],[-3.069033,36.913509],[-3.068106,36.906208],[-3.070515,36.901176],[-3.069716,36.899635],[-3.067281,36.900024],[-3.065484,36.898934],[-3.060765,36.89214],[-3.056641,36.885056],[-3.050467,36.8835],[-3.043272,36.879121],[-3.043382,36.876588],[-3.035757,36.8636],[-3.032076,36.860942],[-3.029008,36.844437],[-3.037382,36.835393],[-3.042808,36.831876],[-3.073954,36.824676],[-3.077448,36.819653],[-3.086278,36.815022],[-3.092685,36.809771],[-3.107957,36.803691],[-3.117073,36.798004],[-3.12981,36.793555],[-3.135777,36.789023],[-3.138175,36.789264],[-3.14019,36.787783],[-3.139995,36.785079],[-3.134003,36.781318],[-3.135947,36.777764],[-3.136846,36.766431],[-3.132862,36.756592],[-3.128696,36.75089],[-3.134633,36.750297],[-3.145186,36.744759],[-3.158543,36.747356],[-3.167141,36.744658],[-3.174353,36.748849],[-3.179402,36.747868],[-3.186757,36.750255],[-3.193553,36.748991],[-3.197163,36.750166],[-3.202742,36.750067],[-3.207571,36.746272],[-3.212127,36.745218],[-3.226851,36.750717],[-3.231704,36.751637],[-3.233346,36.750101],[-3.24445,36.754478],[-3.249851,36.754683],[-3.262188,36.752412],[-3.272526,36.748486],[-3.28287,36.743855],[-3.30488,36.737905],[-3.31763,36.741794],[-3.322714,36.741428],[-3.329456,36.738633],[-3.338393,36.738401],[-3.347028,36.733355],[-3.350203,36.72946],[-3.362736,36.717767],[-3.362167,36.716011],[-3.364684,36.715498],[-3.365909,36.713908],[-3.369468,36.713762],[-3.369506,36.712238],[-3.371126,36.713901],[-3.37292,36.712038],[-3.376749,36.712017],[-3.376991,36.713477],[-3.379781,36.711602],[-3.382058,36.712343],[-3.384962,36.710837],[-3.38849,36.711222],[-3.388457,36.708951],[-3.391962,36.709264],[-3.392758,36.70726],[-3.396261,36.706888],[-3.397977,36.705314],[-3.400451,36.707433],[-3.402812,36.707245],[-3.407473,36.701594],[-3.409902,36.701532],[-3.411175,36.702988],[-3.420352,36.694095],[-3.428676,36.695408],[-3.452056,36.694573],[-3.461827,36.696267],[-3.468112,36.693249],[-3.475329,36.696502],[-3.482098,36.69762],[-3.510166,36.718489],[-3.517414,36.722307],[-3.51943,36.722354],[-3.521201,36.719462],[-3.522592,36.720094],[-3.520622,36.721558],[-3.521985,36.722179],[-3.523927,36.719925],[-3.522793,36.723012],[-3.527786,36.724394],[-3.528333,36.72338],[-3.528694,36.724337],[-3.529002,36.721039],[-3.522048,36.717557],[-3.535287,36.722435],[-3.55055,36.714576],[-3.567054,36.719033],[-3.580155,36.723504],[-3.591723,36.735184],[-3.593876,36.735507],[-3.593331,36.737429],[-3.602078,36.744489],[-3.612846,36.743532],[-3.62143,36.741225],[-3.62945,36.742616],[-3.637681,36.742356],[-3.646772,36.743154],[-3.649341,36.744988],[-3.654631,36.745302]]],[[[-3.389706,36.708126],[-3.390098,36.708143],[-3.389843,36.708514],[-3.389706,36.708126]]]]}}
]
}
