{
"type": "FeatureCollection",
"name": "cod_prov_27",
"crs": { "type": "name", "properties": { "name": "urn:ogc:def:crs:OGC:1.3:CRS84" } },
"xy_coordinate_resolution": 1e-15,
"features": [
{"type":"Feature","properties":{"fid":39,"cod_ccaa":"12","provincia":"Lugo","cod_prov":"27"},"geometry":{"type":"MultiPolygon","coordinates":[[[[-7.68228,42.422536],[-7.698237,42.429535],[-7.701843,42.432574],[-7.706313,42.445184],[-7.713539,42.452368],[-7.720464,42.45247],[-7.727168,42.454146],[-7.730705,42.453925],[-7.730989,42.45445],[-7.739537,42.456623],[-7.753095,42.451019],[-7.760627,42.453515],[-7.7645,42.458242],[-7.766168,42.456831],[-7.776019,42.460373],[-7.781644,42.468132],[-7.784038,42.468581],[-7.789263,42.465986],[-7.788618,42.468048],[-7.791284,42.470952],[-7.788716,42.473472],[-7.782032,42.472105],[-7.77396,42.476935],[-7.764453,42.478898],[-7.761504,42.478507],[-7.760186,42.476365],[-7.753297,42.475977],[-7.751285,42.479112],[-7.748674,42.479977],[-7.753119,42.484699],[-7.753076,42.486853],[-7.755659,42.487709],[-7.758046,42.48679],[-7.761721,42.488564],[-7.765391,42.493948],[-7.772164,42.494233],[-7.773798,42.494597],[-7.779998,42.491988],[-7.784431,42.48839],[-7.78519,42.486063],[-7.800163,42.480015],[-7.807204,42.481115],[-7.811037,42.487787],[-7.819156,42.491649],[-7.824331,42.490603],[-7.828657,42.493382],[-7.842449,42.490503],[-7.843212,42.496755],[-7.845489,42.498351],[-7.848216,42.498218],[-7.861862,42.504102],[-7.866481,42.50405],[-7.875342,42.501899],[-7.878257,42.502612],[-7.879921,42.506322],[-7.875778,42.510937],[-7.878493,42.511559],[-7.890063,42.510759],[-7.894538,42.508542],[-7.897182,42.505638],[-7.900437,42.506957],[-7.905616,42.50659],[-7.913544,42.508375],[-7.91109,42.512459],[-7.90305,42.514524],[-7.901966,42.52135],[-7.92437,42.525032],[-7.912353,42.527314],[-7.907841,42.530929],[-7.903123,42.528971],[-7.900602,42.531591],[-7.902453,42.535014],[-7.901381,42.536248],[-7.894497,42.539289],[-7.889097,42.538116],[-7.890407,42.550187],[-7.901197,42.553938],[-7.911922,42.556061],[-7.917795,42.561679],[-7.921613,42.568402],[-7.925506,42.572357],[-7.928368,42.578518],[-7.931114,42.578589],[-7.919639,42.584314],[-7.913103,42.591663],[-7.914037,42.596871],[-7.912722,42.600907],[-7.907819,42.604116],[-7.904629,42.611575],[-7.901982,42.618384],[-7.899327,42.61965],[-7.89685,42.62505],[-7.892917,42.629621],[-7.893777,42.63839],[-7.889263,42.652186],[-7.890072,42.656284],[-7.887883,42.66087],[-7.892468,42.670469],[-7.892972,42.67765],[-7.89188,42.67975],[-7.890262,42.679972],[-7.890079,42.683698],[-7.88768,42.686394],[-7.875102,42.689609],[-7.874655,42.691326],[-7.877206,42.693666],[-7.876373,42.696888],[-7.874189,42.699394],[-7.869673,42.698146],[-7.866688,42.698485],[-7.861432,42.706196],[-7.866711,42.713326],[-7.866395,42.720636],[-7.873234,42.720214],[-7.888944,42.726367],[-7.897842,42.73173],[-7.902597,42.733344],[-7.92155,42.734879],[-7.935737,42.739732],[-7.941469,42.748055],[-7.948612,42.753228],[-7.952819,42.753901],[-7.967932,42.771449],[-7.978778,42.778692],[-7.982347,42.787962],[-7.981199,42.799842],[-7.982297,42.806348],[-7.980852,42.811327],[-7.975946,42.817231],[-7.971197,42.827989],[-7.956412,42.83975],[-7.964767,42.842214],[-7.969244,42.849663],[-7.978672,42.84747],[-7.980122,42.844355],[-7.983469,42.842318],[-7.992046,42.846868],[-7.997208,42.846102],[-7.997452,42.84746],[-8.0001,42.848883],[-7.995455,42.850608],[-7.995863,42.853228],[-7.99224,42.857006],[-7.993915,42.859255],[-7.990653,42.861297],[-7.989823,42.864656],[-7.988036,42.864959],[-7.987573,42.868625],[-7.983794,42.870483],[-7.978258,42.877414],[-7.965113,42.879877],[-7.956544,42.884453],[-7.954423,42.889299],[-7.935879,42.903444],[-7.943691,42.91734],[-7.938958,42.922947],[-7.916673,42.93229],[-7.90854,42.951249],[-7.908942,42.963053],[-7.9068,42.976478],[-7.905683,42.985385],[-7.911763,42.996881],[-7.914365,42.998894],[-7.914919,43.008899],[-7.918556,43.013577],[-7.926937,43.032113],[-7.926591,43.035756],[-7.929476,43.035766],[-7.9316,43.042652],[-7.931236,43.048663],[-7.939278,43.059065],[-7.943168,43.067566],[-7.92201,43.082399],[-7.91697,43.088324],[-7.918279,43.092154],[-7.928623,43.100029],[-7.937731,43.111519],[-7.943258,43.129141],[-7.945248,43.141605],[-7.952541,43.163813],[-7.951114,43.177163],[-7.958647,43.182679],[-7.961372,43.189871],[-7.956242,43.199132],[-7.954547,43.199935],[-7.943991,43.215617],[-7.941221,43.225343],[-7.932232,43.241757],[-7.925092,43.263735],[-7.921895,43.269454],[-7.924192,43.273785],[-7.927681,43.276407],[-7.939207,43.277529],[-7.944174,43.282715],[-7.946931,43.285855],[-7.938064,43.292766],[-7.934364,43.299579],[-7.911994,43.313337],[-7.902094,43.325737],[-7.893054,43.329402],[-7.889005,43.335919],[-7.881501,43.35262],[-7.886452,43.36846],[-7.885845,43.376093],[-7.891935,43.385357],[-7.89498,43.386991],[-7.89778,43.386655],[-7.898955,43.390656],[-7.89491,43.392234],[-7.891607,43.398434],[-7.886137,43.401334],[-7.882945,43.404783],[-7.882313,43.40752],[-7.872019,43.40634],[-7.869961,43.408543],[-7.857386,43.405262],[-7.855797,43.403142],[-7.850324,43.402025],[-7.846279,43.39946],[-7.836156,43.401798],[-7.830525,43.402109],[-7.82344,43.400734],[-7.811704,43.415751],[-7.810152,43.420777],[-7.805747,43.426599],[-7.8107,43.428307],[-7.808544,43.429929],[-7.8103,43.431205],[-7.807649,43.437331],[-7.796716,43.445308],[-7.794713,43.446068],[-7.79427,43.444682],[-7.789633,43.445894],[-7.786199,43.445372],[-7.780455,43.448899],[-7.777924,43.457386],[-7.775748,43.459557],[-7.775776,43.46665],[-7.773441,43.468081],[-7.772944,43.471342],[-7.770002,43.472753],[-7.77137,43.475676],[-7.76953,43.477427],[-7.770155,43.479544],[-7.767914,43.480132],[-7.766747,43.483836],[-7.76865,43.487583],[-7.764112,43.493075],[-7.762692,43.493108],[-7.7575,43.49815],[-7.76083,43.50244],[-7.762269,43.502335],[-7.759152,43.508461],[-7.756262,43.50977],[-7.751926,43.507637],[-7.747558,43.508404],[-7.744801,43.511886],[-7.74555,43.513862],[-7.748994,43.513449],[-7.747828,43.515307],[-7.749511,43.516416],[-7.747113,43.517849],[-7.750044,43.51941],[-7.746579,43.520815],[-7.749535,43.523645],[-7.747212,43.524146],[-7.745389,43.526455],[-7.744082,43.526203],[-7.744397,43.528477],[-7.746752,43.529162],[-7.744872,43.530429],[-7.74854,43.533022],[-7.750262,43.531627],[-7.7522,43.532032],[-7.754584,43.531042],[-7.755596,43.531792],[-7.750154,43.538429],[-7.750613,43.540336],[-7.748347,43.541889],[-7.750196,43.542109],[-7.749225,43.543302],[-7.751511,43.54372],[-7.752429,43.545788],[-7.754245,43.544812],[-7.757244,43.547991],[-7.760671,43.547821],[-7.756334,43.549956],[-7.753243,43.550004],[-7.754581,43.551424],[-7.757313,43.55186],[-7.756193,43.553032],[-7.752481,43.552898],[-7.755487,43.555384],[-7.751026,43.556893],[-7.753009,43.559439],[-7.749854,43.560885],[-7.746582,43.568701],[-7.744185,43.570178],[-7.745867,43.575501],[-7.749167,43.57747],[-7.746999,43.578559],[-7.746626,43.580745],[-7.742872,43.581981],[-7.739892,43.579521],[-7.734295,43.58141],[-7.730093,43.581206],[-7.728364,43.583007],[-7.721042,43.579331],[-7.718301,43.583396],[-7.719001,43.585213],[-7.722703,43.585672],[-7.720325,43.588525],[-7.720622,43.598326],[-7.72615,43.60042],[-7.729905,43.599958],[-7.73067,43.601808],[-7.730245,43.603023],[-7.725108,43.604181],[-7.722702,43.608107],[-7.727146,43.608841],[-7.731096,43.611018],[-7.726116,43.611512],[-7.725207,43.613027],[-7.731931,43.615179],[-7.73586,43.622128],[-7.731578,43.621261],[-7.732198,43.625674],[-7.727021,43.624295],[-7.725658,43.627619],[-7.718685,43.633364],[-7.719251,43.634889],[-7.717398,43.636244],[-7.719044,43.637625],[-7.715978,43.639156],[-7.716016,43.643908],[-7.71741,43.645714],[-7.716094,43.646165],[-7.7094,43.64428],[-7.706747,43.647127],[-7.702217,43.643731],[-7.699328,43.646586],[-7.694726,43.648622],[-7.694692,43.651522],[-7.697368,43.652915],[-7.69138,43.654044],[-7.692903,43.658626],[-7.697483,43.662489],[-7.701393,43.668396],[-7.70663,43.672249],[-7.709078,43.670717],[-7.708344,43.673547],[-7.709877,43.674582],[-7.708008,43.678593],[-7.70956,43.679726],[-7.713269,43.679411],[-7.719642,43.686638],[-7.719042,43.687842],[-7.716907,43.688138],[-7.71195,43.686623],[-7.710385,43.685022],[-7.707006,43.686548],[-7.702971,43.686345],[-7.702508,43.691208],[-7.703949,43.692661],[-7.698972,43.695648],[-7.703451,43.695805],[-7.702187,43.699152],[-7.707708,43.701202],[-7.707814,43.702872],[-7.701926,43.706599],[-7.706655,43.708349],[-7.707639,43.710766],[-7.702908,43.711519],[-7.699482,43.714523],[-7.696457,43.713784],[-7.693831,43.71607],[-7.698235,43.72048],[-7.696511,43.724783],[-7.700183,43.735201],[-7.695401,43.735425],[-7.689587,43.731018],[-7.681253,43.730535],[-7.680788,43.73306],[-7.674368,43.73475],[-7.674024,43.736826],[-7.678279,43.738154],[-7.676562,43.737738],[-7.675455,43.741237],[-7.673329,43.741896],[-7.674634,43.74409],[-7.672966,43.744827],[-7.673024,43.746701],[-7.667253,43.748173],[-7.665112,43.746743],[-7.65384,43.745918],[-7.653325,43.743427],[-7.651837,43.743328],[-7.649691,43.744293],[-7.651405,43.747618],[-7.65014,43.748116],[-7.648793,43.747263],[-7.649445,43.749747],[-7.646881,43.751634],[-7.639456,43.753131],[-7.634827,43.752985],[-7.635973,43.75118],[-7.632098,43.750621],[-7.6322,43.746687],[-7.63003,43.746553],[-7.630186,43.743512],[-7.631305,43.741292],[-7.634892,43.7403],[-7.635691,43.738995],[-7.6301,43.734777],[-7.631302,43.728885],[-7.628732,43.726162],[-7.626226,43.725519],[-7.628929,43.722419],[-7.628624,43.721109],[-7.623643,43.717961],[-7.619989,43.718691],[-7.619866,43.717051],[-7.616568,43.717389],[-7.615157,43.718813],[-7.613923,43.714764],[-7.608277,43.718432],[-7.606369,43.717716],[-7.608496,43.715932],[-7.608442,43.715022],[-7.607164,43.715555],[-7.606866,43.712319],[-7.611435,43.711222],[-7.61031,43.709957],[-7.613609,43.704136],[-7.610133,43.699804],[-7.607013,43.702782],[-7.603961,43.700981],[-7.606412,43.692982],[-7.608254,43.692326],[-7.608041,43.690973],[-7.613605,43.688088],[-7.614488,43.679579],[-7.613819,43.677821],[-7.611355,43.677118],[-7.612039,43.674495],[-7.608804,43.672553],[-7.602988,43.671057],[-7.598468,43.671704],[-7.596315,43.672818],[-7.5991,43.676375],[-7.595849,43.673317],[-7.596655,43.667558],[-7.599488,43.66585],[-7.597881,43.662581],[-7.600868,43.663475],[-7.602614,43.662327],[-7.602659,43.658843],[-7.599789,43.657901],[-7.597429,43.659453],[-7.596587,43.665711],[-7.594457,43.666257],[-7.59381,43.668174],[-7.595075,43.673394],[-7.598931,43.67756],[-7.59676,43.676959],[-7.594198,43.678574],[-7.596109,43.679894],[-7.595923,43.682635],[-7.593511,43.684503],[-7.590072,43.684238],[-7.590908,43.685509],[-7.589169,43.687098],[-7.586554,43.686687],[-7.581817,43.687822],[-7.577525,43.691296],[-7.57703,43.695399],[-7.580328,43.697339],[-7.579925,43.700145],[-7.583263,43.701363],[-7.58291,43.703161],[-7.586277,43.70726],[-7.584481,43.711448],[-7.582472,43.712613],[-7.578942,43.712627],[-7.577152,43.711256],[-7.574671,43.711182],[-7.574128,43.710037],[-7.57299,43.71137],[-7.56499,43.71009],[-7.559952,43.71054],[-7.556494,43.714989],[-7.551986,43.716625],[-7.55087,43.719141],[-7.552919,43.72221],[-7.549983,43.72554],[-7.552572,43.726825],[-7.554131,43.730122],[-7.547485,43.730785],[-7.545539,43.732201],[-7.539467,43.731709],[-7.536487,43.729672],[-7.533195,43.729225],[-7.525245,43.735947],[-7.522082,43.733268],[-7.515934,43.72884],[-7.516854,43.727744],[-7.515348,43.7274],[-7.514238,43.722605],[-7.515972,43.72125],[-7.514159,43.718777],[-7.513743,43.723526],[-7.511231,43.723718],[-7.509808,43.7265],[-7.503793,43.722748],[-7.501852,43.72292],[-7.499644,43.725349],[-7.495787,43.725173],[-7.491541,43.727638],[-7.480818,43.723561],[-7.47446,43.724089],[-7.472896,43.723131],[-7.471911,43.724253],[-7.467538,43.723384],[-7.467109,43.722216],[-7.470212,43.720286],[-7.459978,43.716565],[-7.460701,43.715999],[-7.468373,43.718416],[-7.468918,43.717478],[-7.469507,43.71871],[-7.472626,43.718608],[-7.471904,43.715726],[-7.476757,43.7148],[-7.480079,43.711531],[-7.478057,43.707561],[-7.472711,43.705959],[-7.472203,43.704943],[-7.468032,43.703051],[-7.461346,43.708723],[-7.460263,43.710798],[-7.461176,43.712449],[-7.459529,43.710364],[-7.463261,43.704229],[-7.463044,43.702002],[-7.45907,43.701643],[-7.455705,43.698806],[-7.45032,43.700219],[-7.448797,43.700081],[-7.44803,43.698549],[-7.443764,43.698428],[-7.443124,43.696771],[-7.446802,43.693715],[-7.443993,43.693875],[-7.439159,43.698437],[-7.440542,43.699194],[-7.440086,43.70053],[-7.436501,43.701876],[-7.433793,43.69912],[-7.438145,43.69737],[-7.437553,43.696263],[-7.439436,43.694947],[-7.436705,43.694046],[-7.432292,43.694345],[-7.432824,43.692498],[-7.427582,43.694128],[-7.421615,43.692146],[-7.42136,43.691017],[-7.416368,43.692559],[-7.414834,43.690512],[-7.408434,43.688992],[-7.407055,43.689972],[-7.406381,43.686838],[-7.403532,43.68669],[-7.405059,43.685253],[-7.403842,43.684354],[-7.404464,43.681949],[-7.401302,43.684228],[-7.394616,43.679524],[-7.393833,43.680477],[-7.391918,43.67927],[-7.388602,43.679395],[-7.37359,43.674833],[-7.372874,43.676516],[-7.369892,43.676699],[-7.364926,43.674557],[-7.364169,43.672304],[-7.356506,43.671249],[-7.357192,43.668413],[-7.354838,43.666542],[-7.357335,43.665049],[-7.355554,43.663202],[-7.353471,43.664286],[-7.355364,43.662015],[-7.351388,43.658769],[-7.344722,43.656367],[-7.34522,43.655552],[-7.351318,43.657475],[-7.355744,43.660298],[-7.356517,43.659541],[-7.354223,43.658063],[-7.355502,43.657933],[-7.353887,43.656336],[-7.352751,43.655903],[-7.351357,43.656964],[-7.353342,43.654201],[-7.351301,43.653413],[-7.349418,43.648358],[-7.347229,43.648164],[-7.344011,43.645218],[-7.342597,43.646125],[-7.342459,43.644836],[-7.341104,43.64541],[-7.343343,43.642444],[-7.340556,43.639649],[-7.338121,43.639406],[-7.337103,43.638086],[-7.33488,43.638243],[-7.336261,43.635363],[-7.335056,43.634995],[-7.337296,43.632425],[-7.336521,43.631316],[-7.334572,43.631422],[-7.334416,43.630339],[-7.331972,43.630853],[-7.333212,43.628152],[-7.330524,43.626753],[-7.328198,43.627494],[-7.32321,43.626754],[-7.324016,43.624974],[-7.320993,43.624038],[-7.319658,43.621237],[-7.310426,43.617193],[-7.306897,43.607371],[-7.301142,43.603604],[-7.298467,43.603978],[-7.298442,43.602681],[-7.296222,43.601847],[-7.297022,43.59986],[-7.295063,43.599029],[-7.293098,43.595353],[-7.298218,43.594358],[-7.299182,43.593094],[-7.291563,43.592224],[-7.289931,43.592983],[-7.28336,43.591453],[-7.28202,43.59019],[-7.280062,43.590224],[-7.278449,43.588146],[-7.274134,43.586569],[-7.271772,43.586866],[-7.266317,43.582282],[-7.264272,43.582305],[-7.262327,43.580609],[-7.254422,43.578148],[-7.251339,43.578533],[-7.249497,43.57755],[-7.250903,43.576897],[-7.247648,43.576388],[-7.245294,43.574713],[-7.249405,43.572615],[-7.248991,43.569385],[-7.249988,43.569995],[-7.252022,43.567775],[-7.258409,43.565279],[-7.25859,43.560276],[-7.263153,43.559607],[-7.266757,43.560463],[-7.266898,43.561996],[-7.269577,43.561847],[-7.269466,43.560954],[-7.263005,43.558317],[-7.263917,43.55671],[-7.255799,43.55746],[-7.252463,43.556355],[-7.253267,43.555098],[-7.259904,43.552894],[-7.261599,43.550804],[-7.255609,43.547309],[-7.24486,43.552142],[-7.242805,43.551696],[-7.243267,43.557124],[-7.24478,43.559155],[-7.24331,43.56331],[-7.245692,43.565274],[-7.244631,43.566428],[-7.237785,43.566359],[-7.237205,43.568421],[-7.235768,43.568417],[-7.227065,43.565824],[-7.223231,43.563567],[-7.220543,43.564444],[-7.213038,43.562787],[-7.208425,43.563021],[-7.20342,43.561043],[-7.201746,43.561935],[-7.19089,43.560602],[-7.184823,43.56309],[-7.184518,43.561294],[-7.182891,43.560628],[-7.176753,43.563799],[-7.174953,43.558197],[-7.170321,43.555809],[-7.163807,43.554824],[-7.158574,43.553792],[-7.147919,43.55564],[-7.135178,43.555228],[-7.127527,43.556667],[-7.125399,43.554152],[-7.120648,43.555278],[-7.119362,43.554576],[-7.118416,43.55759],[-7.116806,43.557397],[-7.118598,43.559159],[-7.11828,43.560675],[-7.114328,43.561907],[-7.111289,43.560728],[-7.110855,43.561627],[-7.108501,43.561053],[-7.105293,43.559216],[-7.104979,43.557517],[-7.10233,43.557702],[-7.102509,43.558874],[-7.097845,43.556738],[-7.097967,43.557445],[-7.094882,43.557033],[-7.095891,43.556574],[-7.092438,43.554771],[-7.088936,43.554418],[-7.088937,43.556444],[-7.086816,43.557125],[-7.083486,43.556389],[-7.08298,43.557144],[-7.078923,43.555913],[-7.078721,43.55457],[-7.076226,43.553559],[-7.076848,43.55433],[-7.075472,43.554667],[-7.071619,43.552607],[-7.072923,43.555236],[-7.069349,43.555479],[-7.069484,43.553988],[-7.06709,43.553553],[-7.065642,43.556314],[-7.067315,43.557802],[-7.066735,43.55858],[-7.06016,43.556898],[-7.061323,43.558907],[-7.057244,43.558827],[-7.056419,43.557596],[-7.049362,43.55538],[-7.050331,43.557452],[-7.048784,43.556537],[-7.048982,43.55525],[-7.047561,43.555111],[-7.048362,43.553569],[-7.047084,43.55187],[-7.04684,43.55359],[-7.044546,43.553525],[-7.045047,43.556011],[-7.041842,43.554549],[-7.041108,43.553028],[-7.037511,43.552181],[-7.03507,43.54955],[-7.036693,43.549383],[-7.03557,43.54684],[-7.036868,43.545334],[-7.032261,43.544552],[-7.033699,43.541251],[-7.030557,43.534979],[-7.035008,43.53158],[-7.040561,43.524319],[-7.045152,43.516186],[-7.047996,43.507307],[-7.048842,43.501092],[-7.045299,43.495285],[-7.048931,43.488196],[-7.048031,43.477893],[-7.053729,43.473252],[-7.056345,43.472439],[-7.062263,43.474047],[-7.065052,43.47158],[-7.069724,43.470099],[-7.072009,43.46584],[-7.078428,43.46498],[-7.080018,43.462529],[-7.080653,43.461678],[-7.082916,43.459319],[-7.087614,43.456765],[-7.090698,43.453944],[-7.090561,43.44843],[-7.085935,43.443797],[-7.087021,43.443227],[-7.090997,43.445192],[-7.098303,43.441769],[-7.099674,43.439937],[-7.097493,43.432894],[-7.099017,43.432236],[-7.103174,43.433608],[-7.105191,43.432915],[-7.100726,43.429015],[-7.103161,43.426951],[-7.109329,43.42896],[-7.112712,43.425299],[-7.118907,43.426291],[-7.129468,43.423749],[-7.129891,43.425237],[-7.136953,43.427547],[-7.142029,43.430785],[-7.152183,43.428786],[-7.155575,43.429504],[-7.162002,43.432003],[-7.173393,43.430029],[-7.174752,43.42465],[-7.169788,43.422157],[-7.17212,43.421055],[-7.172652,43.41819],[-7.176805,43.414644],[-7.17139,43.409008],[-7.169046,43.40886],[-7.168548,43.403593],[-7.170131,43.403076],[-7.174574,43.405389],[-7.172837,43.403463],[-7.172902,43.401174],[-7.179043,43.397654],[-7.182477,43.392442],[-7.180535,43.391712],[-7.178043,43.392631],[-7.177039,43.391326],[-7.178639,43.388018],[-7.175401,43.386894],[-7.176719,43.382542],[-7.171862,43.383359],[-7.16722,43.379387],[-7.162935,43.380263],[-7.159556,43.374724],[-7.155554,43.37486],[-7.150452,43.379665],[-7.139014,43.383348],[-7.136672,43.382308],[-7.134364,43.377421],[-7.127531,43.3726],[-7.131574,43.362901],[-7.128277,43.355602],[-7.130998,43.351884],[-7.130325,43.350153],[-7.132788,43.347732],[-7.130128,43.340896],[-7.131649,43.334052],[-7.130749,43.330249],[-7.125657,43.33173],[-7.115229,43.326173],[-7.11216,43.316884],[-7.107228,43.314154],[-7.101276,43.304131],[-7.097497,43.301467],[-7.091087,43.299824],[-7.086163,43.300675],[-7.078604,43.30045],[-7.073938,43.305695],[-7.067633,43.306901],[-7.059786,43.305335],[-7.064365,43.300607],[-7.06561,43.295071],[-7.064682,43.288738],[-7.068235,43.283255],[-7.066428,43.279637],[-7.069708,43.279484],[-7.068891,43.276659],[-7.069129,43.275417],[-7.0705,43.275836],[-7.0716,43.267775],[-7.06529,43.249453],[-7.061593,43.244047],[-7.055501,43.241518],[-7.050662,43.237836],[-7.046571,43.231283],[-7.041248,43.228626],[-7.034099,43.22814],[-7.023684,43.215831],[-7.020054,43.21324],[-7.016936,43.214871],[-7.017001,43.222035],[-7.014202,43.223088],[-7.009584,43.222881],[-7.001445,43.207275],[-6.992748,43.208669],[-6.986366,43.202158],[-6.980919,43.203752],[-6.971019,43.20425],[-6.965858,43.194705],[-6.964471,43.190387],[-6.965118,43.187087],[-6.97405,43.178934],[-6.980773,43.166545],[-6.97347,43.14954],[-6.965092,43.148714],[-6.95745,43.140264],[-6.957652,43.13616],[-6.955346,43.134754],[-6.941563,43.131827],[-6.938635,43.132937],[-6.937316,43.139375],[-6.932942,43.14057],[-6.929597,43.142864],[-6.929441,43.141393],[-6.926973,43.140579],[-6.919444,43.140998],[-6.914304,43.146946],[-6.905852,43.149774],[-6.902146,43.155096],[-6.892839,43.154954],[-6.885406,43.156801],[-6.882149,43.160522],[-6.886273,43.166783],[-6.880364,43.170199],[-6.876988,43.17477],[-6.874655,43.186878],[-6.871624,43.188377],[-6.870214,43.187875],[-6.868246,43.190022],[-6.868571,43.185617],[-6.871713,43.179865],[-6.867379,43.181957],[-6.861824,43.182253],[-6.855916,43.17226],[-6.847051,43.16704],[-6.839091,43.166307],[-6.836438,43.158598],[-6.837122,43.157333],[-6.830164,43.151885],[-6.826714,43.145869],[-6.821926,43.143238],[-6.82504,43.140334],[-6.824293,43.137037],[-6.827585,43.130687],[-6.827977,43.123182],[-6.830833,43.122474],[-6.831425,43.120924],[-6.841279,43.115182],[-6.851002,43.109335],[-6.855977,43.108528],[-6.856929,43.106272],[-6.86561,43.101098],[-6.871719,43.091203],[-6.890668,43.090506],[-6.894361,43.091793],[-6.899455,43.088054],[-6.901395,43.083783],[-6.911455,43.078001],[-6.915965,43.073416],[-6.920614,43.079668],[-6.923738,43.081847],[-6.934571,43.081646],[-6.937577,43.084081],[-6.938506,43.086687],[-6.941307,43.079991],[-6.9451,43.077285],[-6.948475,43.077628],[-6.95219,43.076185],[-6.951225,43.072644],[-6.952387,43.071037],[-6.950815,43.068183],[-6.957728,43.06816],[-6.958532,43.066916],[-6.956413,43.063568],[-6.961583,43.061111],[-6.966281,43.061288],[-6.969008,43.056676],[-6.962401,43.052088],[-6.965224,43.049982],[-6.963715,43.044281],[-6.966458,43.037713],[-6.965009,43.034666],[-6.969518,43.035112],[-6.969364,43.032732],[-6.972844,43.03036],[-6.976208,43.031899],[-6.978615,43.038559],[-6.982283,43.041367],[-6.984279,43.038263],[-6.983498,43.035868],[-6.986896,43.029591],[-6.991581,43.030868],[-6.997291,43.027707],[-6.995336,43.026325],[-6.997541,43.019477],[-6.98895,43.014709],[-6.986059,43.014413],[-6.986224,43.009572],[-6.984148,43.004036],[-6.980001,43.004783],[-6.975465,42.99628],[-6.972938,42.996286],[-6.972525,42.994059],[-6.969101,42.992314],[-6.967016,42.991558],[-6.965076,42.992472],[-6.962325,42.990712],[-6.962266,42.993794],[-6.964237,42.99278],[-6.964525,42.995345],[-6.96176,42.996413],[-6.958793,42.995292],[-6.956443,42.996138],[-6.95741,42.998203],[-6.962444,43.000567],[-6.960112,43.003214],[-6.962579,43.005902],[-6.960064,43.007988],[-6.962401,43.012472],[-6.959886,43.015332],[-6.964257,43.019376],[-6.960769,43.022189],[-6.964818,43.02656],[-6.958306,43.029109],[-6.95838,43.033302],[-6.956336,43.034921],[-6.957474,43.036773],[-6.946923,43.032447],[-6.946069,43.02584],[-6.941007,43.011384],[-6.932943,43.008835],[-6.931249,43.004598],[-6.92242,43.001372],[-6.91069,42.990132],[-6.90332,42.98861],[-6.898883,42.989419],[-6.894137,42.987879],[-6.885077,42.989493],[-6.880975,42.991352],[-6.877962,42.989654],[-6.872139,42.988924],[-6.86876,42.983951],[-6.864671,42.983477],[-6.862349,42.979297],[-6.836458,42.957758],[-6.834998,42.94097],[-6.842241,42.928193],[-6.836163,42.916341],[-6.824536,42.91505],[-6.847992,42.914325],[-6.843972,42.90623],[-6.836617,42.901588],[-6.833114,42.897843],[-6.827779,42.888613],[-6.827745,42.879961],[-6.822698,42.87416],[-6.814889,42.870819],[-6.816762,42.868632],[-6.819825,42.867287],[-6.835408,42.873626],[-6.837406,42.877413],[-6.840459,42.878085],[-6.833742,42.882055],[-6.871277,42.87384],[-6.859501,42.848523],[-6.854349,42.842232],[-6.853128,42.838726],[-6.848193,42.833406],[-6.841759,42.832503],[-6.844507,42.828138],[-6.840687,42.823359],[-6.844184,42.822746],[-6.8518,42.818744],[-6.854719,42.810614],[-6.858401,42.810031],[-6.864629,42.806165],[-6.869625,42.800792],[-6.869109,42.799179],[-6.86488,42.79744],[-6.864373,42.795396],[-6.864587,42.792345],[-6.867797,42.787167],[-6.876133,42.782455],[-6.880217,42.782281],[-6.886509,42.778321],[-6.891149,42.777281],[-6.897277,42.771895],[-6.898201,42.766758],[-6.896581,42.765103],[-6.900028,42.764913],[-6.901874,42.763572],[-6.901852,42.761276],[-6.904438,42.759419],[-6.936219,42.740751],[-6.946894,42.741508],[-6.953334,42.752289],[-6.956516,42.755636],[-6.959483,42.755029],[-6.967848,42.7475],[-6.965906,42.742345],[-6.9667,42.738716],[-6.972818,42.737918],[-6.969109,42.729376],[-6.972884,42.725004],[-6.983739,42.718693],[-6.990562,42.726604],[-6.995571,42.72552],[-6.999412,42.726952],[-7.002421,42.723993],[-7.006967,42.724608],[-7.013536,42.722126],[-7.019625,42.716762],[-7.019249,42.715488],[-7.021641,42.714332],[-7.019936,42.71025],[-7.02508,42.712573],[-7.027717,42.711435],[-7.036457,42.700296],[-7.045191,42.694765],[-7.034214,42.684339],[-7.034748,42.68242],[-7.031828,42.675581],[-7.020908,42.668789],[-7.020553,42.666317],[-7.016502,42.665937],[-7.015513,42.664594],[-7.017388,42.661134],[-7.012635,42.657798],[-7.015168,42.656025],[-7.020415,42.654734],[-7.021479,42.651941],[-7.010024,42.649831],[-7.004357,42.642871],[-7.01314,42.641859],[-7.017826,42.645217],[-7.024038,42.643018],[-7.029048,42.639393],[-7.03306,42.639198],[-7.038061,42.636005],[-7.041932,42.636085],[-7.047004,42.6327],[-7.048033,42.626013],[-7.045812,42.622216],[-7.047123,42.612356],[-7.045496,42.604175],[-7.05017,42.59731],[-7.044387,42.589492],[-7.034805,42.587364],[-7.03411,42.584147],[-7.045257,42.576973],[-7.046321,42.573829],[-7.0485,42.572492],[-7.05473,42.571632],[-7.057167,42.564324],[-7.057318,42.561204],[-7.055933,42.559758],[-7.062794,42.552718],[-7.068913,42.554462],[-7.065009,42.551728],[-7.064069,42.549259],[-7.070955,42.53793],[-7.067572,42.536277],[-7.064588,42.53794],[-7.061311,42.537165],[-7.059853,42.529321],[-7.068761,42.518236],[-7.071068,42.51122],[-7.077418,42.508183],[-7.076551,42.496743],[-7.084676,42.490168],[-7.093702,42.47245],[-7.100638,42.467853],[-7.100106,42.458778],[-7.11267,42.457337],[-7.121525,42.451832],[-7.12379,42.448743],[-7.130214,42.446584],[-7.131231,42.440992],[-7.137714,42.441784],[-7.149632,42.436149],[-7.152199,42.431959],[-7.151992,42.426429],[-7.150559,42.42332],[-7.147239,42.42182],[-7.158811,42.413233],[-7.158958,42.41104],[-7.162541,42.409559],[-7.166564,42.404443],[-7.164732,42.401916],[-7.166425,42.393184],[-7.167704,42.393425],[-7.168081,42.392502],[-7.172216,42.379224],[-7.177742,42.376294],[-7.182091,42.376324],[-7.186072,42.371362],[-7.182679,42.365624],[-7.190878,42.364037],[-7.196099,42.352563],[-7.194307,42.344615],[-7.198422,42.332958],[-7.20215,42.329183],[-7.203034,42.325693],[-7.214776,42.333446],[-7.218032,42.336937],[-7.231295,42.359137],[-7.231218,42.361598],[-7.228576,42.364379],[-7.227311,42.370845],[-7.230017,42.376607],[-7.224392,42.383261],[-7.218201,42.38475],[-7.220429,42.38718],[-7.232879,42.390799],[-7.233365,42.391709],[-7.239355,42.390289],[-7.248171,42.389899],[-7.25402,42.395201],[-7.256234,42.399918],[-7.260205,42.40312],[-7.260636,42.405715],[-7.265232,42.407551],[-7.26979,42.414918],[-7.27581,42.411956],[-7.291189,42.414576],[-7.297093,42.42343],[-7.304854,42.428865],[-7.309707,42.429448],[-7.315762,42.427896],[-7.318056,42.426261],[-7.324237,42.427774],[-7.332888,42.427213],[-7.33537,42.428307],[-7.3446,42.429622],[-7.348571,42.429039],[-7.346408,42.42624],[-7.349579,42.427281],[-7.358986,42.426581],[-7.370265,42.421352],[-7.376986,42.427298],[-7.389034,42.433445],[-7.395123,42.433788],[-7.39961,42.435551],[-7.401297,42.435],[-7.403666,42.431042],[-7.401929,42.430458],[-7.402103,42.429353],[-7.411924,42.426013],[-7.424559,42.419505],[-7.435349,42.416204],[-7.444068,42.408668],[-7.447525,42.407064],[-7.449266,42.407133],[-7.462596,42.407847],[-7.466191,42.407148],[-7.471305,42.403383],[-7.480068,42.401212],[-7.4853,42.397586],[-7.495881,42.39284],[-7.5015,42.388702],[-7.514406,42.385592],[-7.536283,42.383352],[-7.549875,42.387013],[-7.56005,42.394684],[-7.566027,42.401055],[-7.572279,42.404325],[-7.576485,42.404859],[-7.595528,42.396812],[-7.602522,42.38931],[-7.617014,42.384215],[-7.62053,42.385451],[-7.624103,42.392086],[-7.628556,42.395498],[-7.629625,42.397796],[-7.629023,42.40216],[-7.631776,42.407045],[-7.639512,42.408983],[-7.6478,42.413931],[-7.657295,42.415156],[-7.662074,42.42257],[-7.663945,42.423172],[-7.672009,42.421687],[-7.68228,42.422536]]],[[[-7.609486,43.675738],[-7.609979,43.674891],[-7.609678,43.675812],[-7.609486,43.675738]]],[[[-7.628385,43.75822],[-7.629647,43.757326],[-7.634047,43.757208],[-7.633574,43.758886],[-7.634757,43.759341],[-7.630018,43.761778],[-7.628385,43.75822]]],[[[-7.345189,43.663747],[-7.345339,43.664146],[-7.344365,43.663924],[-7.345189,43.663747]]],[[[-7.490559,43.729191],[-7.493847,43.730252],[-7.491933,43.731325],[-7.492559,43.732126],[-7.491048,43.731971],[-7.488292,43.730953],[-7.490559,43.729191]]],[[[-7.076896,43.555494],[-7.076086,43.555416],[-7.076188,43.555086],[-7.076896,43.555494]]],[[[-7.043673,43.557397],[-7.041883,43.556172],[-7.044317,43.557031],[-7.043673,43.557397]]],[[[-7.062714,43.559241],[-7.062899,43.559415],[-7.062177,43.559539],[-7.062714,43.559241]]],[[[-7.118356,43.562046],[-7.118212,43.562654],[-7.116989,43.562509],[-7.118356,43.562046]]]]}}
]
}
