{
"type": "FeatureCollection",
"name": "cod_prov_30",
"crs": { "type": "name", "properties": { "name": "urn:ogc:def:crs:OGC:1.3:CRS84" } },
"xy_coordinate_resolution": 1e-15,
"features": [
{"type":"Feature","properties":{"fid":34,"cod_ccaa":"14","provincia":"Murcia","cod_prov":"30"},"geometry":{"type":"MultiPolygon","coordinates":[[[[-1.547483,37.409396],[-1.543921,37.408964],[-1.546687,37.407331],[-1.548446,37.408083],[-1.547483,37.409396]]],[[[-1.473364,37.464936],[-1.475224,37.461346],[-1.476523,37.461417],[-1.477659,37.455024],[-1.481492,37.452748],[-1.479735,37.450751],[-1.482027,37.44923],[-1.481826,37.444604],[-1.484301,37.435686],[-1.481918,37.433375],[-1.476875,37.433464],[-1.477315,37.429035],[-1.480624,37.428014],[-1.487544,37.422253],[-1.491345,37.421491],[-1.494585,37.422767],[-1.497398,37.42228],[-1.502168,37.431831],[-1.50468,37.43225],[-1.507834,37.431101],[-1.510865,37.432121],[-1.518543,37.431956],[-1.520363,37.429627],[-1.525786,37.428009],[-1.526771,37.425038],[-1.530513,37.421498],[-1.533919,37.421864],[-1.536445,37.419787],[-1.541158,37.419169],[-1.541448,37.417072],[-1.543067,37.416876],[-1.546693,37.412847],[-1.547214,37.410465],[-1.549953,37.411977],[-1.555095,37.412499],[-1.560012,37.411075],[-1.56066,37.409109],[-1.558863,37.408528],[-1.561008,37.408635],[-1.561755,37.406788],[-1.558365,37.406242],[-1.558992,37.404753],[-1.566747,37.402747],[-1.565541,37.406122],[-1.571277,37.408111],[-1.573498,37.406569],[-1.572684,37.407785],[-1.576729,37.406768],[-1.578863,37.404486],[-1.577757,37.402607],[-1.574242,37.40325],[-1.579909,37.400542],[-1.583463,37.400179],[-1.582963,37.402138],[-1.585009,37.403289],[-1.59077,37.402141],[-1.600191,37.39553],[-1.604181,37.394802],[-1.608254,37.389568],[-1.611626,37.388057],[-1.610427,37.386926],[-1.612559,37.385806],[-1.612351,37.384262],[-1.615202,37.384602],[-1.616445,37.383355],[-1.61915,37.384288],[-1.622313,37.380566],[-1.625533,37.380487],[-1.628229,37.377003],[-1.627873,37.375439],[-1.625493,37.375267],[-1.625954,37.374164],[-1.629021,37.373776],[-1.63008,37.375185],[-1.640871,37.382385],[-1.665968,37.40086],[-1.705016,37.421024],[-1.737075,37.442633],[-1.779836,37.446976],[-1.796303,37.452192],[-1.811757,37.451556],[-1.808946,37.433474],[-1.845261,37.454826],[-1.848495,37.460716],[-1.858697,37.479076],[-1.864379,37.486288],[-1.867109,37.486746],[-1.87109,37.489813],[-1.909833,37.537875],[-1.911152,37.538229],[-1.916422,37.544848],[-1.931968,37.56435],[-1.941595,37.57299],[-1.946886,37.580834],[-1.953786,37.587953],[-1.953834,37.590179],[-1.955651,37.591457],[-1.955172,37.596563],[-1.954004,37.597418],[-1.955282,37.600864],[-1.959234,37.603377],[-1.965147,37.605042],[-1.970052,37.614134],[-1.9731,37.61499],[-1.97681,37.618727],[-1.978801,37.622313],[-1.978508,37.625474],[-1.981718,37.629387],[-1.981743,37.636723],[-1.987476,37.645191],[-1.992773,37.643298],[-1.995819,37.650291],[-1.998807,37.654003],[-2.002005,37.655607],[-2.007874,37.66951],[-2.011927,37.672536],[-2.009776,37.686785],[-2.011515,37.692496],[-2.010422,37.698778],[-2.012655,37.700599],[-2.007863,37.712068],[-2.007658,37.719791],[-2.004081,37.722536],[-2.002126,37.721979],[-1.999259,37.723343],[-1.995837,37.728045],[-2.00254,37.747777],[-2.00469,37.766118],[-2.006079,37.766662],[-2.00617,37.770024],[-2.008841,37.774949],[-2.003914,37.791798],[-2.001716,37.804911],[-1.996481,37.819007],[-1.999516,37.823143],[-1.99528,37.841384],[-1.988559,37.853341],[-1.977391,37.860329],[-1.974504,37.868469],[-1.982231,37.873781],[-1.987973,37.873732],[-1.994704,37.880477],[-1.998878,37.876195],[-2.003246,37.876971],[-2.004715,37.878462],[-2.004527,37.880614],[-2.012899,37.873609],[-2.021767,37.86851],[-2.025457,37.868892],[-2.03879,37.875302],[-2.042449,37.873673],[-2.044855,37.874026],[-2.046264,37.875029],[-2.04543,37.876203],[-2.050097,37.878421],[-2.049969,37.879529],[-2.054786,37.880802],[-2.059571,37.880057],[-2.06047,37.882723],[-2.062246,37.883467],[-2.070421,37.884487],[-2.073853,37.883793],[-2.077389,37.878314],[-2.081821,37.87578],[-2.08457,37.872322],[-2.085824,37.87482],[-2.0984,37.877621],[-2.103494,37.881328],[-2.107828,37.881271],[-2.108167,37.884238],[-2.106306,37.884855],[-2.106529,37.886155],[-2.110194,37.890644],[-2.118078,37.8942],[-2.120088,37.898271],[-2.123202,37.900449],[-2.130021,37.899941],[-2.136236,37.897535],[-2.151685,37.897269],[-2.150714,37.895676],[-2.156758,37.891249],[-2.163929,37.892715],[-2.172004,37.88869],[-2.1819,37.898817],[-2.184332,37.901024],[-2.18494,37.903633],[-2.207665,37.916569],[-2.220071,37.921411],[-2.22283,37.924133],[-2.227705,37.923643],[-2.229556,37.926115],[-2.237906,37.928495],[-2.241059,37.931724],[-2.247153,37.934431],[-2.253417,37.939564],[-2.258821,37.949927],[-2.266804,37.952933],[-2.274218,37.959451],[-2.277812,37.960951],[-2.297226,37.989126],[-2.299182,38.00016],[-2.298469,38.002121],[-2.312106,38.010223],[-2.323087,38.013982],[-2.341628,38.026003],[-2.344407,38.02993],[-2.337803,38.048441],[-2.329782,38.060653],[-2.329898,38.065403],[-2.325801,38.069661],[-2.312044,38.079008],[-2.293356,38.087333],[-2.272836,38.105071],[-2.261647,38.11296],[-2.250402,38.128345],[-2.249604,38.135001],[-2.251011,38.139119],[-2.245599,38.148233],[-2.237591,38.157734],[-2.231563,38.162201],[-2.222108,38.177479],[-2.221346,38.180421],[-2.222567,38.183754],[-2.215825,38.193731],[-2.213523,38.201809],[-2.206659,38.207026],[-2.20347,38.207221],[-2.197282,38.211153],[-2.186794,38.214389],[-2.175251,38.223988],[-2.169054,38.22644],[-2.159694,38.228645],[-2.152138,38.228978],[-2.149308,38.230625],[-2.139173,38.231605],[-2.113728,38.238202],[-2.099298,38.250052],[-2.083526,38.265539],[-2.07622,38.282776],[-2.063772,38.297592],[-2.048992,38.305782],[-2.030058,38.2993],[-2.02678,38.300706],[-2.021032,38.300352],[-2.013929,38.293714],[-2.011332,38.293782],[-2.01031,38.291556],[-2.000157,38.283963],[-1.982631,38.28137],[-1.969494,38.284598],[-1.96286,38.287919],[-1.948856,38.289318],[-1.938611,38.292389],[-1.907538,38.297961],[-1.893224,38.30299],[-1.868718,38.317509],[-1.854242,38.33022],[-1.843102,38.334292],[-1.827297,38.333864],[-1.821903,38.336252],[-1.811027,38.351373],[-1.79484,38.353037],[-1.784304,38.356154],[-1.790613,38.359446],[-1.796955,38.364927],[-1.795756,38.370268],[-1.792751,38.369912],[-1.785604,38.366044],[-1.784357,38.365996],[-1.782472,38.368508],[-1.780547,38.368605],[-1.77912,38.365707],[-1.771144,38.364857],[-1.770028,38.366567],[-1.771348,38.378548],[-1.76678,38.37923],[-1.75384,38.373407],[-1.751714,38.375854],[-1.751683,38.379674],[-1.745119,38.381235],[-1.74172,38.380487],[-1.734784,38.37578],[-1.734116,38.374007],[-1.733845,38.371192],[-1.729437,38.372568],[-1.723804,38.369308],[-1.717856,38.368432],[-1.718307,38.364273],[-1.716741,38.363517],[-1.713954,38.363171],[-1.712728,38.364555],[-1.711794,38.372024],[-1.707408,38.371462],[-1.701944,38.374925],[-1.699669,38.374062],[-1.697398,38.369243],[-1.69227,38.368555],[-1.687558,38.365825],[-1.681938,38.360148],[-1.685267,38.352012],[-1.681512,38.349572],[-1.684921,38.347096],[-1.690711,38.347765],[-1.692411,38.346766],[-1.691539,38.342439],[-1.692732,38.33782],[-1.687951,38.335811],[-1.687048,38.330719],[-1.684791,38.328981],[-1.683958,38.326331],[-1.678809,38.325093],[-1.675443,38.322135],[-1.672544,38.32176],[-1.672776,38.319717],[-1.669358,38.315812],[-1.670246,38.311649],[-1.635696,38.309036],[-1.634489,38.31058],[-1.628679,38.308737],[-1.624856,38.310116],[-1.614165,38.311153],[-1.611466,38.312932],[-1.600605,38.313885],[-1.596002,38.311757],[-1.588732,38.312733],[-1.58954,38.309994],[-1.558197,38.325203],[-1.548379,38.332255],[-1.541094,38.343511],[-1.519467,38.353621],[-1.516243,38.357392],[-1.505903,38.359324],[-1.488299,38.373166],[-1.478547,38.376383],[-1.474885,38.408984],[-1.477697,38.421276],[-1.476522,38.44716],[-1.479926,38.466777],[-1.47987,38.479834],[-1.481573,38.489336],[-1.487091,38.505097],[-1.488413,38.514792],[-1.498732,38.532055],[-1.492432,38.551335],[-1.487695,38.563309],[-1.466682,38.575789],[-1.452001,38.581459],[-1.447986,38.614639],[-1.443291,38.636924],[-1.447698,38.649517],[-1.428208,38.667982],[-1.421665,38.676995],[-1.402754,38.690471],[-1.395879,38.692512],[-1.383771,38.699176],[-1.366666,38.704002],[-1.344323,38.677052],[-1.329248,38.682181],[-1.328159,38.685021],[-1.320139,38.689268],[-1.312546,38.695313],[-1.306568,38.696758],[-1.283819,38.707077],[-1.271528,38.718871],[-1.263812,38.729272],[-1.249757,38.738614],[-1.246139,38.738334],[-1.242599,38.740561],[-1.227572,38.745695],[-1.208873,38.747131],[-1.197315,38.749188],[-1.183634,38.755085],[-1.149851,38.746067],[-1.119671,38.737719],[-1.116773,38.732401],[-1.1156,38.711387],[-1.081596,38.686775],[-1.072823,38.682522],[-1.042985,38.661256],[-1.034103,38.656566],[-1.026922,38.655503],[-1.023964,38.639987],[-1.01592,38.635057],[-1.012044,38.606121],[-1.001569,38.572675],[-1.009471,38.557941],[-1.015886,38.537091],[-1.026062,38.522819],[-1.017578,38.502176],[-1.013877,38.497058],[-1.034865,38.474525],[-1.059303,38.455748],[-1.082094,38.441129],[-1.094162,38.437929],[-1.085567,38.434581],[-1.077206,38.43147],[-1.085366,38.429153],[-1.087764,38.406872],[-1.088109,38.402048],[-1.086696,38.39787],[-1.088062,38.367769],[-1.084384,38.346217],[-1.058576,38.345558],[-1.028421,38.338566],[-1.010923,38.331611],[-0.989035,38.320551],[-0.984489,38.307127],[-0.971492,38.290088],[-0.967677,38.27564],[-0.968597,38.25576],[-0.977812,38.238302],[-0.988546,38.199532],[-0.991688,38.196143],[-0.997563,38.184682],[-0.99946,38.18352],[-1.004893,38.17211],[-1.008812,38.166914],[-1.025923,38.147432],[-1.036762,38.13772],[-1.030607,38.115845],[-1.030335,38.097079],[-1.025936,38.088101],[-1.022599,38.075691],[-1.010417,38.059544],[-1.006609,38.054973],[-1.0019,38.053803],[-1.000713,38.051773],[-0.998626,38.051422],[-0.981863,38.030643],[-0.981946,38.029275],[-0.966022,38.01269],[-0.957711,37.996965],[-0.934187,37.968888],[-0.922364,37.946466],[-0.90018,37.923129],[-0.857221,37.885217],[-0.851307,37.881748],[-0.841477,37.87225],[-0.830725,37.86442],[-0.809921,37.859907],[-0.803908,37.859146],[-0.797521,37.853007],[-0.790443,37.84836],[-0.781708,37.844807],[-0.771315,37.843899],[-0.762209,37.847015],[-0.761597,37.837947],[-0.757444,37.823134],[-0.751611,37.822906],[-0.750688,37.8215],[-0.756641,37.822623],[-0.758039,37.818856],[-0.756793,37.818364],[-0.758138,37.8182],[-0.758159,37.816759],[-0.7528,37.801688],[-0.751751,37.794729],[-0.748194,37.790678],[-0.761987,37.794582],[-0.761368,37.798896],[-0.776641,37.819804],[-0.784407,37.819166],[-0.785705,37.816794],[-0.784419,37.81421],[-0.789982,37.813954],[-0.793149,37.813266],[-0.796494,37.810382],[-0.803684,37.797738],[-0.801432,37.790577],[-0.798241,37.788282],[-0.801091,37.790228],[-0.800379,37.7836],[-0.797888,37.784896],[-0.806623,37.774425],[-0.810034,37.773083],[-0.817794,37.765162],[-0.822974,37.759617],[-0.826214,37.758298],[-0.827422,37.755779],[-0.831048,37.754061],[-0.83378,37.754562],[-0.836767,37.75295],[-0.840127,37.75294],[-0.845078,37.74893],[-0.847314,37.743447],[-0.848952,37.742513],[-0.847959,37.739205],[-0.850147,37.737317],[-0.849519,37.735863],[-0.850409,37.736483],[-0.851555,37.735324],[-0.851306,37.730994],[-0.856197,37.725829],[-0.858381,37.725247],[-0.860068,37.72151],[-0.859524,37.717474],[-0.856952,37.713028],[-0.841291,37.698],[-0.835856,37.691105],[-0.834647,37.687416],[-0.828902,37.682604],[-0.825351,37.675284],[-0.814501,37.665621],[-0.803372,37.658197],[-0.788232,37.651191],[-0.778229,37.648353],[-0.773722,37.64862],[-0.771784,37.647105],[-0.766788,37.646253],[-0.762312,37.643222],[-0.760669,37.643605],[-0.759889,37.642365],[-0.751208,37.642011],[-0.749984,37.639735],[-0.75072,37.637144],[-0.747789,37.634782],[-0.740077,37.632168],[-0.735243,37.632152],[-0.729746,37.633726],[-0.725673,37.636471],[-0.724003,37.638671],[-0.724673,37.640635],[-0.721974,37.642348],[-0.722731,37.646951],[-0.719866,37.647772],[-0.720812,37.651709],[-0.720992,37.650231],[-0.722313,37.650074],[-0.722111,37.647962],[-0.722819,37.650562],[-0.724576,37.651196],[-0.721326,37.651578],[-0.720119,37.653107],[-0.724571,37.651495],[-0.722893,37.654505],[-0.725421,37.659779],[-0.728557,37.661185],[-0.733942,37.660973],[-0.735669,37.658101],[-0.738873,37.658453],[-0.740372,37.659796],[-0.740407,37.66122],[-0.737477,37.660993],[-0.735629,37.662587],[-0.734038,37.661185],[-0.730028,37.661389],[-0.730521,37.662666],[-0.734486,37.663297],[-0.73452,37.665789],[-0.732607,37.666832],[-0.734259,37.667859],[-0.726915,37.669028],[-0.724079,37.664562],[-0.719433,37.663944],[-0.721693,37.663045],[-0.721689,37.661583],[-0.719076,37.656029],[-0.716805,37.654916],[-0.718135,37.65495],[-0.720107,37.653497],[-0.71718,37.654793],[-0.717615,37.653581],[-0.70962,37.641168],[-0.70289,37.635239],[-0.697426,37.632744],[-0.689121,37.636744],[-0.689848,37.63301],[-0.688126,37.633742],[-0.693754,37.630211],[-0.700661,37.631095],[-0.702295,37.629902],[-0.700481,37.629596],[-0.702328,37.629579],[-0.703414,37.62595],[-0.708336,37.622115],[-0.70826,37.620528],[-0.709374,37.620766],[-0.711599,37.617303],[-0.714871,37.617736],[-0.715206,37.614211],[-0.718593,37.609787],[-0.717887,37.606935],[-0.719856,37.607353],[-0.720898,37.605887],[-0.726297,37.605278],[-0.730198,37.603641],[-0.72993,37.602375],[-0.750676,37.597996],[-0.762966,37.598348],[-0.766918,37.596486],[-0.77079,37.597333],[-0.776656,37.593929],[-0.779105,37.595336],[-0.782778,37.594467],[-0.785147,37.592124],[-0.788437,37.591157],[-0.788902,37.58768],[-0.808631,37.584947],[-0.819571,37.575212],[-0.831011,37.578566],[-0.840289,37.577637],[-0.842014,37.579471],[-0.840516,37.582336],[-0.841619,37.585295],[-0.845888,37.587265],[-0.850859,37.587681],[-0.854009,37.586044],[-0.852576,37.580764],[-0.856491,37.580871],[-0.862465,37.579042],[-0.863593,37.580405],[-0.865628,37.580514],[-0.870996,37.576096],[-0.874426,37.576528],[-0.87433,37.577924],[-0.875718,37.57847],[-0.878561,37.578045],[-0.879789,37.576678],[-0.87895,37.569921],[-0.882527,37.569977],[-0.890651,37.566951],[-0.892104,37.568436],[-0.894831,37.568088],[-0.898722,37.565372],[-0.906084,37.563639],[-0.906983,37.561455],[-0.910608,37.559745],[-0.915952,37.559749],[-0.919945,37.554584],[-0.924633,37.556965],[-0.927853,37.557182],[-0.928968,37.55859],[-0.932772,37.55817],[-0.937992,37.56019],[-0.952106,37.557822],[-0.955135,37.560055],[-0.962352,37.561515],[-0.960751,37.563379],[-0.947581,37.56844],[-0.945181,37.570888],[-0.948932,37.571212],[-0.952161,37.569441],[-0.95289,37.573824],[-0.955862,37.574487],[-0.957375,37.573361],[-0.95804,37.575167],[-0.965352,37.5744],[-0.966592,37.575458],[-0.968928,37.573668],[-0.970672,37.574066],[-0.969336,37.575316],[-0.975135,37.57692],[-0.976257,37.578533],[-0.974638,37.580229],[-0.975287,37.581339],[-0.977131,37.580993],[-0.978755,37.582488],[-0.973594,37.59309],[-0.971527,37.592886],[-0.971823,37.594665],[-0.973369,37.593328],[-0.973981,37.596841],[-0.976026,37.597468],[-0.986269,37.597146],[-0.987322,37.596172],[-0.986776,37.597301],[-0.98949,37.597123],[-0.989987,37.598159],[-0.990884,37.600794],[-0.989118,37.601439],[-0.993411,37.600485],[-0.993745,37.601277],[-0.994858,37.600141],[-0.993861,37.597168],[-0.996646,37.596957],[-0.993729,37.596738],[-0.995967,37.596017],[-0.993589,37.596333],[-0.994862,37.59529],[-0.989634,37.596092],[-0.986941,37.593217],[-0.988593,37.593573],[-0.987156,37.592193],[-0.989199,37.58784],[-0.985848,37.586972],[-0.983297,37.584134],[-0.986616,37.58492],[-0.989767,37.581468],[-0.994103,37.586158],[-0.998514,37.587204],[-0.999485,37.58733],[-0.998619,37.584575],[-1.009091,37.585961],[-1.0081,37.584032],[-1.012051,37.58155],[-1.011401,37.578294],[-1.01323,37.574647],[-1.020951,37.574732],[-1.023826,37.573473],[-1.029961,37.577389],[-1.030161,37.578851],[-1.03999,37.5797],[-1.041393,37.578903],[-1.043071,37.580536],[-1.045817,37.579427],[-1.048663,37.581494],[-1.053881,37.581588],[-1.056619,37.58296],[-1.05883,37.579814],[-1.068424,37.58018],[-1.071127,37.583387],[-1.073861,37.584054],[-1.075963,37.582015],[-1.078719,37.581852],[-1.080519,37.577888],[-1.088175,37.576536],[-1.090902,37.57484],[-1.092142,37.571525],[-1.093837,37.570742],[-1.102272,37.568067],[-1.108573,37.569204],[-1.112497,37.565347],[-1.12031,37.562154],[-1.119693,37.560145],[-1.122001,37.559756],[-1.121335,37.556546],[-1.123897,37.557271],[-1.127063,37.552032],[-1.125245,37.547317],[-1.116622,37.544955],[-1.11132,37.538452],[-1.106979,37.535552],[-1.111005,37.534309],[-1.113813,37.535185],[-1.120111,37.534511],[-1.120458,37.537806],[-1.126569,37.539661],[-1.127163,37.538966],[-1.133654,37.540548],[-1.145829,37.540686],[-1.147355,37.542107],[-1.150641,37.540139],[-1.15336,37.540038],[-1.152483,37.541168],[-1.153761,37.541655],[-1.154668,37.540698],[-1.165352,37.54163],[-1.171735,37.545839],[-1.174278,37.550142],[-1.174203,37.551357],[-1.170085,37.552654],[-1.168687,37.557536],[-1.173344,37.562429],[-1.1783,37.56537],[-1.18198,37.567204],[-1.188814,37.56785],[-1.1894,37.569842],[-1.190827,37.568881],[-1.200085,37.57325],[-1.205011,37.573711],[-1.208181,37.572804],[-1.217059,37.575614],[-1.225933,37.57337],[-1.225705,37.574862],[-1.227669,37.576577],[-1.234726,37.576007],[-1.237648,37.577898],[-1.246323,37.576396],[-1.24826,37.572541],[-1.254002,37.570553],[-1.258292,37.5662],[-1.258299,37.562532],[-1.253775,37.56087],[-1.256843,37.557941],[-1.263947,37.558677],[-1.264487,37.560271],[-1.266333,37.560731],[-1.272695,37.559301],[-1.276003,37.55624],[-1.277534,37.559579],[-1.279379,37.558606],[-1.284782,37.558973],[-1.285767,37.556509],[-1.287698,37.555743],[-1.288646,37.556361],[-1.287424,37.558804],[-1.290455,37.55992],[-1.297522,37.560815],[-1.300857,37.560043],[-1.302553,37.561636],[-1.314429,37.56314],[-1.316179,37.561336],[-1.319378,37.560561],[-1.319724,37.562774],[-1.325381,37.562449],[-1.330973,37.559473],[-1.332342,37.556446],[-1.337456,37.556094],[-1.339541,37.556989],[-1.354646,37.550189],[-1.366231,37.540625],[-1.37269,37.532468],[-1.378184,37.52965],[-1.381207,37.530088],[-1.383352,37.527189],[-1.39003,37.525],[-1.39629,37.517523],[-1.402325,37.507258],[-1.41592,37.506892],[-1.422211,37.502542],[-1.427669,37.503399],[-1.429485,37.501467],[-1.440812,37.498625],[-1.442713,37.495333],[-1.446325,37.495128],[-1.450474,37.491974],[-1.453672,37.491602],[-1.456742,37.489145],[-1.45639,37.488131],[-1.459918,37.486528],[-1.460466,37.483507],[-1.462114,37.483663],[-1.460621,37.481481],[-1.465092,37.481314],[-1.468572,37.473707],[-1.47118,37.467819],[-1.47499,37.466715],[-1.474845,37.464965],[-1.473364,37.464936]]],[[[-1.266407,37.558064],[-1.266176,37.554807],[-1.270249,37.554912],[-1.269463,37.557568],[-1.266407,37.558064]]]]}}
]
}
