{
"type": "FeatureCollection",
"name": "cod_prov_25",
"crs": { "type": "name", "properties": { "name": "urn:ogc:def:crs:OGC:1.3:CRS84" } },
"xy_coordinate_resolution": 1e-15,
"features": [
{"type":"Feature","properties":{"fid":36,"cod_ccaa":"09","provincia":"Lleida","cod_prov":"25"},"geometry":{"type":"MultiPolygon","coordinates":[[[[0.662538,41.305612],[0.661948,41.303622],[0.657064,41.301481],[0.651816,41.300108],[0.648439,41.300792],[0.645889,41.299171],[0.637106,41.297558],[0.629392,41.293254],[0.628418,41.29097],[0.623213,41.292278],[0.619091,41.29094],[0.608243,41.292551],[0.606021,41.291657],[0.602424,41.293994],[0.597157,41.293538],[0.586255,41.307233],[0.582175,41.311242],[0.581129,41.320055],[0.574918,41.318492],[0.554779,41.326663],[0.545906,41.322984],[0.542258,41.310786],[0.53497,41.302131],[0.530383,41.300336],[0.527039,41.291737],[0.524761,41.289981],[0.518269,41.291594],[0.503626,41.289727],[0.50286,41.293928],[0.499088,41.297069],[0.497496,41.303025],[0.490651,41.306565],[0.490123,41.310318],[0.481136,41.31739],[0.480241,41.323442],[0.474998,41.32505],[0.475615,41.32677],[0.471383,41.327834],[0.469889,41.330752],[0.461615,41.3349],[0.456621,41.329945],[0.451856,41.329764],[0.442092,41.325608],[0.434795,41.320207],[0.432581,41.311727],[0.43632,41.297414],[0.433591,41.287517],[0.433502,41.276038],[0.430506,41.274678],[0.424341,41.274123],[0.386016,41.278842],[0.37678,41.287948],[0.365648,41.303972],[0.368933,41.307126],[0.370494,41.311457],[0.368665,41.318625],[0.364332,41.321462],[0.351527,41.325223],[0.348869,41.329767],[0.359545,41.341973],[0.364438,41.342532],[0.367076,41.34178],[0.367322,41.343781],[0.372603,41.346994],[0.372521,41.350265],[0.374082,41.3504],[0.37326,41.353477],[0.363022,41.364926],[0.360309,41.370508],[0.332609,41.386184],[0.32034,41.394861],[0.322451,41.397806],[0.335316,41.408223],[0.342194,41.413814],[0.347792,41.427303],[0.346565,41.43113],[0.348,41.442048],[0.353858,41.448415],[0.355694,41.452676],[0.345018,41.462254],[0.345239,41.470956],[0.341751,41.480901],[0.342377,41.483998],[0.347672,41.487743],[0.349069,41.487258],[0.367257,41.485955],[0.371189,41.484633],[0.384354,41.485858],[0.395042,41.489838],[0.398195,41.491267],[0.40852,41.502929],[0.417775,41.516927],[0.426672,41.522714],[0.43267,41.530982],[0.443357,41.541081],[0.447278,41.542233],[0.440625,41.554644],[0.430683,41.565234],[0.43327,41.569011],[0.430491,41.577902],[0.431886,41.581363],[0.436212,41.584917],[0.43382,41.592949],[0.428849,41.602373],[0.402378,41.592715],[0.392389,41.595316],[0.349613,41.599464],[0.345816,41.621863],[0.349069,41.623713],[0.353795,41.629456],[0.358337,41.631718],[0.355391,41.634299],[0.349414,41.636176],[0.332916,41.659601],[0.326241,41.6622],[0.325673,41.671888],[0.327018,41.678171],[0.328766,41.682028],[0.334355,41.688125],[0.340973,41.693659],[0.342023,41.696538],[0.351287,41.702535],[0.364215,41.711351],[0.369014,41.71419],[0.369574,41.724665],[0.373128,41.723903],[0.385098,41.740309],[0.388418,41.73669],[0.395792,41.731979],[0.395289,41.737928],[0.399776,41.751627],[0.398608,41.755138],[0.398679,41.755248],[0.399032,41.757808],[0.400969,41.756688],[0.408368,41.759233],[0.423836,41.759916],[0.430717,41.76153],[0.438632,41.76132],[0.448018,41.764668],[0.46475,41.763225],[0.469659,41.765619],[0.47382,41.787187],[0.481765,41.797698],[0.483233,41.801463],[0.489054,41.805158],[0.495535,41.804483],[0.499305,41.806961],[0.502491,41.814392],[0.510885,41.820629],[0.515818,41.82235],[0.519845,41.820912],[0.52546,41.822541],[0.53652,41.821174],[0.542496,41.82041],[0.549328,41.826516],[0.553415,41.835088],[0.553601,41.840188],[0.551616,41.840655],[0.552461,41.849365],[0.557391,41.854226],[0.559439,41.852929],[0.562217,41.852203],[0.562147,41.853547],[0.580411,41.850906],[0.582213,41.857641],[0.580056,41.863453],[0.584599,41.863681],[0.586862,41.8656],[0.590736,41.86529],[0.593991,41.868114],[0.603406,41.86908],[0.607161,41.871798],[0.608223,41.878257],[0.592784,41.884415],[0.5931,41.886611],[0.595798,41.88894],[0.596011,41.892724],[0.601343,41.908539],[0.595946,41.914095],[0.594661,41.917404],[0.597408,41.919083],[0.603936,41.918103],[0.607488,41.919315],[0.602895,41.922323],[0.576984,41.929221],[0.575717,41.930729],[0.562441,41.932691],[0.561881,41.938219],[0.564345,41.940232],[0.565745,41.944357],[0.577235,41.955039],[0.578496,41.957601],[0.58632,41.961805],[0.587287,41.966772],[0.592956,41.968891],[0.604714,41.960652],[0.60391,41.965423],[0.609767,41.968075],[0.613574,41.976933],[0.617264,41.982201],[0.619531,41.983237],[0.616912,41.987202],[0.624131,41.991763],[0.638898,41.9946],[0.642392,41.98688],[0.642287,41.982066],[0.645701,41.987126],[0.644708,41.992344],[0.646951,41.996739],[0.657087,42.000883],[0.664245,42.01453],[0.657283,42.014833],[0.652069,42.026247],[0.656549,42.030453],[0.657106,42.040367],[0.659332,42.041476],[0.663038,42.040799],[0.666379,42.041755],[0.671491,42.04703],[0.668501,42.049449],[0.667954,42.052744],[0.669176,42.061151],[0.679595,42.076035],[0.685967,42.092768],[0.695912,42.09912],[0.695267,42.101337],[0.699911,42.106959],[0.699653,42.11229],[0.702795,42.119932],[0.702335,42.122405],[0.697978,42.126455],[0.698318,42.126484],[0.695731,42.138619],[0.696196,42.151994],[0.704035,42.158377],[0.714327,42.16342],[0.709636,42.166813],[0.701965,42.169556],[0.698951,42.17267],[0.703703,42.185005],[0.70298,42.190035],[0.707562,42.191778],[0.709773,42.19728],[0.708336,42.204325],[0.714528,42.210002],[0.713712,42.215504],[0.717884,42.219501],[0.714523,42.221889],[0.715216,42.22482],[0.720431,42.230476],[0.724748,42.240619],[0.727983,42.244935],[0.734411,42.249732],[0.736003,42.258828],[0.740128,42.269121],[0.739983,42.279985],[0.738607,42.281472],[0.744252,42.285725],[0.743372,42.289698],[0.745193,42.301173],[0.756982,42.309305],[0.755468,42.313434],[0.764986,42.322477],[0.759547,42.325897],[0.757402,42.326138],[0.755308,42.325009],[0.75028,42.326759],[0.74404,42.326315],[0.742115,42.335382],[0.740723,42.336868],[0.745122,42.337589],[0.749792,42.343253],[0.754362,42.344571],[0.754667,42.346632],[0.758118,42.346708],[0.75954,42.348363],[0.763618,42.347743],[0.767374,42.348835],[0.771669,42.350638],[0.76649,42.353348],[0.765821,42.35617],[0.760958,42.357059],[0.753752,42.356341],[0.749588,42.357567],[0.74651,42.356849],[0.737715,42.361863],[0.728857,42.363188],[0.725902,42.365373],[0.723635,42.365627],[0.723163,42.368748],[0.72586,42.370191],[0.734632,42.371508],[0.73601,42.374057],[0.735299,42.376161],[0.743414,42.379109],[0.744696,42.383515],[0.746459,42.384772],[0.743369,42.387944],[0.742107,42.391857],[0.740793,42.391612],[0.738513,42.399637],[0.73685,42.39925],[0.726307,42.40523],[0.728629,42.407919],[0.734883,42.407859],[0.736209,42.41402],[0.734727,42.416896],[0.726597,42.42693],[0.719161,42.428992],[0.717822,42.431249],[0.710504,42.436385],[0.711084,42.43941],[0.706855,42.449316],[0.706176,42.450383],[0.707795,42.453491],[0.706637,42.456536],[0.708887,42.459425],[0.706401,42.464692],[0.7047,42.464927],[0.695278,42.476946],[0.690846,42.487624],[0.69834,42.486383],[0.701165,42.490964],[0.699627,42.49521],[0.700861,42.495908],[0.705443,42.494392],[0.708352,42.492343],[0.708977,42.490153],[0.713671,42.487255],[0.726795,42.498056],[0.72996,42.497269],[0.733509,42.504338],[0.73748,42.504001],[0.74003,42.505143],[0.737376,42.508174],[0.732796,42.509746],[0.729337,42.51256],[0.72063,42.513086],[0.724087,42.520672],[0.721443,42.524513],[0.726079,42.532466],[0.732098,42.535601],[0.735758,42.540218],[0.743904,42.535549],[0.75075,42.534793],[0.746515,42.537462],[0.741315,42.543962],[0.742901,42.548286],[0.747276,42.549773],[0.75016,42.552785],[0.748463,42.556568],[0.750039,42.560307],[0.753808,42.563848],[0.753722,42.565877],[0.757505,42.568616],[0.759039,42.572248],[0.757916,42.577282],[0.760616,42.580849],[0.760915,42.59249],[0.76293,42.594585],[0.7682,42.609817],[0.751358,42.612325],[0.745432,42.61513],[0.741909,42.612905],[0.738574,42.612366],[0.73372,42.615189],[0.730043,42.615057],[0.718054,42.619662],[0.708897,42.620661],[0.702657,42.625014],[0.698764,42.629847],[0.701051,42.63227],[0.699824,42.637063],[0.703735,42.64152],[0.699271,42.645014],[0.696153,42.651256],[0.696022,42.658499],[0.69206,42.659581],[0.686237,42.664875],[0.680741,42.666006],[0.680035,42.66873],[0.676148,42.671088],[0.67375,42.679044],[0.671666,42.681155],[0.66764,42.681995],[0.664021,42.68438],[0.660675,42.687864],[0.660066,42.690982],[0.664415,42.691283],[0.669048,42.688919],[0.676643,42.691034],[0.674197,42.699226],[0.676486,42.703672],[0.68131,42.705768],[0.682336,42.709076],[0.676516,42.713468],[0.672922,42.720021],[0.67639,42.722503],[0.680526,42.723261],[0.677806,42.727437],[0.670427,42.731113],[0.670184,42.733417],[0.666867,42.73744],[0.667587,42.738255],[0.666443,42.738949],[0.66725,42.741228],[0.663698,42.743134],[0.663697,42.749743],[0.659833,42.751973],[0.647724,42.751325],[0.639682,42.754805],[0.651254,42.76253],[0.649973,42.762976],[0.651568,42.766005],[0.662814,42.769994],[0.668658,42.774786],[0.654501,42.776995],[0.648023,42.782199],[0.645228,42.783099],[0.646803,42.784931],[0.650353,42.785438],[0.660045,42.798671],[0.663473,42.79875],[0.667543,42.801618],[0.670509,42.801946],[0.671647,42.805871],[0.665198,42.814065],[0.667218,42.81906],[0.670866,42.821599],[0.670624,42.824119],[0.667837,42.826],[0.662821,42.828475],[0.658896,42.836786],[0.6631,42.841468],[0.678776,42.848096],[0.678617,42.855097],[0.68198,42.854232],[0.68512,42.855176],[0.692765,42.855109],[0.70005,42.857223],[0.708291,42.861377],[0.714842,42.859607],[0.716212,42.857969],[0.723129,42.860238],[0.734802,42.853707],[0.735803,42.848794],[0.745867,42.846673],[0.750622,42.846796],[0.76124,42.842927],[0.763395,42.840326],[0.779149,42.836051],[0.789333,42.836344],[0.79652,42.840013],[0.800988,42.840657],[0.811259,42.838767],[0.816401,42.837037],[0.823008,42.832297],[0.833193,42.828264],[0.843231,42.829169],[0.855798,42.826873],[0.858601,42.825734],[0.857811,42.825032],[0.861269,42.821241],[0.871105,42.815605],[0.874307,42.815965],[0.877687,42.814275],[0.880257,42.814881],[0.885483,42.8132],[0.89551,42.807141],[0.898185,42.806717],[0.901519,42.803541],[0.906653,42.801187],[0.908,42.796954],[0.914967,42.796338],[0.917496,42.793793],[0.92679,42.789585],[0.931181,42.789046],[0.933747,42.789796],[0.935849,42.788823],[0.933354,42.790935],[0.938726,42.796206],[0.946528,42.801222],[0.958665,42.803648],[0.961127,42.805246],[0.965167,42.804557],[0.967971,42.800615],[0.977899,42.795075],[0.978672,42.790744],[0.984831,42.786136],[0.986297,42.787075],[0.995531,42.786969],[1.002802,42.790154],[1.006512,42.79042],[1.01002,42.788524],[1.01413,42.788758],[1.016998,42.787171],[1.019555,42.787586],[1.031547,42.785138],[1.032845,42.787055],[1.037145,42.785895],[1.038255,42.785099],[1.039361,42.78669],[1.041403,42.786329],[1.044229,42.784294],[1.042886,42.781325],[1.044425,42.780748],[1.053099,42.782359],[1.058766,42.781735],[1.059353,42.783038],[1.073584,42.782343],[1.076338,42.787241],[1.078058,42.787936],[1.083226,42.784547],[1.083118,42.782534],[1.090321,42.776658],[1.095151,42.774279],[1.108984,42.771118],[1.109335,42.765352],[1.119408,42.762829],[1.121552,42.75942],[1.128226,42.755236],[1.132108,42.750045],[1.130537,42.739099],[1.13503,42.735578],[1.133029,42.731572],[1.133577,42.728238],[1.139356,42.724428],[1.149572,42.721249],[1.153682,42.716607],[1.165687,42.709534],[1.171053,42.708168],[1.176043,42.709022],[1.178425,42.713049],[1.187246,42.71604],[1.201262,42.718011],[1.209345,42.721784],[1.216645,42.720669],[1.229132,42.7285],[1.232017,42.728178],[1.235887,42.725648],[1.24159,42.725473],[1.243118,42.723706],[1.246332,42.723559],[1.250428,42.721318],[1.252585,42.714648],[1.259012,42.716308],[1.261049,42.715566],[1.26681,42.716432],[1.268169,42.718974],[1.27567,42.719198],[1.278397,42.714819],[1.295089,42.720487],[1.307573,42.719847],[1.309552,42.718097],[1.317432,42.719736],[1.325944,42.725014],[1.333981,42.725727],[1.336108,42.725232],[1.337836,42.721647],[1.340139,42.720182],[1.358282,42.720662],[1.359041,42.716338],[1.353256,42.71167],[1.35225,42.703226],[1.354703,42.700252],[1.362237,42.698362],[1.365662,42.695161],[1.369128,42.696361],[1.372844,42.6954],[1.377146,42.696],[1.388959,42.688003],[1.390015,42.685153],[1.386591,42.678126],[1.389653,42.673264],[1.387459,42.668801],[1.399558,42.665977],[1.402749,42.662793],[1.405804,42.656832],[1.409679,42.657628],[1.414688,42.655157],[1.414789,42.648319],[1.416612,42.646853],[1.418878,42.641139],[1.416963,42.638719],[1.417428,42.635991],[1.42154,42.632239],[1.421169,42.625123],[1.424258,42.622257],[1.429096,42.620854],[1.428876,42.61845],[1.431317,42.616942],[1.429233,42.61334],[1.441888,42.60019],[1.44447,42.592805],[1.443608,42.589768],[1.441037,42.588059],[1.436975,42.588847],[1.428702,42.587826],[1.427583,42.583385],[1.433427,42.575605],[1.438292,42.573273],[1.444778,42.571968],[1.445067,42.566788],[1.441456,42.564308],[1.426528,42.558702],[1.421173,42.549968],[1.419643,42.549523],[1.419797,42.545322],[1.415416,42.540701],[1.414062,42.535666],[1.416518,42.535616],[1.42513,42.539119],[1.432872,42.540142],[1.437137,42.54311],[1.441031,42.543589],[1.452625,42.538501],[1.452087,42.534021],[1.453705,42.530752],[1.454292,42.527029],[1.460319,42.523463],[1.463934,42.518694],[1.465656,42.513818],[1.469563,42.510766],[1.443706,42.495208],[1.426163,42.493493],[1.419514,42.484269],[1.421701,42.483023],[1.431593,42.482721],[1.441394,42.475471],[1.440485,42.46436],[1.447833,42.460122],[1.441813,42.455296],[1.442137,42.451637],[1.446574,42.448196],[1.445684,42.44661],[1.447159,42.443762],[1.442947,42.4447],[1.444756,42.441415],[1.447594,42.439432],[1.455547,42.436052],[1.469529,42.43611],[1.485566,42.433294],[1.496432,42.433129],[1.507685,42.429895],[1.516114,42.428815],[1.519197,42.430953],[1.526114,42.432147],[1.548494,42.433231],[1.551451,42.432609],[1.552994,42.433448],[1.554442,42.440169],[1.553406,42.44347],[1.555502,42.446394],[1.560369,42.448631],[1.557373,42.453909],[1.56091,42.458576],[1.567813,42.458868],[1.574831,42.452059],[1.577956,42.45008],[1.581195,42.449977],[1.582984,42.456496],[1.586498,42.461154],[1.597975,42.467608],[1.605917,42.46447],[1.622931,42.465666],[1.631661,42.463017],[1.634672,42.467073],[1.640885,42.466569],[1.646119,42.468769],[1.651273,42.467102],[1.657392,42.468437],[1.663212,42.475079],[1.661218,42.479004],[1.663603,42.479835],[1.662193,42.484097],[1.662695,42.493124],[1.665793,42.495843],[1.666245,42.498481],[1.670695,42.504151],[1.679841,42.494666],[1.681548,42.494227],[1.686025,42.495529],[1.690788,42.494956],[1.703976,42.489787],[1.71174,42.49224],[1.726624,42.504888],[1.731249,42.49509],[1.731279,42.492424],[1.724637,42.486946],[1.730416,42.47746],[1.733457,42.47376],[1.726607,42.462114],[1.727472,42.452949],[1.728775,42.448142],[1.732422,42.444921],[1.732286,42.440371],[1.745537,42.433168],[1.757966,42.433111],[1.765151,42.430894],[1.769795,42.428036],[1.770189,42.429217],[1.777358,42.431591],[1.785836,42.432002],[1.794985,42.430854],[1.797366,42.426711],[1.801907,42.424909],[1.807416,42.418609],[1.811375,42.411123],[1.810197,42.411452],[1.80546,42.407978],[1.80859,42.3995],[1.808858,42.393808],[1.807926,42.390039],[1.800411,42.377984],[1.801869,42.37514],[1.804986,42.375406],[1.806812,42.3699],[1.811796,42.37014],[1.817016,42.373459],[1.822757,42.377854],[1.828517,42.37933],[1.830351,42.381395],[1.832414,42.378679],[1.833525,42.37576],[1.840456,42.373666],[1.844979,42.374852],[1.851309,42.373476],[1.85542,42.369637],[1.848144,42.364238],[1.846308,42.359319],[1.845665,42.35507],[1.835519,42.355571],[1.839084,42.350469],[1.83639,42.341003],[1.840167,42.339619],[1.835204,42.332986],[1.836584,42.331046],[1.833517,42.326818],[1.835439,42.324513],[1.835135,42.319124],[1.840473,42.312182],[1.839821,42.310634],[1.842976,42.306395],[1.837676,42.305611],[1.834876,42.304046],[1.833131,42.301229],[1.82681,42.29929],[1.818773,42.299503],[1.814956,42.302248],[1.804836,42.302025],[1.797957,42.298173],[1.797639,42.294792],[1.793271,42.293966],[1.787625,42.294671],[1.782124,42.293298],[1.779724,42.291391],[1.775862,42.290841],[1.762781,42.293781],[1.745228,42.290477],[1.741089,42.290586],[1.738457,42.28929],[1.734688,42.28399],[1.719581,42.284002],[1.71804,42.284462],[1.715943,42.288041],[1.70272,42.284876],[1.696572,42.285849],[1.692019,42.28446],[1.691392,42.286296],[1.686529,42.285144],[1.675418,42.285896],[1.670669,42.281687],[1.672473,42.280191],[1.675347,42.280353],[1.682956,42.277845],[1.684533,42.276223],[1.690502,42.277095],[1.695419,42.263829],[1.685773,42.260425],[1.684945,42.256461],[1.688363,42.254503],[1.690164,42.247586],[1.697085,42.245006],[1.699167,42.241067],[1.703502,42.23989],[1.70456,42.2362],[1.701987,42.235315],[1.700614,42.230708],[1.681375,42.224312],[1.685705,42.220786],[1.680771,42.20633],[1.687395,42.205996],[1.689946,42.199085],[1.707762,42.190025],[1.713522,42.190472],[1.714821,42.192795],[1.721879,42.196196],[1.734048,42.191174],[1.734424,42.190051],[1.738059,42.189441],[1.737136,42.185203],[1.738368,42.184998],[1.73662,42.183477],[1.736775,42.18005],[1.739428,42.176518],[1.736278,42.170977],[1.7368,42.162735],[1.734683,42.159356],[1.72099,42.151621],[1.716757,42.154091],[1.713921,42.154028],[1.710367,42.150159],[1.708377,42.149754],[1.707181,42.145221],[1.703039,42.14206],[1.704171,42.14069],[1.698915,42.13571],[1.700247,42.130506],[1.699461,42.128053],[1.706419,42.122887],[1.708235,42.123236],[1.709162,42.120893],[1.712044,42.119478],[1.711578,42.115968],[1.710127,42.110265],[1.705511,42.1077],[1.70541,42.10666],[1.711273,42.101755],[1.718388,42.101516],[1.722842,42.099793],[1.722411,42.091077],[1.716953,42.08464],[1.713193,42.084794],[1.707986,42.082704],[1.696377,42.086701],[1.691656,42.087093],[1.688712,42.081433],[1.68869,42.078355],[1.691771,42.078021],[1.690054,42.074409],[1.686486,42.068793],[1.674698,42.059173],[1.675765,42.057914],[1.67401,42.052278],[1.673468,42.048843],[1.670593,42.044413],[1.674181,42.039324],[1.679409,42.038795],[1.680345,42.046437],[1.682978,42.049877],[1.683921,42.048082],[1.692836,42.046124],[1.697564,42.039483],[1.697678,42.03694],[1.694658,42.035128],[1.699816,42.029586],[1.69829,42.027398],[1.696182,42.028448],[1.689099,42.027865],[1.689659,42.026779],[1.684079,42.02545],[1.678299,42.01861],[1.675275,42.019517],[1.672799,42.018033],[1.668909,42.013717],[1.67021,42.006938],[1.666325,42.003495],[1.660677,42.006651],[1.66473,42.00826],[1.665655,42.010671],[1.662459,42.011864],[1.662534,42.015858],[1.665391,42.0191],[1.665058,42.022301],[1.662278,42.023405],[1.656214,42.020905],[1.654886,42.015953],[1.651768,42.013271],[1.653716,42.011013],[1.65302,42.006936],[1.649038,42.003325],[1.648214,42.000144],[1.649009,41.999131],[1.652022,41.999224],[1.652316,41.992514],[1.655326,41.993238],[1.658001,41.998297],[1.655449,41.999535],[1.657323,42.001242],[1.655184,42.002364],[1.658216,42.005023],[1.662268,42.002994],[1.662362,41.991079],[1.668501,41.99037],[1.676928,41.994356],[1.682855,41.993871],[1.685091,41.994896],[1.690082,41.990226],[1.691422,41.99072],[1.692357,41.989656],[1.691416,41.986543],[1.697796,41.985174],[1.696862,41.991011],[1.699639,41.992986],[1.693877,42.000137],[1.69119,42.005937],[1.695107,42.012565],[1.6981,42.014675],[1.707916,42.007825],[1.707625,42.002417],[1.713177,42.002729],[1.718345,41.999491],[1.718711,41.997432],[1.715935,41.996781],[1.717854,41.993839],[1.716407,41.993368],[1.715813,41.991213],[1.713185,41.991583],[1.717041,41.989218],[1.717047,41.986039],[1.719537,41.985766],[1.719585,41.984458],[1.715147,41.981238],[1.697803,41.97545],[1.683105,41.967373],[1.679185,41.968865],[1.672166,41.968252],[1.670866,41.970591],[1.669813,41.969896],[1.66977,41.973256],[1.67565,41.982524],[1.668244,41.984546],[1.660258,41.982935],[1.661433,41.981348],[1.660594,41.977628],[1.656438,41.979048],[1.655929,41.980671],[1.650425,41.979653],[1.651693,41.978683],[1.644614,41.968967],[1.645511,41.96008],[1.649769,41.956594],[1.647698,41.9535],[1.649368,41.949435],[1.650779,41.944795],[1.645063,41.943811],[1.643059,41.940471],[1.653363,41.928789],[1.650362,41.926642],[1.643584,41.929114],[1.642348,41.927859],[1.63861,41.927191],[1.634643,41.924029],[1.632831,41.920825],[1.626304,41.916587],[1.622632,41.915484],[1.623118,41.913367],[1.620382,41.912703],[1.61745,41.910003],[1.616281,41.905989],[1.605516,41.901453],[1.60238,41.902587],[1.60086,41.904584],[1.595294,41.896056],[1.587236,41.888554],[1.583806,41.88844],[1.585044,41.890749],[1.583186,41.892903],[1.57673,41.891595],[1.569286,41.880007],[1.581676,41.87519],[1.583761,41.873351],[1.602095,41.884222],[1.60303,41.882474],[1.606241,41.884065],[1.611994,41.880304],[1.615025,41.880074],[1.619479,41.881524],[1.619023,41.877536],[1.621717,41.874645],[1.622999,41.870704],[1.625954,41.86909],[1.62845,41.860129],[1.630664,41.85877],[1.626823,41.848616],[1.631815,41.844705],[1.623459,41.841054],[1.619685,41.84181],[1.612364,41.838296],[1.610365,41.836116],[1.615797,41.830289],[1.611814,41.817763],[1.602766,41.813616],[1.59361,41.811984],[1.589167,41.804716],[1.594292,41.801846],[1.593433,41.800773],[1.594811,41.799844],[1.594795,41.797098],[1.59747,41.796487],[1.598325,41.793968],[1.596271,41.794185],[1.596516,41.793239],[1.600184,41.789022],[1.592517,41.780731],[1.593952,41.777918],[1.58174,41.775526],[1.581174,41.777196],[1.575468,41.78153],[1.57294,41.78218],[1.569195,41.777395],[1.561553,41.777348],[1.563009,41.773968],[1.562017,41.770154],[1.548677,41.770639],[1.54506,41.757592],[1.534433,41.757302],[1.536422,41.754981],[1.535549,41.752837],[1.53108,41.752554],[1.52857,41.759082],[1.53312,41.763575],[1.527807,41.763947],[1.523709,41.765703],[1.519272,41.770848],[1.516237,41.770265],[1.5107,41.771239],[1.512405,41.772559],[1.508601,41.774068],[1.505192,41.787879],[1.496688,41.789789],[1.492187,41.788569],[1.488198,41.788816],[1.482804,41.790999],[1.488021,41.777325],[1.481831,41.774992],[1.484177,41.772415],[1.482945,41.771122],[1.479874,41.771926],[1.478948,41.773664],[1.474471,41.772938],[1.473219,41.771366],[1.470446,41.772303],[1.470883,41.771503],[1.46867,41.770986],[1.467446,41.775517],[1.46516,41.775165],[1.461476,41.776677],[1.469127,41.778756],[1.470176,41.781912],[1.473852,41.782525],[1.469897,41.787406],[1.472155,41.792018],[1.472595,41.800221],[1.47144,41.800924],[1.465822,41.798342],[1.460709,41.797848],[1.456498,41.798714],[1.451511,41.797765],[1.443039,41.800713],[1.42667,41.801869],[1.417362,41.79462],[1.4199,41.791992],[1.421968,41.79319],[1.418876,41.787943],[1.415896,41.775921],[1.414243,41.77621],[1.411256,41.77492],[1.410456,41.768342],[1.411854,41.766289],[1.410243,41.759806],[1.407759,41.752698],[1.404067,41.748824],[1.40338,41.745294],[1.406151,41.744845],[1.411667,41.740789],[1.416282,41.740422],[1.422369,41.735397],[1.425591,41.734705],[1.425205,41.732766],[1.419739,41.732635],[1.416962,41.72878],[1.401162,41.719556],[1.382279,41.705747],[1.398249,41.705594],[1.40069,41.704393],[1.39623,41.696083],[1.404546,41.694881],[1.40467,41.686151],[1.414553,41.684709],[1.420251,41.685479],[1.423748,41.684111],[1.419306,41.676431],[1.415396,41.674574],[1.425714,41.66953],[1.426011,41.66091],[1.430876,41.655347],[1.433469,41.651321],[1.439856,41.647833],[1.445202,41.645807],[1.4505,41.646556],[1.448674,41.636092],[1.44383,41.634425],[1.440437,41.63552],[1.431572,41.634008],[1.430647,41.629802],[1.424181,41.631763],[1.422048,41.634798],[1.417915,41.635093],[1.39203,41.634079],[1.38774,41.631011],[1.386604,41.625949],[1.380066,41.62492],[1.369607,41.621276],[1.369251,41.617247],[1.359976,41.61353],[1.361092,41.612101],[1.368974,41.610324],[1.370032,41.613012],[1.374431,41.611701],[1.37468,41.607585],[1.38489,41.602639],[1.393719,41.599465],[1.406995,41.600469],[1.407398,41.59054],[1.402139,41.58605],[1.395926,41.584812],[1.393041,41.579772],[1.393202,41.575084],[1.395828,41.567312],[1.402614,41.564314],[1.403802,41.558155],[1.39226,41.556427],[1.384929,41.55651],[1.380813,41.561223],[1.372054,41.565384],[1.346705,41.568004],[1.312911,41.569],[1.304984,41.571684],[1.30335,41.569819],[1.294519,41.566656],[1.277032,41.5702],[1.273109,41.572156],[1.259493,41.567503],[1.257325,41.571725],[1.252881,41.571431],[1.251503,41.572355],[1.2519,41.571278],[1.248293,41.569863],[1.246791,41.57054],[1.244352,41.568271],[1.234808,41.571199],[1.232331,41.569264],[1.220217,41.569575],[1.216501,41.567191],[1.217318,41.562442],[1.214291,41.56033],[1.213664,41.552906],[1.211119,41.548596],[1.197008,41.543386],[1.181036,41.543465],[1.16827,41.540463],[1.167145,41.536938],[1.176201,41.534826],[1.176611,41.533757],[1.170726,41.532621],[1.165007,41.534449],[1.16678,41.532386],[1.17037,41.531004],[1.173672,41.531298],[1.170963,41.519367],[1.168975,41.518079],[1.1665,41.51816],[1.16455,41.513359],[1.164982,41.508706],[1.167883,41.504819],[1.175977,41.501599],[1.176179,41.497666],[1.1813,41.488105],[1.176729,41.4863],[1.172796,41.486965],[1.163211,41.482424],[1.155371,41.480781],[1.130885,41.476847],[1.130082,41.473823],[1.121445,41.471117],[1.120059,41.469456],[1.114144,41.468876],[1.112529,41.467007],[1.108495,41.466818],[1.105855,41.474107],[1.099721,41.476127],[1.094286,41.477474],[1.091608,41.47602],[1.082864,41.479195],[1.078745,41.483583],[1.06995,41.48674],[1.065275,41.487239],[1.056785,41.493563],[1.050654,41.495689],[1.04291,41.500374],[1.040104,41.501103],[1.037602,41.498229],[1.042146,41.493315],[1.046126,41.491265],[1.04801,41.487471],[1.04633,41.484343],[1.037713,41.479991],[1.043084,41.476452],[1.043335,41.475093],[1.057293,41.466253],[1.072473,41.463005],[1.075474,41.4599],[1.07043,41.455622],[1.064423,41.454691],[1.063362,41.45073],[1.061523,41.449076],[1.06272,41.448313],[1.059421,41.446845],[1.058684,41.443674],[1.055441,41.442321],[1.050709,41.442895],[1.046799,41.440384],[1.046666,41.437084],[1.040216,41.428027],[1.038136,41.421698],[1.03124,41.421229],[1.032023,41.418031],[1.029965,41.416474],[1.027325,41.409777],[1.024484,41.409093],[1.021174,41.40585],[1.015907,41.404233],[1.013037,41.403847],[1.006234,41.405823],[1.003892,41.404887],[1.001585,41.403553],[1.001375,41.402084],[1.004005,41.400317],[0.998668,41.399089],[0.993321,41.393809],[0.994001,41.391246],[0.992021,41.388596],[0.982003,41.392149],[0.979774,41.386589],[0.973941,41.381721],[0.972895,41.374176],[0.962614,41.368074],[0.963418,41.360663],[0.967174,41.359524],[0.964644,41.35547],[0.959911,41.354867],[0.955517,41.351975],[0.952161,41.351811],[0.948504,41.352207],[0.945214,41.349979],[0.939715,41.349339],[0.934508,41.350391],[0.922209,41.348569],[0.912118,41.349868],[0.905536,41.347724],[0.901933,41.347621],[0.893381,41.343481],[0.884933,41.34147],[0.872432,41.340812],[0.863643,41.338082],[0.855505,41.347775],[0.847018,41.354823],[0.845122,41.361982],[0.832479,41.358785],[0.820515,41.329602],[0.813295,41.327293],[0.802365,41.330384],[0.795099,41.328688],[0.791752,41.331545],[0.779597,41.331864],[0.774434,41.333907],[0.768146,41.333843],[0.762051,41.334015],[0.754002,41.328677],[0.753974,41.326733],[0.750837,41.324728],[0.751874,41.317832],[0.745147,41.316746],[0.742511,41.317444],[0.73657,41.316098],[0.733404,41.314003],[0.728842,41.314637],[0.72478,41.312725],[0.717126,41.312549],[0.713419,41.313723],[0.711958,41.312392],[0.709732,41.31295],[0.707244,41.311626],[0.703409,41.31265],[0.698188,41.312206],[0.695971,41.313547],[0.690433,41.312347],[0.687944,41.310148],[0.684343,41.310255],[0.681117,41.308098],[0.677992,41.309657],[0.669974,41.30958],[0.666073,41.306471],[0.662538,41.305612]],[[1.692232,42.110271],[1.692037,42.112863],[1.688765,42.11261],[1.683506,42.114418],[1.671407,42.114661],[1.664348,42.113553],[1.657718,42.114165],[1.65632,42.115383],[1.65573,42.113436],[1.65223,42.114514],[1.645234,42.11261],[1.667258,42.104935],[1.679718,42.103553],[1.689752,42.104853],[1.688251,42.106472],[1.692232,42.110271]]],[[[1.708747,41.894663],[1.709745,41.897098],[1.712054,41.89621],[1.714015,41.892727],[1.715646,41.892137],[1.718628,41.89287],[1.720295,41.895367],[1.725267,41.893018],[1.719108,41.882389],[1.715941,41.88584],[1.706505,41.888977],[1.70719,41.890207],[1.710062,41.888793],[1.712132,41.891048],[1.708747,41.894663]]]]}}
]
}
