{
"type": "FeatureCollection",
"name": "cod_prov_52",
"crs": { "type": "name", "properties": { "name": "urn:ogc:def:crs:OGC:1.3:CRS84" } },
"xy_coordinate_resolution": 1e-15,
"features": [
{"type":"Feature","properties":{"fid":30,"cod_ccaa":"19","provincia":"Melilla","cod_prov":"52"},"geometry":{"type":"MultiPolygon","coordinates":[[[[-2.952535,35.320003],[-2.949154,35.315976],[-2.944666,35.315086],[-2.947174,35.308675],[-2.941966,35.303034],[-2.938903,35.302547],[-2.935179,35.296681],[-2.935599,35.29474],[-2.934378,35.294486],[-2.933633,35.29605],[-2.932163,35.293717],[-2.924983,35.293295],[-2.923215,35.290125],[-2.924331,35.290135],[-2.925177,35.292578],[-2.928284,35.292762],[-2.92872,35.29113],[-2.929411,35.292851],[-2.931696,35.292987],[-2.931472,35.291639],[-2.93445,35.291328],[-2.934582,35.292856],[-2.935842,35.292083],[-2.934915,35.291322],[-2.935864,35.290045],[-2.932744,35.28967],[-2.935931,35.289726],[-2.936959,35.288399],[-2.937399,35.283642],[-2.936022,35.283168],[-2.937068,35.281842],[-2.935322,35.278489],[-2.931719,35.275146],[-2.92772,35.27457],[-2.924791,35.278592],[-2.927925,35.272987],[-2.934531,35.268906],[-2.95035,35.265626],[-2.954669,35.273172],[-2.968159,35.282043],[-2.968034,35.285149],[-2.964703,35.287082],[-2.965104,35.28853],[-2.970046,35.288938],[-2.967687,35.300914],[-2.961019,35.314141],[-2.952535,35.320003]]]]}}
]
}
