{
"type": "FeatureCollection",
"name": "cod_prov_36",
"crs": { "type": "name", "properties": { "name": "urn:ogc:def:crs:OGC:1.3:CRS84" } },
"xy_coordinate_resolution": 1e-15,
"features": [
{"type":"Feature","properties":{"fid":21,"cod_ccaa":"12","provincia":"Pontevedra","cod_prov":"36"},"geometry":{"type":"MultiPolygon","coordinates":[[[[-8.863582,41.87203],[-8.865984,41.874058],[-8.873794,41.870318],[-8.87747,41.875719],[-8.879934,41.877096],[-8.882644,41.882196],[-8.881374,41.888949],[-8.882261,41.892297],[-8.881059,41.891288],[-8.880312,41.895728],[-8.879069,41.895585],[-8.878778,41.897004],[-8.87651,41.898012],[-8.88034,41.89957],[-8.876731,41.898712],[-8.874656,41.899862],[-8.881022,41.90292],[-8.879404,41.906937],[-8.877405,41.90839],[-8.879333,41.908912],[-8.877693,41.910337],[-8.883149,41.912398],[-8.881909,41.912938],[-8.882693,41.914644],[-8.885397,41.917179],[-8.884144,41.91718],[-8.884671,41.920016],[-8.88597,41.920516],[-8.884645,41.921178],[-8.8843,41.930504],[-8.887994,41.93774],[-8.886602,41.937677],[-8.886358,41.941569],[-8.884879,41.945786],[-8.88667,41.952517],[-8.88387,41.953534],[-8.885832,41.954541],[-8.886561,41.957213],[-8.88515,41.961264],[-8.887187,41.961897],[-8.887056,41.963875],[-8.885559,41.964384],[-8.886472,41.967866],[-8.885368,41.968193],[-8.886822,41.969045],[-8.886062,41.970741],[-8.888001,41.972405],[-8.888316,41.974766],[-8.887276,41.97526],[-8.888355,41.97597],[-8.886971,41.976005],[-8.888071,41.977209],[-8.886409,41.983766],[-8.887065,41.987982],[-8.886239,41.989104],[-8.884478,41.988844],[-8.884337,41.995413],[-8.882942,41.99742],[-8.879649,41.998742],[-8.877324,42.002705],[-8.881098,42.004105],[-8.884482,42.009242],[-8.884045,42.011965],[-8.886167,42.012324],[-8.886252,42.014678],[-8.888128,42.015121],[-8.885426,42.016322],[-8.886709,42.017139],[-8.88558,42.017854],[-8.885638,42.021092],[-8.887859,42.023039],[-8.885973,42.024576],[-8.889323,42.026591],[-8.886543,42.027337],[-8.884077,42.029652],[-8.883605,42.039299],[-8.881961,42.040446],[-8.887224,42.041606],[-8.888399,42.043985],[-8.886303,42.046127],[-8.885938,42.051052],[-8.889713,42.051515],[-8.889501,42.055091],[-8.891568,42.057325],[-8.891955,42.061887],[-8.89607,42.067166],[-8.894531,42.072061],[-8.896165,42.07691],[-8.892198,42.082461],[-8.895536,42.100041],[-8.899175,42.103562],[-8.898333,42.107629],[-8.899724,42.110366],[-8.898427,42.111891],[-8.896881,42.111647],[-8.894503,42.113246],[-8.892688,42.112187],[-8.888339,42.113392],[-8.88103,42.110978],[-8.8759,42.112889],[-8.874857,42.114941],[-8.8692,42.114961],[-8.862816,42.121356],[-8.858902,42.1227],[-8.853051,42.121937],[-8.851603,42.124199],[-8.852644,42.125514],[-8.851721,42.128091],[-8.847981,42.126086],[-8.846369,42.125916],[-8.846024,42.124673],[-8.849315,42.120895],[-8.847168,42.119241],[-8.845958,42.119888],[-8.846513,42.118824],[-8.841409,42.115799],[-8.836622,42.116197],[-8.834762,42.113195],[-8.827793,42.113937],[-8.824265,42.117115],[-8.824707,42.119028],[-8.827689,42.122404],[-8.823632,42.124565],[-8.819736,42.12876],[-8.818677,42.136659],[-8.82086,42.141521],[-8.823527,42.143159],[-8.825213,42.142425],[-8.82445,42.141492],[-8.826022,42.142276],[-8.827467,42.14628],[-8.830047,42.148021],[-8.837275,42.148615],[-8.838331,42.147472],[-8.839565,42.149048],[-8.843594,42.147617],[-8.849264,42.149803],[-8.850639,42.156826],[-8.849421,42.157393],[-8.848316,42.156567],[-8.845997,42.157784],[-8.843599,42.156844],[-8.844015,42.158461],[-8.842055,42.157292],[-8.839027,42.158302],[-8.833539,42.153361],[-8.829555,42.153195],[-8.821548,42.157285],[-8.818079,42.165248],[-8.818595,42.168489],[-8.815969,42.16832],[-8.815535,42.173621],[-8.813791,42.175944],[-8.814506,42.17769],[-8.812046,42.181608],[-8.814412,42.182805],[-8.813794,42.184294],[-8.816043,42.187655],[-8.811932,42.191105],[-8.808697,42.190295],[-8.802602,42.192356],[-8.801192,42.19501],[-8.799043,42.193484],[-8.797479,42.194183],[-8.795513,42.196994],[-8.799943,42.200194],[-8.80266,42.199115],[-8.804956,42.200354],[-8.800394,42.203062],[-8.79892,42.202661],[-8.799806,42.200278],[-8.79653,42.197784],[-8.789885,42.198972],[-8.788254,42.200594],[-8.786422,42.200003],[-8.785522,42.201559],[-8.78267,42.201866],[-8.782475,42.20369],[-8.779484,42.204509],[-8.775807,42.212676],[-8.776587,42.217008],[-8.778392,42.217575],[-8.778059,42.22025],[-8.771079,42.225126],[-8.768317,42.224455],[-8.768555,42.223346],[-8.761048,42.22477],[-8.760465,42.22355],[-8.756355,42.224433],[-8.754165,42.227075],[-8.756145,42.226116],[-8.757644,42.226599],[-8.757509,42.225552],[-8.760295,42.228334],[-8.757851,42.229436],[-8.758067,42.232731],[-8.751374,42.234931],[-8.750652,42.2342],[-8.754395,42.232567],[-8.753311,42.230969],[-8.750526,42.231714],[-8.74908,42.231165],[-8.746366,42.23244],[-8.745256,42.230536],[-8.739848,42.232652],[-8.747139,42.229186],[-8.750007,42.231477],[-8.753089,42.230652],[-8.753092,42.229512],[-8.751206,42.229606],[-8.752606,42.228241],[-8.750597,42.228321],[-8.751931,42.22698],[-8.750719,42.227032],[-8.751717,42.226691],[-8.750989,42.225237],[-8.750022,42.226536],[-8.749241,42.225537],[-8.748371,42.226345],[-8.745891,42.225964],[-8.746241,42.226748],[-8.745558,42.225714],[-8.744279,42.22602],[-8.74415,42.227431],[-8.743173,42.226434],[-8.742653,42.22742],[-8.742185,42.225732],[-8.740391,42.226206],[-8.741407,42.227859],[-8.739336,42.227194],[-8.739468,42.22904],[-8.737933,42.228016],[-8.736615,42.229696],[-8.737532,42.23011],[-8.736227,42.230174],[-8.737717,42.231056],[-8.736054,42.230414],[-8.735323,42.231478],[-8.736345,42.231931],[-8.735127,42.231764],[-8.736166,42.232232],[-8.735082,42.231828],[-8.735862,42.232673],[-8.734782,42.232266],[-8.733968,42.233465],[-8.735322,42.233881],[-8.732918,42.236311],[-8.733626,42.237379],[-8.736557,42.234211],[-8.732574,42.240167],[-8.733298,42.238324],[-8.732596,42.237593],[-8.731205,42.238888],[-8.731592,42.237024],[-8.727961,42.240029],[-8.73134,42.240173],[-8.725981,42.243153],[-8.726942,42.240834],[-8.723252,42.242479],[-8.724394,42.24148],[-8.722815,42.241642],[-8.724456,42.241138],[-8.720966,42.241272],[-8.72348,42.242873],[-8.717628,42.241011],[-8.717068,42.243248],[-8.715644,42.243144],[-8.715911,42.240829],[-8.71179,42.241841],[-8.709968,42.245339],[-8.709264,42.244403],[-8.710079,42.250631],[-8.706198,42.250328],[-8.706856,42.251199],[-8.705299,42.251177],[-8.707524,42.251742],[-8.705577,42.251919],[-8.705162,42.253429],[-8.70706,42.256387],[-8.705382,42.255651],[-8.702911,42.25985],[-8.697542,42.259976],[-8.695328,42.261463],[-8.696756,42.2599],[-8.695023,42.257714],[-8.693081,42.258086],[-8.692286,42.259772],[-8.692715,42.257277],[-8.690716,42.257041],[-8.689123,42.258751],[-8.68986,42.260064],[-8.688997,42.258781],[-8.688522,42.259788],[-8.687274,42.258839],[-8.680305,42.264185],[-8.677075,42.264722],[-8.670847,42.272245],[-8.671217,42.274874],[-8.669252,42.276078],[-8.668695,42.27959],[-8.664286,42.280835],[-8.661908,42.284328],[-8.655423,42.28501],[-8.647643,42.289787],[-8.638833,42.28889],[-8.635138,42.285939],[-8.630428,42.285055],[-8.627168,42.286431],[-8.626934,42.288423],[-8.623333,42.287061],[-8.625181,42.289302],[-8.624551,42.290386],[-8.622303,42.286796],[-8.619428,42.28746],[-8.614746,42.285809],[-8.611223,42.287494],[-8.612278,42.289135],[-8.61428,42.287515],[-8.615799,42.289187],[-8.621326,42.290526],[-8.621621,42.29179],[-8.618402,42.292273],[-8.616433,42.294125],[-8.618152,42.296678],[-8.616511,42.294454],[-8.615615,42.295011],[-8.615432,42.300854],[-8.617544,42.304675],[-8.622225,42.308748],[-8.625009,42.309637],[-8.627195,42.308998],[-8.619393,42.311948],[-8.619827,42.315446],[-8.616203,42.320108],[-8.616736,42.322674],[-8.613887,42.326919],[-8.611929,42.326862],[-8.615093,42.329831],[-8.616482,42.330437],[-8.615554,42.333364],[-8.612586,42.336813],[-8.615278,42.342227],[-8.612311,42.345559],[-8.617744,42.348236],[-8.617778,42.349297],[-8.620472,42.349569],[-8.623143,42.348358],[-8.624861,42.345581],[-8.627881,42.346243],[-8.628725,42.351062],[-8.633899,42.349754],[-8.634355,42.348345],[-8.637343,42.34728],[-8.640949,42.339999],[-8.64526,42.338688],[-8.644708,42.336447],[-8.642916,42.336769],[-8.640665,42.335476],[-8.641507,42.334579],[-8.637115,42.33269],[-8.636503,42.3264],[-8.646443,42.32455],[-8.647377,42.322118],[-8.650516,42.321009],[-8.64952,42.318421],[-8.655018,42.321426],[-8.660438,42.315603],[-8.662183,42.309917],[-8.658857,42.308002],[-8.658683,42.303906],[-8.652051,42.297698],[-8.659284,42.291417],[-8.661543,42.290522],[-8.667121,42.291605],[-8.667788,42.290528],[-8.677123,42.290658],[-8.680049,42.287065],[-8.684139,42.284962],[-8.683362,42.284011],[-8.690224,42.279979],[-8.696119,42.278812],[-8.699321,42.281785],[-8.70196,42.282013],[-8.703762,42.279952],[-8.702654,42.278954],[-8.704829,42.279683],[-8.704026,42.278453],[-8.70606,42.27963],[-8.707376,42.277152],[-8.711722,42.276692],[-8.713126,42.275334],[-8.713039,42.278651],[-8.717854,42.2887],[-8.718961,42.28914],[-8.721122,42.286907],[-8.719812,42.283291],[-8.720855,42.282627],[-8.721669,42.285187],[-8.727445,42.286176],[-8.730363,42.285598],[-8.729506,42.286442],[-8.732017,42.286856],[-8.736269,42.282261],[-8.736644,42.275624],[-8.73535,42.274852],[-8.736822,42.275309],[-8.740714,42.272395],[-8.740774,42.27132],[-8.738411,42.270926],[-8.742735,42.270763],[-8.752327,42.26776],[-8.753381,42.266294],[-8.751971,42.265581],[-8.753001,42.265845],[-8.755092,42.263264],[-8.759054,42.262191],[-8.76617,42.2577],[-8.766671,42.259205],[-8.772132,42.261945],[-8.779392,42.263541],[-8.784194,42.263298],[-8.785357,42.261844],[-8.783949,42.261429],[-8.785321,42.261585],[-8.78541,42.260572],[-8.782776,42.26039],[-8.785489,42.260379],[-8.78598,42.258725],[-8.781433,42.259225],[-8.782424,42.258275],[-8.786134,42.258429],[-8.786715,42.256437],[-8.788575,42.255452],[-8.786322,42.254665],[-8.788333,42.254528],[-8.787188,42.25301],[-8.788681,42.252107],[-8.789104,42.249592],[-8.787686,42.248529],[-8.788678,42.247723],[-8.791604,42.248709],[-8.793194,42.246369],[-8.795784,42.249892],[-8.800524,42.249922],[-8.80156,42.251571],[-8.805009,42.250729],[-8.807716,42.253157],[-8.807815,42.25489],[-8.810587,42.256306],[-8.810595,42.258106],[-8.813054,42.259142],[-8.816059,42.259278],[-8.81803,42.255414],[-8.82126,42.254836],[-8.824678,42.251304],[-8.829126,42.250924],[-8.833891,42.252788],[-8.835395,42.254115],[-8.834925,42.256372],[-8.839321,42.258299],[-8.856569,42.26135],[-8.860995,42.25538],[-8.860771,42.252583],[-8.862532,42.251574],[-8.864251,42.246346],[-8.868248,42.251029],[-8.873695,42.249921],[-8.874696,42.253389],[-8.872757,42.252994],[-8.870693,42.256341],[-8.86943,42.256306],[-8.867257,42.260307],[-8.867232,42.263423],[-8.863736,42.267527],[-8.865151,42.27805],[-8.859789,42.28648],[-8.860821,42.290532],[-8.859009,42.293731],[-8.858207,42.300361],[-8.860153,42.304466],[-8.858311,42.308386],[-8.855698,42.309501],[-8.854224,42.30891],[-8.854637,42.306702],[-8.851201,42.30262],[-8.85039,42.299628],[-8.848417,42.29927],[-8.847238,42.297151],[-8.847805,42.292684],[-8.844106,42.291361],[-8.838139,42.291081],[-8.83819,42.287442],[-8.831739,42.283108],[-8.831779,42.278173],[-8.826643,42.277688],[-8.824151,42.275114],[-8.819945,42.276436],[-8.817551,42.278862],[-8.816389,42.277958],[-8.817218,42.278933],[-8.819827,42.280403],[-8.821966,42.280069],[-8.821459,42.28167],[-8.823152,42.282673],[-8.822282,42.283491],[-8.823663,42.286761],[-8.82079,42.288473],[-8.820374,42.291051],[-8.821199,42.295384],[-8.823722,42.297101],[-8.823213,42.3017],[-8.821878,42.303127],[-8.819792,42.302603],[-8.819843,42.305904],[-8.817832,42.306988],[-8.820042,42.311079],[-8.818738,42.313765],[-8.820093,42.314516],[-8.824247,42.314061],[-8.822638,42.315412],[-8.824002,42.32006],[-8.827153,42.320556],[-8.825477,42.322496],[-8.827298,42.323303],[-8.826248,42.324671],[-8.82723,42.327151],[-8.828336,42.326653],[-8.827621,42.327311],[-8.829649,42.328387],[-8.826832,42.330061],[-8.826568,42.331658],[-8.82781,42.331973],[-8.826931,42.33335],[-8.827799,42.333954],[-8.832542,42.332893],[-8.834763,42.334211],[-8.834736,42.337318],[-8.837952,42.337586],[-8.838517,42.338574],[-8.837023,42.340784],[-8.833897,42.342141],[-8.829813,42.340621],[-8.825776,42.341583],[-8.823696,42.338115],[-8.81865,42.337481],[-8.810194,42.33946],[-8.806324,42.338414],[-8.800882,42.339141],[-8.798644,42.337238],[-8.800809,42.333086],[-8.79988,42.331693],[-8.792713,42.327114],[-8.78763,42.327246],[-8.78777,42.329165],[-8.785344,42.329702],[-8.787583,42.329111],[-8.786869,42.327023],[-8.786573,42.328028],[-8.786239,42.327163],[-8.784614,42.327569],[-8.785053,42.32878],[-8.783394,42.327757],[-8.777779,42.331075],[-8.776975,42.330512],[-8.771642,42.332294],[-8.768343,42.337457],[-8.768043,42.336572],[-8.764681,42.337093],[-8.761959,42.340489],[-8.755573,42.34045],[-8.75327,42.343789],[-8.752925,42.350234],[-8.750985,42.351052],[-8.747608,42.356731],[-8.747168,42.360408],[-8.745601,42.36172],[-8.746545,42.365147],[-8.745249,42.367562],[-8.741195,42.368639],[-8.737184,42.375763],[-8.735535,42.374054],[-8.730953,42.375995],[-8.72666,42.382043],[-8.72624,42.385161],[-8.721322,42.385164],[-8.719729,42.388602],[-8.71621,42.389696],[-8.715001,42.392295],[-8.710095,42.394701],[-8.711101,42.39601],[-8.705714,42.399007],[-8.707079,42.395851],[-8.703865,42.394706],[-8.70496,42.395921],[-8.703127,42.39594],[-8.701919,42.399214],[-8.702653,42.394596],[-8.698375,42.393495],[-8.694467,42.394995],[-8.693246,42.396658],[-8.694266,42.397462],[-8.693085,42.397431],[-8.694458,42.397975],[-8.693013,42.397579],[-8.69314,42.399103],[-8.69167,42.400445],[-8.693046,42.401286],[-8.697428,42.39978],[-8.692938,42.401841],[-8.686782,42.4032],[-8.686389,42.402482],[-8.685448,42.407777],[-8.683085,42.407174],[-8.665613,42.421122],[-8.655909,42.424393],[-8.653667,42.427295],[-8.654805,42.43183],[-8.657477,42.43195],[-8.655651,42.429619],[-8.656724,42.425884],[-8.658936,42.428178],[-8.658662,42.42595],[-8.660471,42.425671],[-8.662173,42.42366],[-8.663662,42.425486],[-8.668147,42.424282],[-8.669921,42.425634],[-8.672961,42.424313],[-8.671933,42.422348],[-8.673214,42.420799],[-8.681617,42.420741],[-8.685832,42.424088],[-8.686141,42.427889],[-8.688502,42.429545],[-8.687289,42.432918],[-8.688925,42.439156],[-8.690371,42.439957],[-8.697367,42.434829],[-8.703911,42.433557],[-8.705659,42.430598],[-8.704691,42.42998],[-8.707704,42.428506],[-8.70865,42.425947],[-8.714965,42.421239],[-8.719496,42.42256],[-8.720582,42.421147],[-8.723549,42.420773],[-8.726843,42.417466],[-8.731051,42.416976],[-8.734898,42.413875],[-8.741659,42.413554],[-8.749524,42.403004],[-8.755198,42.402881],[-8.758445,42.401736],[-8.758787,42.39765],[-8.761402,42.395186],[-8.765074,42.393246],[-8.770879,42.394438],[-8.772336,42.389539],[-8.775842,42.387661],[-8.779694,42.391112],[-8.77854,42.392826],[-8.782068,42.395529],[-8.784504,42.395207],[-8.789108,42.397594],[-8.792523,42.396304],[-8.802012,42.40108],[-8.806838,42.399286],[-8.805063,42.398206],[-8.806919,42.397536],[-8.809215,42.400165],[-8.815158,42.400727],[-8.816782,42.399906],[-8.818265,42.396121],[-8.820269,42.398603],[-8.823639,42.39736],[-8.824029,42.394892],[-8.820609,42.394157],[-8.8229,42.393581],[-8.823668,42.390868],[-8.826438,42.391015],[-8.827235,42.386779],[-8.828404,42.386549],[-8.830396,42.388779],[-8.833728,42.388834],[-8.836425,42.385185],[-8.83949,42.384065],[-8.841504,42.386393],[-8.843252,42.386646],[-8.841978,42.389789],[-8.843974,42.391011],[-8.845696,42.390211],[-8.846752,42.39085],[-8.847193,42.394546],[-8.84981,42.39695],[-8.854404,42.398416],[-8.856567,42.396352],[-8.85857,42.396987],[-8.859979,42.399463],[-8.859405,42.403723],[-8.864709,42.410697],[-8.869496,42.41344],[-8.876359,42.414987],[-8.881236,42.414268],[-8.879966,42.418348],[-8.880813,42.419601],[-8.878271,42.420614],[-8.88123,42.421722],[-8.882636,42.423756],[-8.876731,42.423492],[-8.87776,42.425141],[-8.875908,42.425866],[-8.87557,42.428215],[-8.878995,42.429884],[-8.874297,42.431098],[-8.876294,42.433354],[-8.872354,42.43371],[-8.872124,42.43554],[-8.8739,42.435809],[-8.873002,42.438807],[-8.876305,42.446946],[-8.881979,42.453658],[-8.887339,42.457531],[-8.894557,42.458266],[-8.89908,42.460985],[-8.904455,42.46023],[-8.91276,42.462177],[-8.919969,42.458698],[-8.920353,42.456329],[-8.924988,42.452641],[-8.924109,42.451705],[-8.926894,42.450814],[-8.929976,42.451662],[-8.932408,42.454497],[-8.934303,42.452805],[-8.940298,42.461936],[-8.942577,42.461476],[-8.943418,42.463808],[-8.944939,42.463432],[-8.944241,42.46454],[-8.94241,42.464077],[-8.942429,42.465174],[-8.940833,42.465131],[-8.939875,42.467594],[-8.936773,42.469375],[-8.936547,42.472123],[-8.940325,42.475546],[-8.937546,42.477905],[-8.938461,42.47999],[-8.935676,42.478317],[-8.92767,42.477508],[-8.92399,42.478456],[-8.92262,42.477086],[-8.919171,42.478552],[-8.918404,42.476486],[-8.914364,42.475165],[-8.90928,42.475545],[-8.900809,42.479719],[-8.896805,42.480196],[-8.894312,42.48253],[-8.893263,42.486112],[-8.89088,42.486506],[-8.889761,42.485339],[-8.89045,42.481163],[-8.887529,42.486048],[-8.883926,42.487953],[-8.886302,42.491098],[-8.885946,42.492494],[-8.889413,42.490038],[-8.890953,42.490508],[-8.892848,42.493065],[-8.890641,42.495331],[-8.885237,42.497104],[-8.884284,42.498746],[-8.878868,42.497936],[-8.874132,42.499449],[-8.871619,42.501576],[-8.871162,42.499556],[-8.874059,42.495303],[-8.870846,42.496062],[-8.870365,42.498067],[-8.867757,42.49893],[-8.864462,42.497128],[-8.864784,42.496148],[-8.85974,42.494634],[-8.857546,42.487572],[-8.861234,42.483188],[-8.859625,42.482505],[-8.859753,42.479195],[-8.857576,42.476327],[-8.860427,42.474317],[-8.856575,42.472391],[-8.85809,42.469999],[-8.863184,42.470125],[-8.866408,42.464693],[-8.869941,42.465286],[-8.872936,42.461963],[-8.872942,42.454636],[-8.869402,42.447994],[-8.859012,42.451012],[-8.855931,42.453286],[-8.855418,42.457291],[-8.851634,42.458295],[-8.852741,42.455312],[-8.850419,42.455314],[-8.849204,42.457015],[-8.850979,42.45831],[-8.849158,42.46042],[-8.848014,42.460668],[-8.846107,42.457561],[-8.843978,42.457282],[-8.845448,42.455974],[-8.844704,42.45504],[-8.842699,42.455566],[-8.842397,42.454798],[-8.841169,42.457282],[-8.839964,42.457389],[-8.840541,42.461104],[-8.837557,42.4587],[-8.837107,42.455689],[-8.832836,42.459436],[-8.828516,42.457559],[-8.827651,42.45349],[-8.823794,42.453056],[-8.820596,42.451743],[-8.81972,42.454092],[-8.821943,42.455905],[-8.820265,42.458772],[-8.822445,42.459075],[-8.823191,42.462008],[-8.823669,42.465701],[-8.821637,42.467515],[-8.826741,42.468794],[-8.827172,42.469772],[-8.831068,42.469168],[-8.834112,42.470128],[-8.831241,42.470896],[-8.827315,42.474445],[-8.827997,42.478236],[-8.831111,42.479419],[-8.832297,42.481969],[-8.831644,42.484883],[-8.829733,42.48787],[-8.827522,42.488289],[-8.828331,42.490966],[-8.825484,42.495792],[-8.824839,42.493827],[-8.82382,42.494644],[-8.82358,42.493369],[-8.819376,42.491855],[-8.819405,42.489549],[-8.817878,42.491958],[-8.814266,42.493663],[-8.814659,42.491357],[-8.812367,42.494174],[-8.810565,42.492843],[-8.809123,42.493565],[-8.807881,42.497868],[-8.804431,42.500024],[-8.806639,42.501658],[-8.809105,42.502271],[-8.811516,42.501248],[-8.81334,42.497572],[-8.815285,42.50201],[-8.819057,42.502151],[-8.816832,42.506216],[-8.819945,42.507903],[-8.821644,42.506547],[-8.822419,42.507156],[-8.820076,42.508779],[-8.820674,42.512718],[-8.819361,42.509076],[-8.817043,42.509662],[-8.816988,42.513383],[-8.820854,42.514005],[-8.820277,42.515259],[-8.817421,42.514378],[-8.816155,42.515289],[-8.817861,42.519496],[-8.817102,42.522064],[-8.814176,42.522267],[-8.813826,42.524787],[-8.816658,42.525399],[-8.812038,42.527543],[-8.813565,42.527996],[-8.813597,42.530434],[-8.817609,42.525414],[-8.828486,42.519899],[-8.828599,42.517724],[-8.830549,42.520883],[-8.829468,42.520515],[-8.829554,42.52196],[-8.827749,42.522835],[-8.828547,42.524604],[-8.82677,42.526693],[-8.828767,42.529697],[-8.827484,42.530816],[-8.828445,42.534727],[-8.827559,42.536978],[-8.829201,42.536831],[-8.828128,42.538245],[-8.829465,42.539131],[-8.825906,42.538827],[-8.827089,42.541197],[-8.830102,42.54387],[-8.83198,42.544035],[-8.834405,42.550185],[-8.839931,42.550947],[-8.837494,42.553277],[-8.838485,42.554631],[-8.835692,42.556664],[-8.837454,42.558959],[-8.835331,42.559176],[-8.834548,42.560836],[-8.830863,42.561277],[-8.82975,42.558741],[-8.825849,42.557257],[-8.827089,42.55398],[-8.824935,42.551902],[-8.82119,42.555478],[-8.820701,42.558986],[-8.819299,42.55949],[-8.820577,42.562224],[-8.82527,42.559672],[-8.827241,42.561083],[-8.827914,42.559816],[-8.829007,42.561866],[-8.831486,42.562073],[-8.829932,42.563692],[-8.832868,42.564226],[-8.833532,42.563517],[-8.833041,42.564514],[-8.830301,42.564384],[-8.831859,42.564637],[-8.832234,42.565906],[-8.830394,42.568241],[-8.831476,42.575126],[-8.827597,42.576368],[-8.826693,42.578557],[-8.824738,42.578621],[-8.825194,42.58011],[-8.823721,42.578295],[-8.819934,42.577263],[-8.814154,42.577459],[-8.808004,42.576287],[-8.805285,42.580845],[-8.803004,42.580673],[-8.802777,42.582683],[-8.801667,42.582392],[-8.79893,42.580222],[-8.795659,42.580019],[-8.79946,42.584219],[-8.796404,42.583978],[-8.796696,42.586718],[-8.795053,42.585559],[-8.791207,42.585863],[-8.790658,42.588609],[-8.789589,42.587853],[-8.788611,42.588605],[-8.789749,42.589447],[-8.787253,42.591293],[-8.787762,42.592843],[-8.784971,42.592966],[-8.78453,42.593988],[-8.78597,42.599658],[-8.784021,42.595463],[-8.78217,42.595467],[-8.781287,42.594224],[-8.777058,42.593691],[-8.774915,42.59659],[-8.775506,42.593499],[-8.772451,42.593537],[-8.771885,42.596374],[-8.769755,42.597841],[-8.772086,42.59802],[-8.771539,42.599479],[-8.76947,42.598323],[-8.768103,42.6004],[-8.771912,42.602053],[-8.767464,42.601134],[-8.766849,42.602255],[-8.771119,42.610069],[-8.779511,42.614226],[-8.776349,42.615088],[-8.776965,42.616471],[-8.774702,42.621248],[-8.770385,42.622673],[-8.770478,42.625648],[-8.768838,42.625442],[-8.765608,42.628216],[-8.764464,42.632577],[-8.762776,42.63331],[-8.76224,42.632257],[-8.759885,42.636193],[-8.758371,42.636827],[-8.757951,42.635975],[-8.755297,42.641294],[-8.750525,42.641634],[-8.747878,42.643477],[-8.74174,42.649367],[-8.741476,42.65642],[-8.739168,42.66101],[-8.729408,42.666686],[-8.73037,42.670769],[-8.726879,42.673654],[-8.726754,42.676667],[-8.724497,42.678257],[-8.724629,42.679952],[-8.727322,42.681113],[-8.728898,42.683644],[-8.72839,42.686613],[-8.726132,42.687663],[-8.727175,42.688259],[-8.725542,42.68934],[-8.722959,42.694286],[-8.725178,42.699684],[-8.718667,42.705987],[-8.704602,42.707006],[-8.688061,42.710721],[-8.678548,42.711618],[-8.676722,42.713806],[-8.676716,42.717479],[-8.672421,42.718575],[-8.665282,42.719677],[-8.655357,42.720484],[-8.654803,42.726732],[-8.65131,42.729137],[-8.650057,42.727476],[-8.649205,42.726406],[-8.645306,42.726086],[-8.64375,42.723885],[-8.641406,42.724019],[-8.641977,42.723181],[-8.631514,42.720231],[-8.631132,42.718846],[-8.626939,42.717441],[-8.62433,42.714239],[-8.623661,42.716162],[-8.617229,42.718874],[-8.614298,42.714544],[-8.611835,42.715655],[-8.607002,42.715136],[-8.604566,42.716813],[-8.607937,42.725479],[-8.60593,42.732059],[-8.602204,42.73596],[-8.600338,42.740174],[-8.600297,42.743102],[-8.594352,42.743817],[-8.591862,42.742345],[-8.583029,42.741229],[-8.579579,42.743477],[-8.572442,42.742062],[-8.570947,42.742963],[-8.56406,42.746251],[-8.560916,42.746738],[-8.557998,42.745655],[-8.555039,42.746709],[-8.560147,42.757092],[-8.557919,42.760045],[-8.553816,42.761289],[-8.549049,42.760719],[-8.546401,42.753655],[-8.541217,42.752512],[-8.534141,42.751784],[-8.531147,42.756151],[-8.527315,42.755373],[-8.523543,42.751982],[-8.517921,42.751128],[-8.512513,42.755008],[-8.507764,42.756138],[-8.494072,42.756582],[-8.488403,42.751615],[-8.477269,42.747396],[-8.470723,42.743668],[-8.463865,42.745824],[-8.455331,42.745719],[-8.452159,42.747428],[-8.44719,42.748151],[-8.431515,42.746161],[-8.426378,42.75223],[-8.423043,42.754315],[-8.410909,42.753162],[-8.407371,42.754194],[-8.406967,42.756283],[-8.40918,42.758969],[-8.4138,42.76137],[-8.415783,42.763788],[-8.415026,42.766587],[-8.413587,42.768303],[-8.410514,42.768368],[-8.405265,42.77165],[-8.400002,42.780668],[-8.398591,42.781167],[-8.391808,42.776662],[-8.389142,42.780857],[-8.392931,42.785917],[-8.392638,42.789154],[-8.390852,42.789977],[-8.388091,42.789009],[-8.383293,42.789496],[-8.383995,42.786186],[-8.381733,42.784483],[-8.379254,42.784087],[-8.375629,42.785266],[-8.372988,42.784265],[-8.369276,42.785439],[-8.361369,42.783614],[-8.357938,42.780678],[-8.354056,42.779032],[-8.348182,42.783899],[-8.348192,42.788832],[-8.337796,42.794279],[-8.332001,42.794415],[-8.333943,42.799933],[-8.332724,42.801808],[-8.330576,42.811082],[-8.331569,42.814799],[-8.334639,42.817789],[-8.330335,42.822617],[-8.330812,42.827303],[-8.334498,42.830192],[-8.342198,42.828004],[-8.346405,42.832245],[-8.346002,42.835928],[-8.340047,42.840627],[-8.335395,42.83917],[-8.332245,42.842081],[-8.330116,42.842073],[-8.327929,42.837142],[-8.327915,42.832291],[-8.325654,42.831172],[-8.321901,42.834327],[-8.321837,42.839272],[-8.319364,42.843223],[-8.315466,42.845835],[-8.314484,42.841811],[-8.310952,42.838861],[-8.312326,42.833926],[-8.310692,42.830428],[-8.30626,42.82995],[-8.303263,42.8318],[-8.297963,42.831047],[-8.29336,42.828848],[-8.299383,42.824634],[-8.299955,42.818891],[-8.288924,42.817881],[-8.28659,42.814892],[-8.282728,42.813486],[-8.281837,42.811358],[-8.27984,42.810883],[-8.275728,42.811695],[-8.274529,42.812983],[-8.277211,42.816469],[-8.277247,42.821626],[-8.270673,42.826143],[-8.263907,42.828697],[-8.263056,42.832202],[-8.254936,42.836691],[-8.246351,42.833395],[-8.248288,42.829128],[-8.246115,42.82759],[-8.242143,42.82878],[-8.238629,42.832345],[-8.235552,42.832837],[-8.233322,42.831931],[-8.233178,42.828922],[-8.226105,42.825555],[-8.211603,42.823553],[-8.20764,42.825147],[-8.206392,42.826455],[-8.206363,42.832209],[-8.213212,42.834084],[-8.21661,42.840582],[-8.22172,42.842419],[-8.22083,42.84463],[-8.215326,42.846241],[-8.21176,42.846034],[-8.207066,42.842881],[-8.202915,42.845015],[-8.198806,42.851288],[-8.188059,42.8578],[-8.183226,42.860144],[-8.180297,42.857757],[-8.175668,42.858291],[-8.173795,42.856827],[-8.171323,42.85711],[-8.166024,42.855351],[-8.164261,42.851677],[-8.1613,42.850073],[-8.155925,42.850469],[-8.151658,42.846539],[-8.149405,42.846226],[-8.145903,42.847951],[-8.141447,42.847035],[-8.139844,42.846009],[-8.140486,42.843873],[-8.139431,42.843102],[-8.135465,42.843217],[-8.126752,42.849974],[-8.120982,42.850476],[-8.119806,42.849286],[-8.1212,42.84646],[-8.118837,42.842163],[-8.11586,42.841522],[-8.111779,42.847053],[-8.104854,42.845121],[-8.105455,42.84811],[-8.103907,42.849665],[-8.100941,42.847231],[-8.096623,42.850359],[-8.092076,42.851147],[-8.089222,42.853642],[-8.083878,42.854718],[-8.082321,42.853644],[-8.07215,42.852421],[-8.071949,42.849964],[-8.06839,42.845512],[-8.060807,42.843292],[-8.061121,42.840703],[-8.065304,42.840392],[-8.065115,42.837636],[-8.063501,42.836159],[-8.055103,42.837278],[-8.055006,42.832943],[-8.047192,42.83147],[-8.043649,42.833473],[-8.041876,42.837989],[-8.034913,42.838261],[-8.031024,42.84053],[-8.029747,42.843629],[-8.024674,42.847147],[-8.016442,42.847014],[-8.013959,42.850193],[-8.010665,42.848501],[-8.005955,42.849563],[-8.0001,42.848883],[-7.997452,42.84746],[-7.997208,42.846102],[-7.992046,42.846868],[-7.983469,42.842318],[-7.980122,42.844355],[-7.978672,42.84747],[-7.969244,42.849663],[-7.964767,42.842214],[-7.956412,42.83975],[-7.971197,42.827989],[-7.975946,42.817231],[-7.980852,42.811327],[-7.982297,42.806348],[-7.981199,42.799842],[-7.982347,42.787962],[-7.978778,42.778692],[-7.967932,42.771449],[-7.952819,42.753901],[-7.948612,42.753228],[-7.941469,42.748055],[-7.935737,42.739732],[-7.92155,42.734879],[-7.902597,42.733344],[-7.897842,42.73173],[-7.888944,42.726367],[-7.873234,42.720214],[-7.866395,42.720636],[-7.866711,42.713326],[-7.861432,42.706196],[-7.866688,42.698485],[-7.869673,42.698146],[-7.874189,42.699394],[-7.876373,42.696888],[-7.877206,42.693666],[-7.874655,42.691326],[-7.875102,42.689609],[-7.88768,42.686394],[-7.890079,42.683698],[-7.890262,42.679972],[-7.89188,42.67975],[-7.892972,42.67765],[-7.892468,42.670469],[-7.887883,42.66087],[-7.890072,42.656284],[-7.889263,42.652186],[-7.893777,42.63839],[-7.892917,42.629621],[-7.89685,42.62505],[-7.899327,42.61965],[-7.901982,42.618384],[-7.904629,42.611575],[-7.907819,42.604116],[-7.912722,42.600907],[-7.914037,42.596871],[-7.913103,42.591663],[-7.919639,42.584314],[-7.931114,42.578589],[-7.944852,42.573935],[-7.949615,42.570857],[-7.957852,42.569365],[-7.961591,42.567213],[-7.965257,42.566604],[-7.973607,42.566385],[-7.986702,42.571288],[-7.989653,42.572248],[-7.992851,42.572487],[-8.001024,42.566547],[-8.00316,42.56143],[-8.002815,42.558645],[-8.012215,42.551949],[-8.013773,42.544814],[-8.016769,42.542702],[-8.018994,42.542208],[-8.027965,42.544001],[-8.031793,42.545579],[-8.035163,42.550679],[-8.03902,42.551707],[-8.041709,42.550922],[-8.0488,42.554894],[-8.053063,42.550996],[-8.055919,42.550924],[-8.059743,42.548675],[-8.065187,42.552305],[-8.077917,42.553262],[-8.08982,42.557683],[-8.092374,42.557192],[-8.095827,42.553689],[-8.111855,42.555817],[-8.113336,42.554563],[-8.130182,42.552403],[-8.136015,42.554338],[-8.1472,42.548658],[-8.149719,42.550408],[-8.157101,42.555468],[-8.162047,42.557405],[-8.166228,42.565111],[-8.174225,42.571961],[-8.179142,42.569424],[-8.180757,42.567163],[-8.186835,42.565114],[-8.188695,42.56214],[-8.184679,42.556893],[-8.19046,42.555541],[-8.195632,42.552426],[-8.19971,42.551826],[-8.204149,42.548689],[-8.204845,42.545497],[-8.20727,42.543046],[-8.217946,42.533844],[-8.22677,42.538492],[-8.23576,42.538845],[-8.239589,42.538346],[-8.246142,42.533462],[-8.248903,42.533435],[-8.250955,42.53091],[-8.264098,42.525669],[-8.267307,42.520992],[-8.271732,42.520653],[-8.27298,42.515248],[-8.275015,42.513687],[-8.275127,42.508379],[-8.284934,42.506071],[-8.286708,42.503739],[-8.288917,42.503105],[-8.291739,42.496043],[-8.303093,42.490196],[-8.312672,42.495431],[-8.316733,42.49454],[-8.3232,42.494914],[-8.33462,42.491168],[-8.340855,42.492389],[-8.340915,42.48739],[-8.342437,42.48442],[-8.352985,42.480748],[-8.366708,42.487334],[-8.348343,42.468839],[-8.342563,42.465932],[-8.340837,42.459954],[-8.339393,42.45742],[-8.340722,42.455179],[-8.339857,42.452879],[-8.336207,42.44799],[-8.339544,42.441352],[-8.338626,42.433419],[-8.330659,42.420611],[-8.317506,42.382818],[-8.315067,42.380969],[-8.31761,42.375287],[-8.324864,42.369197],[-8.323338,42.365802],[-8.323292,42.363815],[-8.317823,42.356282],[-8.320931,42.352419],[-8.325426,42.35203],[-8.325734,42.349513],[-8.325064,42.345034],[-8.317099,42.343406],[-8.311572,42.34378],[-8.305596,42.33997],[-8.303338,42.334925],[-8.291811,42.326979],[-8.289135,42.322133],[-8.285262,42.32008],[-8.285167,42.317645],[-8.28195,42.316452],[-8.278047,42.317505],[-8.273275,42.314413],[-8.262307,42.314963],[-8.261922,42.308895],[-8.264162,42.302175],[-8.266836,42.298757],[-8.267743,42.287264],[-8.270719,42.282985],[-8.273265,42.2824],[-8.268329,42.271932],[-8.268959,42.263512],[-8.264942,42.252849],[-8.260739,42.252286],[-8.258188,42.249451],[-8.250827,42.245297],[-8.242027,42.244971],[-8.239609,42.23977],[-8.235221,42.235515],[-8.23305,42.233427],[-8.223354,42.233231],[-8.21248,42.235789],[-8.207571,42.241927],[-8.203809,42.244502],[-8.188063,42.24456],[-8.184016,42.243384],[-8.168598,42.246126],[-8.165388,42.245992],[-8.162205,42.244101],[-8.160192,42.245119],[-8.170114,42.239476],[-8.173033,42.235176],[-8.172109,42.231149],[-8.162706,42.227252],[-8.164967,42.221424],[-8.167279,42.220077],[-8.174083,42.22004],[-8.18347,42.216941],[-8.19066,42.212915],[-8.192624,42.209107],[-8.189806,42.207525],[-8.184869,42.210377],[-8.180047,42.209903],[-8.179735,42.207576],[-8.175138,42.203778],[-8.17486,42.202161],[-8.177869,42.194994],[-8.176406,42.185688],[-8.174911,42.183838],[-8.162111,42.181409],[-8.161629,42.178613],[-8.166693,42.172731],[-8.1719,42.172469],[-8.174668,42.171101],[-8.176404,42.16436],[-8.182021,42.157723],[-8.185759,42.156527],[-8.190223,42.156964],[-8.199401,42.154395],[-8.202469,42.153149],[-8.201474,42.148395],[-8.207885,42.140883],[-8.219185,42.138118],[-8.223497,42.133347],[-8.232508,42.133197],[-8.241357,42.138851],[-8.244249,42.139447],[-8.253777,42.136777],[-8.256932,42.13413],[-8.256567,42.12725],[-8.259581,42.121008],[-8.263433,42.120219],[-8.269977,42.122852],[-8.274729,42.123281],[-8.289534,42.114342],[-8.290864,42.11158],[-8.295124,42.110915],[-8.296782,42.107885],[-8.300599,42.10553],[-8.304179,42.104103],[-8.313348,42.103156],[-8.317302,42.104611],[-8.320118,42.102436],[-8.322784,42.101934],[-8.325516,42.097044],[-8.325773,42.090163],[-8.332257,42.08419],[-8.343482,42.085304],[-8.354076,42.090409],[-8.363851,42.09023],[-8.370369,42.088988],[-8.381401,42.077261],[-8.384557,42.077437],[-8.390571,42.075398],[-8.39383,42.080475],[-8.404763,42.080427],[-8.414414,42.076415],[-8.419483,42.073078],[-8.428653,42.07222],[-8.432465,42.073561],[-8.434775,42.077403],[-8.441017,42.081986],[-8.443719,42.082919],[-8.454301,42.082865],[-8.460196,42.081576],[-8.474521,42.080927],[-8.486557,42.082043],[-8.501557,42.078442],[-8.511782,42.078463],[-8.514211,42.07749],[-8.523912,42.078436],[-8.527875,42.077605],[-8.529258,42.073919],[-8.525862,42.064469],[-8.543886,42.055594],[-8.555633,42.05289],[-8.55769,42.051278],[-8.564764,42.052338],[-8.573073,42.051493],[-8.594821,42.05513],[-8.630529,42.049966],[-8.640722,42.044639],[-8.64541,42.037458],[-8.65722,42.031752],[-8.659599,42.027277],[-8.658695,42.021732],[-8.661125,42.006173],[-8.663861,42.002193],[-8.680807,41.990037],[-8.687799,41.989825],[-8.699672,41.983347],[-8.718681,41.978302],[-8.731871,41.972844],[-8.74448,41.965244],[-8.748357,41.959693],[-8.745939,41.950929],[-8.748633,41.941891],[-8.757566,41.933457],[-8.773819,41.925887],[-8.787619,41.917484],[-8.818916,41.906472],[-8.830834,41.900663],[-8.837526,41.893462],[-8.838365,41.887352],[-8.845194,41.883124],[-8.850996,41.877292],[-8.858887,41.874818],[-8.863582,41.87203]]],[[[-8.939467,42.346028],[-8.939104,42.347577],[-8.93646,42.349389],[-8.933958,42.348862],[-8.93358,42.345362],[-8.934559,42.343654],[-8.93635,42.344119],[-8.939094,42.342978],[-8.938059,42.344868],[-8.938106,42.346387],[-8.939467,42.346028]]],[[[-8.936043,42.365794],[-8.937155,42.357013],[-8.939709,42.355134],[-8.942159,42.357815],[-8.945795,42.354682],[-8.945221,42.355802],[-8.947176,42.356708],[-8.945425,42.358852],[-8.949331,42.361268],[-8.946201,42.363339],[-8.947835,42.364181],[-8.947979,42.366217],[-8.945155,42.369083],[-8.940469,42.367031],[-8.940887,42.369143],[-8.939356,42.370663],[-8.940977,42.371118],[-8.941438,42.373813],[-8.945068,42.37727],[-8.944436,42.378806],[-8.946447,42.379403],[-8.946596,42.380719],[-8.942622,42.383113],[-8.941484,42.386872],[-8.939915,42.387098],[-8.938372,42.38581],[-8.934941,42.387788],[-8.934859,42.392059],[-8.931897,42.393744],[-8.933166,42.394065],[-8.932166,42.39454],[-8.932912,42.398444],[-8.930688,42.395985],[-8.929341,42.395353],[-8.928194,42.39633],[-8.925978,42.394591],[-8.924519,42.398564],[-8.922458,42.39976],[-8.920938,42.399227],[-8.920585,42.396131],[-8.923197,42.391765],[-8.928202,42.387535],[-8.92977,42.380351],[-8.933377,42.375096],[-8.933129,42.370671],[-8.936043,42.365794]]],[[[-8.845523,42.489844],[-8.846191,42.487109],[-8.844485,42.485378],[-8.84798,42.481392],[-8.853118,42.483019],[-8.853485,42.488887],[-8.851784,42.491765],[-8.846332,42.494862],[-8.846925,42.497037],[-8.844945,42.497984],[-8.846942,42.49917],[-8.846661,42.500327],[-8.842493,42.500378],[-8.842391,42.498115],[-8.843935,42.49746],[-8.840929,42.494967],[-8.841393,42.492639],[-8.842612,42.489417],[-8.843393,42.49061],[-8.845523,42.489844]]],[[[-8.902329,42.54105],[-8.902379,42.542353],[-8.899988,42.543971],[-8.89877,42.54371],[-8.899048,42.542399],[-8.898457,42.541169],[-8.901581,42.539568],[-8.901629,42.537243],[-8.904918,42.539845],[-8.904616,42.541292],[-8.90355,42.540447],[-8.902329,42.54105]]],[[[-8.915665,42.54767],[-8.914787,42.546113],[-8.912121,42.545468],[-8.912277,42.544028],[-8.913585,42.544735],[-8.91555,42.54376],[-8.916738,42.544607],[-8.91742,42.547426],[-8.915665,42.54767]]],[[[-8.856702,42.566976],[-8.855496,42.56476],[-8.860557,42.562637],[-8.857276,42.557386],[-8.85977,42.556196],[-8.859674,42.554275],[-8.861118,42.555128],[-8.862724,42.55356],[-8.860966,42.54923],[-8.85381,42.547176],[-8.852337,42.545748],[-8.85867,42.545909],[-8.863655,42.544159],[-8.864347,42.544781],[-8.86726,42.541976],[-8.866354,42.530122],[-8.8643,42.52704],[-8.865426,42.524516],[-8.867689,42.527235],[-8.869695,42.526817],[-8.868251,42.524794],[-8.870628,42.525869],[-8.872398,42.524113],[-8.873148,42.525875],[-8.874812,42.52416],[-8.875707,42.526175],[-8.873996,42.527136],[-8.876218,42.529533],[-8.876842,42.528403],[-8.877123,42.529973],[-8.877662,42.52846],[-8.879248,42.529396],[-8.879655,42.528294],[-8.880477,42.52953],[-8.882956,42.529745],[-8.881779,42.530561],[-8.882487,42.533937],[-8.878602,42.535334],[-8.878003,42.531953],[-8.876284,42.534247],[-8.875776,42.532473],[-8.874333,42.533438],[-8.871568,42.532113],[-8.872443,42.535336],[-8.871235,42.535434],[-8.872511,42.537223],[-8.876474,42.537694],[-8.880551,42.540788],[-8.877774,42.546458],[-8.876721,42.544838],[-8.875846,42.546026],[-8.875585,42.544671],[-8.873242,42.545647],[-8.872907,42.54687],[-8.87563,42.547864],[-8.874125,42.549859],[-8.875916,42.551288],[-8.875248,42.552988],[-8.873619,42.55354],[-8.873317,42.552655],[-8.872187,42.553839],[-8.872783,42.555653],[-8.869938,42.556079],[-8.870653,42.561092],[-8.872832,42.559792],[-8.872266,42.56271],[-8.87457,42.563249],[-8.874916,42.561881],[-8.876311,42.562214],[-8.877293,42.558032],[-8.881927,42.557712],[-8.885359,42.560668],[-8.887752,42.561121],[-8.888092,42.563561],[-8.892396,42.568263],[-8.891579,42.569151],[-8.888897,42.567705],[-8.885698,42.569031],[-8.883962,42.570255],[-8.884943,42.573292],[-8.884105,42.572417],[-8.881598,42.572564],[-8.87704,42.575121],[-8.874977,42.573265],[-8.874894,42.566824],[-8.871321,42.564055],[-8.868537,42.563586],[-8.868548,42.564864],[-8.867168,42.564044],[-8.863704,42.565545],[-8.863278,42.568528],[-8.856702,42.566976]]],[[[-8.789117,42.620284],[-8.78722,42.621244],[-8.784752,42.620262],[-8.781281,42.6224],[-8.781753,42.624456],[-8.780456,42.624936],[-8.781313,42.623533],[-8.778468,42.620589],[-8.779246,42.617678],[-8.782711,42.617053],[-8.786026,42.613905],[-8.790713,42.614631],[-8.79135,42.616507],[-8.789117,42.620284]]],[[[-8.706618,42.410025],[-8.708538,42.407625],[-8.711947,42.409975],[-8.712781,42.412607],[-8.711113,42.414158],[-8.708969,42.414769],[-8.707294,42.413979],[-8.705647,42.411631],[-8.706618,42.410025]]]]}}
]
}
