{
"type": "FeatureCollection",
"name": "cod_prov_22",
"crs": { "type": "name", "properties": { "name": "urn:ogc:def:crs:OGC:1.3:CRS84" } },
"xy_coordinate_resolution": 1e-15,
"features": [
{"type":"Feature","properties":{"fid":41,"cod_ccaa":"02","provincia":"Huesca","cod_prov":"22"},"geometry":{"type":"MultiPolygon","coordinates":[[[[-0.522836,41.842518],[-0.522538,41.844646],[-0.524623,41.848339],[-0.529038,41.853495],[-0.532031,41.853352],[-0.539199,41.858036],[-0.54278,41.857942],[-0.545788,41.862131],[-0.553981,41.867809],[-0.555208,41.871329],[-0.561687,41.872061],[-0.57046,41.875526],[-0.579389,41.876489],[-0.584911,41.875768],[-0.591818,41.881154],[-0.592793,41.882481],[-0.603313,41.882827],[-0.601041,41.887508],[-0.598065,41.890057],[-0.595228,41.896914],[-0.595465,41.899594],[-0.599705,41.902231],[-0.615934,41.905722],[-0.630581,41.912906],[-0.632598,41.919999],[-0.651237,41.943726],[-0.652153,41.947374],[-0.652261,41.947718],[-0.657826,41.957495],[-0.663516,41.958606],[-0.688684,41.95867],[-0.696808,41.956556],[-0.721176,41.959393],[-0.72443,41.960825],[-0.72876,41.960219],[-0.737028,41.953321],[-0.778209,41.957397],[-0.79637,41.962599],[-0.809679,41.970717],[-0.813004,41.971563],[-0.813792,41.973931],[-0.81981,41.974766],[-0.83293,41.981119],[-0.843756,41.984016],[-0.853555,41.990558],[-0.856763,41.991023],[-0.863249,41.998152],[-0.867065,41.999906],[-0.87034,42.00056],[-0.872609,41.999496],[-0.884933,42.003578],[-0.880284,42.008689],[-0.869701,42.012446],[-0.866334,42.015995],[-0.854176,42.022333],[-0.850038,42.0272],[-0.848793,42.041541],[-0.852145,42.045702],[-0.856444,42.047205],[-0.857157,42.050442],[-0.855431,42.053229],[-0.844241,42.059305],[-0.828173,42.082552],[-0.812936,42.092502],[-0.804784,42.096444],[-0.804849,42.073877],[-0.799894,42.062651],[-0.794777,42.055123],[-0.788012,42.052263],[-0.776102,42.056302],[-0.776667,42.058807],[-0.774878,42.061249],[-0.769223,42.06258],[-0.763141,42.067478],[-0.763412,42.070095],[-0.766109,42.073498],[-0.760785,42.0795],[-0.762312,42.08143],[-0.768651,42.084759],[-0.77016,42.087229],[-0.767145,42.08908],[-0.757504,42.088207],[-0.754917,42.090597],[-0.756491,42.092231],[-0.76118,42.095069],[-0.76263,42.101942],[-0.759731,42.105632],[-0.754496,42.107637],[-0.755043,42.109611],[-0.756005,42.110818],[-0.758074,42.115236],[-0.753399,42.121565],[-0.753475,42.124908],[-0.760861,42.129852],[-0.75855,42.131924],[-0.753548,42.131366],[-0.752145,42.132041],[-0.752741,42.134007],[-0.755331,42.136724],[-0.756488,42.142699],[-0.758701,42.146156],[-0.756059,42.148328],[-0.755377,42.152557],[-0.754959,42.153755],[-0.748032,42.154898],[-0.747524,42.157275],[-0.748969,42.159537],[-0.755663,42.161919],[-0.757521,42.166206],[-0.759551,42.171091],[-0.757106,42.172106],[-0.75306,42.171838],[-0.751617,42.172926],[-0.752658,42.174991],[-0.759893,42.178203],[-0.753665,42.183134],[-0.752576,42.188912],[-0.754015,42.194434],[-0.750491,42.200569],[-0.751916,42.202047],[-0.757611,42.203357],[-0.759428,42.20576],[-0.761519,42.214465],[-0.76052,42.22283],[-0.761979,42.228514],[-0.761916,42.23134],[-0.761226,42.234731],[-0.759667,42.248317],[-0.758017,42.251076],[-0.759191,42.256962],[-0.757976,42.259415],[-0.759378,42.263648],[-0.751959,42.263619],[-0.752351,42.266257],[-0.749343,42.270376],[-0.748493,42.277537],[-0.742384,42.279857],[-0.730384,42.291165],[-0.728935,42.297738],[-0.732259,42.307169],[-0.738841,42.319214],[-0.741956,42.330829],[-0.739863,42.334714],[-0.744588,42.33868],[-0.743657,42.341309],[-0.737365,42.344445],[-0.73857,42.347413],[-0.735116,42.353343],[-0.737499,42.356623],[-0.744276,42.359629],[-0.744846,42.361676],[-0.742861,42.36387],[-0.736838,42.36657],[-0.736145,42.369312],[-0.744366,42.375093],[-0.746154,42.378073],[-0.748272,42.377926],[-0.755764,42.380045],[-0.764182,42.385144],[-0.777936,42.391256],[-0.780694,42.386078],[-0.778002,42.383531],[-0.778263,42.378565],[-0.780951,42.376717],[-0.77706,42.365502],[-0.773021,42.364316],[-0.771901,42.362691],[-0.77181,42.346714],[-0.781097,42.317383],[-0.787567,42.306584],[-0.792251,42.296498],[-0.791351,42.295166],[-0.802469,42.278251],[-0.805037,42.272051],[-0.813095,42.264487],[-0.822992,42.269655],[-0.828249,42.274051],[-0.833087,42.274422],[-0.837824,42.277015],[-0.838899,42.279629],[-0.843932,42.28283],[-0.851533,42.278281],[-0.854848,42.277794],[-0.856042,42.275475],[-0.857934,42.274745],[-0.868274,42.280962],[-0.876959,42.281646],[-0.879141,42.277318],[-0.883429,42.275308],[-0.888249,42.264969],[-0.891175,42.263041],[-0.88983,42.256451],[-0.887092,42.255681],[-0.890507,42.25143],[-0.890891,42.248654],[-0.886505,42.244602],[-0.890548,42.240029],[-0.89362,42.240221],[-0.897086,42.24313],[-0.898162,42.244672],[-0.895836,42.247556],[-0.89928,42.249718],[-0.914287,42.252991],[-0.918011,42.255499],[-0.91841,42.259199],[-0.915686,42.260194],[-0.913581,42.262272],[-0.914115,42.264092],[-0.906494,42.270148],[-0.903394,42.273685],[-0.903454,42.275902],[-0.897404,42.280591],[-0.893442,42.28195],[-0.891921,42.286479],[-0.889039,42.286705],[-0.890161,42.291228],[-0.892454,42.293036],[-0.891733,42.297534],[-0.888523,42.299582],[-0.888628,42.302619],[-0.884979,42.305794],[-0.887525,42.308029],[-0.883042,42.310018],[-0.882182,42.313235],[-0.879944,42.315193],[-0.879602,42.318888],[-0.872495,42.322358],[-0.868934,42.328254],[-0.866315,42.328907],[-0.866178,42.332606],[-0.855661,42.33992],[-0.84997,42.359076],[-0.846785,42.362394],[-0.846905,42.364215],[-0.842764,42.366344],[-0.842013,42.37266],[-0.845106,42.373484],[-0.845369,42.375029],[-0.84335,42.377963],[-0.844178,42.384642],[-0.84192,42.386365],[-0.83313,42.381993],[-0.821672,42.384559],[-0.815346,42.394966],[-0.815889,42.396147],[-0.822598,42.397832],[-0.828017,42.394306],[-0.835434,42.395527],[-0.840571,42.398785],[-0.840658,42.401911],[-0.842925,42.403134],[-0.841698,42.404524],[-0.842086,42.407387],[-0.848878,42.410252],[-0.876527,42.417738],[-0.884218,42.421059],[-0.896016,42.428075],[-0.898605,42.431374],[-0.905632,42.436456],[-0.89628,42.443804],[-0.906368,42.449761],[-0.903759,42.453243],[-0.896425,42.4569],[-0.896296,42.460392],[-0.891858,42.458923],[-0.889547,42.459646],[-0.881899,42.457056],[-0.877719,42.461643],[-0.877247,42.466614],[-0.882787,42.471841],[-0.885748,42.472787],[-0.890115,42.476389],[-0.89702,42.479082],[-0.89029,42.490368],[-0.892664,42.491781],[-0.893085,42.493752],[-0.892561,42.49919],[-0.893892,42.500493],[-0.891407,42.504923],[-0.892994,42.509851],[-0.899946,42.511969],[-0.912381,42.507721],[-0.913253,42.503838],[-0.926662,42.502802],[-0.931569,42.504224],[-0.933425,42.505878],[-0.933219,42.510278],[-0.929258,42.513755],[-0.927804,42.522752],[-0.916448,42.537323],[-0.909782,42.538949],[-0.898261,42.538963],[-0.895712,42.542365],[-0.895048,42.549062],[-0.899346,42.559983],[-0.908264,42.559228],[-0.918603,42.555283],[-0.919742,42.563165],[-0.923244,42.564066],[-0.921605,42.571241],[-0.927915,42.571643],[-0.930672,42.570433],[-0.934169,42.572648],[-0.928211,42.580348],[-0.92479,42.587967],[-0.908671,42.587125],[-0.904848,42.600842],[-0.914684,42.602327],[-0.91343,42.603745],[-0.910533,42.604349],[-0.90866,42.609673],[-0.905552,42.610013],[-0.904661,42.612941],[-0.911301,42.633504],[-0.923377,42.64697],[-0.927644,42.656242],[-0.902148,42.656885],[-0.897847,42.661804],[-0.893094,42.662347],[-0.892871,42.666773],[-0.88773,42.667615],[-0.887057,42.669106],[-0.886754,42.675179],[-0.88495,42.677631],[-0.884271,42.682535],[-0.882345,42.683184],[-0.882713,42.685649],[-0.879955,42.688138],[-0.881839,42.691243],[-0.880123,42.693958],[-0.889633,42.694656],[-0.902711,42.702172],[-0.922512,42.700769],[-0.915578,42.704749],[-0.911788,42.709281],[-0.907204,42.710161],[-0.904352,42.712189],[-0.904175,42.717805],[-0.906846,42.726607],[-0.896867,42.735663],[-0.900961,42.737764],[-0.901087,42.742719],[-0.899418,42.74693],[-0.901165,42.752716],[-0.900536,42.760467],[-0.897018,42.760798],[-0.894692,42.762718],[-0.890485,42.762803],[-0.883566,42.761793],[-0.87596,42.758716],[-0.873311,42.758982],[-0.864839,42.763354],[-0.862947,42.768983],[-0.859545,42.768757],[-0.85226,42.781128],[-0.847534,42.78592],[-0.84991,42.792169],[-0.860008,42.798563],[-0.860394,42.80228],[-0.851442,42.807587],[-0.854953,42.823232],[-0.854406,42.828318],[-0.857253,42.833378],[-0.856769,42.847002],[-0.851125,42.848148],[-0.84129,42.852942],[-0.837355,42.861531],[-0.826925,42.867141],[-0.820153,42.867904],[-0.818535,42.869368],[-0.820001,42.872574],[-0.814718,42.876913],[-0.816337,42.878583],[-0.81644,42.88433],[-0.813634,42.888202],[-0.819243,42.88921],[-0.818738,42.891037],[-0.820458,42.893303],[-0.819096,42.90067],[-0.813332,42.904],[-0.809083,42.904296],[-0.80113,42.907845],[-0.798731,42.910896],[-0.789015,42.917111],[-0.789855,42.918622],[-0.783213,42.921727],[-0.753475,42.924496],[-0.747266,42.922375],[-0.744123,42.919207],[-0.734675,42.919587],[-0.732991,42.918411],[-0.727614,42.919319],[-0.733392,42.914475],[-0.734128,42.912445],[-0.731988,42.901003],[-0.733042,42.897989],[-0.72774,42.894624],[-0.727868,42.892466],[-0.723939,42.892406],[-0.723668,42.889456],[-0.719981,42.888158],[-0.71758,42.885841],[-0.711731,42.8854],[-0.708756,42.883737],[-0.704346,42.884117],[-0.700156,42.881539],[-0.698428,42.878956],[-0.680551,42.882917],[-0.678762,42.884574],[-0.676109,42.880549],[-0.673116,42.879731],[-0.669693,42.876978],[-0.666527,42.876518],[-0.66201,42.869366],[-0.662044,42.864594],[-0.656216,42.858811],[-0.648744,42.855101],[-0.642297,42.85341],[-0.636004,42.853145],[-0.632456,42.85119],[-0.63033,42.847256],[-0.619957,42.837901],[-0.60214,42.831946],[-0.601335,42.829984],[-0.604224,42.828055],[-0.60415,42.826486],[-0.601398,42.824889],[-0.602073,42.82041],[-0.598476,42.815382],[-0.601145,42.80583],[-0.600406,42.802492],[-0.591974,42.802323],[-0.587133,42.805112],[-0.581546,42.804454],[-0.576551,42.808346],[-0.569221,42.806912],[-0.565611,42.802918],[-0.564715,42.799568],[-0.570463,42.790802],[-0.569689,42.783402],[-0.567519,42.781077],[-0.562733,42.782461],[-0.553163,42.780555],[-0.551077,42.777665],[-0.548777,42.786062],[-0.545617,42.789011],[-0.544157,42.792843],[-0.540788,42.793311],[-0.529708,42.791542],[-0.523149,42.798721],[-0.52347,42.80142],[-0.525421,42.80248],[-0.524719,42.805976],[-0.526265,42.809207],[-0.525248,42.81203],[-0.522337,42.812931],[-0.522205,42.814404],[-0.519229,42.815114],[-0.518336,42.81695],[-0.513888,42.818366],[-0.513356,42.821867],[-0.51095,42.824534],[-0.505497,42.827197],[-0.501774,42.827584],[-0.499694,42.825477],[-0.498551,42.820454],[-0.492894,42.816666],[-0.486575,42.816563],[-0.483382,42.815358],[-0.480099,42.812774],[-0.478586,42.809679],[-0.466779,42.806798],[-0.461429,42.804239],[-0.452674,42.803621],[-0.444953,42.796029],[-0.440512,42.795489],[-0.439639,42.79709],[-0.434349,42.799043],[-0.430318,42.798934],[-0.426686,42.802193],[-0.416491,42.806511],[-0.414596,42.805334],[-0.405194,42.806156],[-0.394308,42.802109],[-0.392558,42.800115],[-0.385675,42.80094],[-0.384855,42.8059],[-0.38292,42.808567],[-0.365304,42.815888],[-0.364299,42.821124],[-0.360728,42.822536],[-0.356122,42.82813],[-0.355808,42.830329],[-0.347561,42.835208],[-0.346504,42.837335],[-0.343593,42.837295],[-0.342182,42.835119],[-0.335211,42.837604],[-0.330677,42.834077],[-0.327054,42.834947],[-0.324946,42.834186],[-0.323005,42.836365],[-0.32124,42.836134],[-0.321444,42.839057],[-0.319654,42.841986],[-0.317072,42.842817],[-0.315981,42.845421],[-0.312432,42.847679],[-0.306406,42.841315],[-0.302333,42.840994],[-0.298114,42.838697],[-0.290434,42.838894],[-0.288809,42.837712],[-0.27899,42.836461],[-0.276722,42.837956],[-0.274509,42.833185],[-0.274984,42.829621],[-0.272908,42.827312],[-0.269106,42.825852],[-0.263085,42.825357],[-0.260873,42.824197],[-0.259943,42.821707],[-0.254105,42.819307],[-0.245689,42.820951],[-0.245047,42.822745],[-0.24291,42.823207],[-0.241849,42.822029],[-0.242885,42.820757],[-0.238454,42.818336],[-0.23736,42.814627],[-0.238719,42.813489],[-0.238915,42.80991],[-0.237411,42.807713],[-0.234094,42.807497],[-0.232016,42.805817],[-0.227628,42.804676],[-0.225725,42.801847],[-0.223249,42.800886],[-0.219757,42.802404],[-0.214536,42.795848],[-0.208409,42.797221],[-0.198855,42.7957],[-0.193842,42.791363],[-0.191324,42.791625],[-0.189834,42.790517],[-0.189669,42.787136],[-0.183317,42.787565],[-0.177978,42.785326],[-0.167836,42.791109],[-0.163585,42.796118],[-0.159573,42.797748],[-0.15405,42.792865],[-0.155258,42.786781],[-0.159523,42.780674],[-0.147696,42.773896],[-0.15003,42.772838],[-0.150022,42.769011],[-0.140846,42.767899],[-0.126478,42.752997],[-0.122978,42.751531],[-0.12278,42.749203],[-0.118246,42.744479],[-0.116875,42.740851],[-0.117743,42.738478],[-0.109127,42.734614],[-0.108051,42.731741],[-0.11051,42.725356],[-0.106367,42.720947],[-0.099974,42.722379],[-0.096999,42.722276],[-0.094867,42.720854],[-0.088317,42.721452],[-0.07917,42.717545],[-0.072415,42.719156],[-0.068743,42.718819],[-0.06296,42.710152],[-0.065166,42.707903],[-0.063631,42.703965],[-0.064239,42.700901],[-0.061613,42.69471],[-0.054722,42.693038],[-0.048987,42.694539],[-0.043601,42.692022],[-0.032704,42.690912],[-0.026976,42.687927],[-0.022965,42.687813],[-0.014579,42.684767],[0.000723,42.685204],[0.011128,42.691135],[0.011792,42.692757],[0.013012,42.702071],[0.026585,42.701767],[0.049066,42.695641],[0.052175,42.697548],[0.05824,42.697017],[0.070398,42.703427],[0.071422,42.708847],[0.076891,42.714256],[0.083398,42.715944],[0.089829,42.716842],[0.105877,42.710294],[0.111931,42.710255],[0.121272,42.713422],[0.134089,42.715512],[0.134581,42.717768],[0.138218,42.71991],[0.150448,42.72413],[0.15633,42.724517],[0.161213,42.722555],[0.162642,42.723992],[0.162407,42.728257],[0.174621,42.734501],[0.176104,42.73699],[0.184335,42.735762],[0.191764,42.731989],[0.194768,42.732463],[0.205942,42.729576],[0.207975,42.727321],[0.211341,42.726507],[0.214331,42.723154],[0.226732,42.717375],[0.231778,42.718844],[0.237045,42.717273],[0.250016,42.718499],[0.259773,42.716168],[0.263867,42.706002],[0.267954,42.702689],[0.268838,42.699989],[0.263923,42.693088],[0.27071,42.691247],[0.275805,42.688093],[0.284511,42.680055],[0.294975,42.673365],[0.313001,42.683843],[0.318578,42.684312],[0.320869,42.683183],[0.32363,42.687506],[0.321718,42.691226],[0.323579,42.693171],[0.324078,42.696335],[0.326274,42.697469],[0.324785,42.700673],[0.325229,42.706233],[0.335955,42.709091],[0.339333,42.711063],[0.34495,42.71107],[0.351952,42.717528],[0.358521,42.720019],[0.360103,42.724204],[0.363976,42.722321],[0.370223,42.719404],[0.374471,42.714439],[0.380376,42.713882],[0.385059,42.711303],[0.392951,42.713186],[0.393368,42.706717],[0.395824,42.701611],[0.394351,42.698557],[0.396488,42.694324],[0.41297,42.695275],[0.420588,42.693084],[0.422066,42.690437],[0.434182,42.691245],[0.436259,42.689733],[0.449587,42.692375],[0.450377,42.695386],[0.456583,42.692623],[0.46221,42.693281],[0.467891,42.69491],[0.474256,42.700038],[0.485903,42.698324],[0.496809,42.692544],[0.503321,42.693533],[0.516802,42.691894],[0.519227,42.692477],[0.52105,42.698382],[0.525536,42.702151],[0.538346,42.700513],[0.545634,42.701575],[0.554145,42.699267],[0.56551,42.698211],[0.577372,42.693698],[0.579903,42.695906],[0.588775,42.695448],[0.590785,42.702768],[0.597071,42.705506],[0.603337,42.700492],[0.614851,42.697184],[0.616188,42.695827],[0.622053,42.694876],[0.628553,42.695408],[0.641506,42.692529],[0.647995,42.694321],[0.650686,42.692543],[0.660066,42.690982],[0.660675,42.687864],[0.664021,42.68438],[0.66764,42.681995],[0.671666,42.681155],[0.67375,42.679044],[0.676148,42.671088],[0.680035,42.66873],[0.680741,42.666006],[0.686237,42.664875],[0.69206,42.659581],[0.696022,42.658499],[0.696153,42.651256],[0.699271,42.645014],[0.703735,42.64152],[0.699824,42.637063],[0.701051,42.63227],[0.698764,42.629847],[0.702657,42.625014],[0.708897,42.620661],[0.718054,42.619662],[0.730043,42.615057],[0.73372,42.615189],[0.738574,42.612366],[0.741909,42.612905],[0.745432,42.61513],[0.751358,42.612325],[0.7682,42.609817],[0.76293,42.594585],[0.760915,42.59249],[0.760616,42.580849],[0.757916,42.577282],[0.759039,42.572248],[0.757505,42.568616],[0.753722,42.565877],[0.753808,42.563848],[0.750039,42.560307],[0.748463,42.556568],[0.75016,42.552785],[0.747276,42.549773],[0.742901,42.548286],[0.741315,42.543962],[0.746515,42.537462],[0.75075,42.534793],[0.743904,42.535549],[0.735758,42.540218],[0.732098,42.535601],[0.726079,42.532466],[0.721443,42.524513],[0.724087,42.520672],[0.72063,42.513086],[0.729337,42.51256],[0.732796,42.509746],[0.737376,42.508174],[0.74003,42.505143],[0.73748,42.504001],[0.733509,42.504338],[0.72996,42.497269],[0.726795,42.498056],[0.713671,42.487255],[0.708977,42.490153],[0.708352,42.492343],[0.705443,42.494392],[0.700861,42.495908],[0.699627,42.49521],[0.701165,42.490964],[0.69834,42.486383],[0.690846,42.487624],[0.695278,42.476946],[0.7047,42.464927],[0.706401,42.464692],[0.708887,42.459425],[0.706637,42.456536],[0.707795,42.453491],[0.706176,42.450383],[0.706855,42.449316],[0.711084,42.43941],[0.710504,42.436385],[0.717822,42.431249],[0.719161,42.428992],[0.726597,42.42693],[0.734727,42.416896],[0.736209,42.41402],[0.734883,42.407859],[0.728629,42.407919],[0.726307,42.40523],[0.73685,42.39925],[0.738513,42.399637],[0.740793,42.391612],[0.742107,42.391857],[0.743369,42.387944],[0.746459,42.384772],[0.744696,42.383515],[0.743414,42.379109],[0.735299,42.376161],[0.73601,42.374057],[0.734632,42.371508],[0.72586,42.370191],[0.723163,42.368748],[0.723635,42.365627],[0.725902,42.365373],[0.728857,42.363188],[0.737715,42.361863],[0.74651,42.356849],[0.749588,42.357567],[0.753752,42.356341],[0.760958,42.357059],[0.765821,42.35617],[0.76649,42.353348],[0.771669,42.350638],[0.767374,42.348835],[0.763618,42.347743],[0.75954,42.348363],[0.758118,42.346708],[0.754667,42.346632],[0.754362,42.344571],[0.749792,42.343253],[0.745122,42.337589],[0.740723,42.336868],[0.742115,42.335382],[0.74404,42.326315],[0.75028,42.326759],[0.755308,42.325009],[0.757402,42.326138],[0.759547,42.325897],[0.764986,42.322477],[0.755468,42.313434],[0.756982,42.309305],[0.745193,42.301173],[0.743372,42.289698],[0.744252,42.285725],[0.738607,42.281472],[0.739983,42.279985],[0.740128,42.269121],[0.736003,42.258828],[0.734411,42.249732],[0.727983,42.244935],[0.724748,42.240619],[0.720431,42.230476],[0.715216,42.22482],[0.714523,42.221889],[0.717884,42.219501],[0.713712,42.215504],[0.714528,42.210002],[0.708336,42.204325],[0.709773,42.19728],[0.707562,42.191778],[0.70298,42.190035],[0.703703,42.185005],[0.698951,42.17267],[0.701965,42.169556],[0.709636,42.166813],[0.714327,42.16342],[0.704035,42.158377],[0.696196,42.151994],[0.695731,42.138619],[0.698318,42.126484],[0.697978,42.126455],[0.702335,42.122405],[0.702795,42.119932],[0.699653,42.11229],[0.699911,42.106959],[0.695267,42.101337],[0.695912,42.09912],[0.685967,42.092768],[0.679595,42.076035],[0.669176,42.061151],[0.667954,42.052744],[0.668501,42.049449],[0.671491,42.04703],[0.666379,42.041755],[0.663038,42.040799],[0.659332,42.041476],[0.657106,42.040367],[0.656549,42.030453],[0.652069,42.026247],[0.657283,42.014833],[0.664245,42.01453],[0.657087,42.000883],[0.646951,41.996739],[0.644708,41.992344],[0.645701,41.987126],[0.642287,41.982066],[0.642392,41.98688],[0.638898,41.9946],[0.624131,41.991763],[0.616912,41.987202],[0.619531,41.983237],[0.617264,41.982201],[0.613574,41.976933],[0.609767,41.968075],[0.60391,41.965423],[0.604714,41.960652],[0.592956,41.968891],[0.587287,41.966772],[0.58632,41.961805],[0.578496,41.957601],[0.577235,41.955039],[0.565745,41.944357],[0.564345,41.940232],[0.561881,41.938219],[0.562441,41.932691],[0.575717,41.930729],[0.576984,41.929221],[0.602895,41.922323],[0.607488,41.919315],[0.603936,41.918103],[0.597408,41.919083],[0.594661,41.917404],[0.595946,41.914095],[0.601343,41.908539],[0.596011,41.892724],[0.595798,41.88894],[0.5931,41.886611],[0.592784,41.884415],[0.608223,41.878257],[0.607161,41.871798],[0.603406,41.86908],[0.593991,41.868114],[0.590736,41.86529],[0.586862,41.8656],[0.584599,41.863681],[0.580056,41.863453],[0.582213,41.857641],[0.580411,41.850906],[0.562147,41.853547],[0.562217,41.852203],[0.559439,41.852929],[0.557391,41.854226],[0.552461,41.849365],[0.551616,41.840655],[0.553601,41.840188],[0.553415,41.835088],[0.549328,41.826516],[0.542496,41.82041],[0.53652,41.821174],[0.52546,41.822541],[0.519845,41.820912],[0.515818,41.82235],[0.510885,41.820629],[0.502491,41.814392],[0.499305,41.806961],[0.495535,41.804483],[0.489054,41.805158],[0.483233,41.801463],[0.481765,41.797698],[0.47382,41.787187],[0.469659,41.765619],[0.46475,41.763225],[0.448018,41.764668],[0.438632,41.76132],[0.430717,41.76153],[0.423836,41.759916],[0.408368,41.759233],[0.400969,41.756688],[0.399032,41.757808],[0.398679,41.755248],[0.398608,41.755138],[0.399776,41.751627],[0.395289,41.737928],[0.395792,41.731979],[0.388418,41.73669],[0.385098,41.740309],[0.373128,41.723903],[0.369574,41.724665],[0.369014,41.71419],[0.364215,41.711351],[0.351287,41.702535],[0.342023,41.696538],[0.340973,41.693659],[0.334355,41.688125],[0.328766,41.682028],[0.327018,41.678171],[0.325673,41.671888],[0.326241,41.6622],[0.332916,41.659601],[0.349414,41.636176],[0.355391,41.634299],[0.358337,41.631718],[0.353795,41.629456],[0.349069,41.623713],[0.345816,41.621863],[0.349613,41.599464],[0.392389,41.595316],[0.402378,41.592715],[0.428849,41.602373],[0.43382,41.592949],[0.436212,41.584917],[0.431886,41.581363],[0.430491,41.577902],[0.43327,41.569011],[0.430683,41.565234],[0.440625,41.554644],[0.447278,41.542233],[0.443357,41.541081],[0.43267,41.530982],[0.426672,41.522714],[0.417775,41.516927],[0.40852,41.502929],[0.398195,41.491267],[0.395042,41.489838],[0.384354,41.485858],[0.371189,41.484633],[0.367257,41.485955],[0.349069,41.487258],[0.347672,41.487743],[0.342377,41.483998],[0.341751,41.480901],[0.345239,41.470956],[0.345018,41.462254],[0.355694,41.452676],[0.353858,41.448415],[0.348,41.442048],[0.346565,41.43113],[0.347792,41.427303],[0.342194,41.413814],[0.335316,41.408223],[0.316619,41.416923],[0.309227,41.418839],[0.245123,41.428734],[0.2441,41.428803],[0.240038,41.427972],[0.234915,41.424568],[0.230613,41.417448],[0.225249,41.414474],[0.221281,41.409957],[0.221568,41.408742],[0.219604,41.407716],[0.220859,41.406735],[0.219447,41.403569],[0.206335,41.404269],[0.199591,41.403331],[0.193682,41.400154],[0.18948,41.396164],[0.182995,41.394408],[0.176224,41.396325],[0.174059,41.402715],[0.171634,41.405466],[0.168854,41.40684],[0.164892,41.406787],[0.156895,41.39729],[0.146203,41.394809],[0.131304,41.388885],[0.121611,41.379269],[0.117993,41.368623],[0.118263,41.362762],[0.106351,41.350871],[0.10135,41.351687],[0.093713,41.34997],[0.087262,41.350522],[0.080649,41.352473],[0.079658,41.355787],[0.077595,41.352852],[0.04339,41.355717],[0.037109,41.355064],[0.020372,41.359125],[0.017232,41.360765],[0.012446,41.360041],[0.010045,41.360431],[0.008247,41.36318],[0.008622,41.365611],[0.005981,41.368238],[0.007338,41.369391],[0.005646,41.371074],[0.006613,41.372859],[0.004717,41.374008],[-0.00263,41.387916],[-0.023862,41.396782],[-0.02415,41.392617],[-0.025728,41.3921],[-0.024135,41.391104],[-0.023699,41.388859],[-0.025121,41.387842],[-0.024102,41.38633],[-0.027973,41.383512],[-0.029285,41.377818],[-0.018712,41.363495],[-0.017896,41.359646],[-0.009157,41.3508],[-0.007932,41.347805],[-0.033389,41.358038],[-0.04944,41.36046],[-0.051108,41.36641],[-0.054014,41.366647],[-0.070001,41.372963],[-0.072706,41.377157],[-0.072249,41.381477],[-0.074434,41.386081],[-0.074134,41.393819],[-0.077979,41.399842],[-0.084044,41.415325],[-0.084459,41.431438],[-0.088543,41.439377],[-0.104971,41.485479],[-0.111176,41.493525],[-0.120706,41.502554],[-0.134794,41.522386],[-0.148539,41.531401],[-0.156662,41.535295],[-0.155905,41.540247],[-0.159657,41.55121],[-0.157527,41.558227],[-0.157477,41.568376],[-0.161083,41.572833],[-0.167354,41.581111],[-0.159456,41.58532],[-0.156445,41.589974],[-0.182125,41.598055],[-0.205735,41.602261],[-0.209504,41.600578],[-0.227805,41.586468],[-0.23595,41.577217],[-0.236788,41.573859],[-0.241642,41.572535],[-0.245969,41.573738],[-0.263179,41.588496],[-0.273936,41.590589],[-0.279195,41.595036],[-0.283465,41.595363],[-0.286301,41.598393],[-0.288481,41.598192],[-0.295643,41.604233],[-0.302305,41.60792],[-0.305951,41.613733],[-0.30527,41.616248],[-0.308438,41.619718],[-0.30702,41.620927],[-0.312589,41.624102],[-0.321199,41.624303],[-0.327166,41.624262],[-0.336213,41.630146],[-0.346349,41.63093],[-0.353211,41.633367],[-0.355558,41.63234],[-0.362309,41.637818],[-0.360762,41.645123],[-0.362796,41.64825],[-0.365918,41.659741],[-0.364954,41.663628],[-0.367605,41.677855],[-0.36626,41.679914],[-0.368075,41.681937],[-0.373674,41.684001],[-0.374503,41.688118],[-0.377904,41.689582],[-0.384834,41.687561],[-0.3952,41.69239],[-0.398832,41.695588],[-0.403121,41.696217],[-0.410449,41.701354],[-0.420201,41.701798],[-0.421404,41.703573],[-0.424196,41.703482],[-0.428539,41.70548],[-0.433756,41.706353],[-0.437502,41.705527],[-0.439923,41.706617],[-0.443058,41.705741],[-0.444918,41.703684],[-0.447353,41.705638],[-0.446743,41.707381],[-0.448332,41.708839],[-0.455395,41.711662],[-0.455691,41.712695],[-0.460653,41.713372],[-0.45966,41.715089],[-0.464369,41.715148],[-0.466863,41.721732],[-0.474091,41.722549],[-0.478329,41.724858],[-0.482245,41.724313],[-0.485966,41.729699],[-0.489424,41.731666],[-0.500063,41.731088],[-0.506868,41.728912],[-0.516973,41.728456],[-0.519366,41.729372],[-0.519623,41.73144],[-0.511271,41.741589],[-0.503988,41.74615],[-0.505275,41.752663],[-0.500693,41.761317],[-0.504993,41.76459],[-0.504043,41.766433],[-0.505531,41.768069],[-0.505715,41.77263],[-0.507746,41.774863],[-0.506552,41.778349],[-0.512011,41.784357],[-0.508836,41.791466],[-0.512435,41.798281],[-0.511174,41.808457],[-0.515192,41.810697],[-0.516445,41.813174],[-0.518314,41.824616],[-0.515874,41.828562],[-0.516748,41.836776],[-0.519479,41.840572],[-0.522836,41.842518]]]]}}
]
}
