{
"type": "FeatureCollection",
"name": "cod_prov_33",
"crs": { "type": "name", "properties": { "name": "urn:ogc:def:crs:OGC:1.3:CRS84" } },
"xy_coordinate_resolution": 1e-15,
"features": [
{"type":"Feature","properties":{"fid":24,"cod_ccaa":"03","provincia":"Asturias","cod_prov":"33"},"geometry":{"type":"MultiPolygon","coordinates":[[[[-6.43364,42.964159],[-6.441613,42.947307],[-6.433472,42.939753],[-6.44161,42.939572],[-6.449535,42.935984],[-6.454868,42.934931],[-6.478589,42.933564],[-6.486125,42.929003],[-6.489771,42.920248],[-6.500122,42.922813],[-6.510578,42.928732],[-6.513424,42.92706],[-6.519691,42.925868],[-6.523203,42.923436],[-6.529426,42.923632],[-6.536949,42.92086],[-6.540762,42.915348],[-6.541236,42.912506],[-6.555179,42.912776],[-6.560391,42.914361],[-6.569063,42.914774],[-6.571169,42.917077],[-6.579398,42.918503],[-6.585544,42.918437],[-6.590294,42.916685],[-6.597865,42.918581],[-6.60347,42.91618],[-6.606504,42.916102],[-6.612927,42.924553],[-6.628582,42.919492],[-6.632218,42.923194],[-6.638783,42.925461],[-6.64675,42.923848],[-6.650899,42.925021],[-6.656938,42.924576],[-6.660642,42.922791],[-6.667189,42.924526],[-6.689904,42.922463],[-6.696994,42.918515],[-6.712785,42.91505],[-6.723191,42.917377],[-6.734536,42.90767],[-6.740592,42.899467],[-6.749222,42.894142],[-6.756667,42.883057],[-6.760473,42.88403],[-6.771866,42.882548],[-6.774108,42.883365],[-6.773356,42.886676],[-6.767943,42.890276],[-6.768284,42.895478],[-6.770668,42.898623],[-6.776926,42.901433],[-6.789768,42.904537],[-6.80104,42.910169],[-6.811657,42.91131],[-6.824536,42.91505],[-6.836163,42.916341],[-6.842241,42.928193],[-6.834998,42.94097],[-6.836458,42.957758],[-6.862349,42.979297],[-6.864671,42.983477],[-6.86876,42.983951],[-6.872139,42.988924],[-6.877962,42.989654],[-6.880975,42.991352],[-6.885077,42.989493],[-6.894137,42.987879],[-6.898883,42.989419],[-6.90332,42.98861],[-6.91069,42.990132],[-6.92242,43.001372],[-6.931249,43.004598],[-6.932943,43.008835],[-6.941007,43.011384],[-6.946069,43.02584],[-6.946923,43.032447],[-6.957474,43.036773],[-6.956336,43.034921],[-6.95838,43.033302],[-6.958306,43.029109],[-6.964818,43.02656],[-6.960769,43.022189],[-6.964257,43.019376],[-6.959886,43.015332],[-6.962401,43.012472],[-6.960064,43.007988],[-6.962579,43.005902],[-6.960112,43.003214],[-6.962444,43.000567],[-6.95741,42.998203],[-6.956443,42.996138],[-6.958793,42.995292],[-6.96176,42.996413],[-6.964525,42.995345],[-6.964237,42.99278],[-6.962266,42.993794],[-6.962325,42.990712],[-6.965076,42.992472],[-6.967016,42.991558],[-6.969101,42.992314],[-6.972525,42.994059],[-6.972938,42.996286],[-6.975465,42.99628],[-6.980001,43.004783],[-6.984148,43.004036],[-6.986224,43.009572],[-6.986059,43.014413],[-6.98895,43.014709],[-6.997541,43.019477],[-6.995336,43.026325],[-6.997291,43.027707],[-6.991581,43.030868],[-6.986896,43.029591],[-6.983498,43.035868],[-6.984279,43.038263],[-6.982283,43.041367],[-6.978615,43.038559],[-6.976208,43.031899],[-6.972844,43.03036],[-6.969364,43.032732],[-6.969518,43.035112],[-6.965009,43.034666],[-6.966458,43.037713],[-6.963715,43.044281],[-6.965224,43.049982],[-6.962401,43.052088],[-6.969008,43.056676],[-6.966281,43.061288],[-6.961583,43.061111],[-6.956413,43.063568],[-6.958532,43.066916],[-6.957728,43.06816],[-6.950815,43.068183],[-6.952387,43.071037],[-6.951225,43.072644],[-6.95219,43.076185],[-6.948475,43.077628],[-6.9451,43.077285],[-6.941307,43.079991],[-6.938506,43.086687],[-6.937577,43.084081],[-6.934571,43.081646],[-6.923738,43.081847],[-6.920614,43.079668],[-6.915965,43.073416],[-6.911455,43.078001],[-6.901395,43.083783],[-6.899455,43.088054],[-6.894361,43.091793],[-6.890668,43.090506],[-6.871719,43.091203],[-6.86561,43.101098],[-6.856929,43.106272],[-6.855977,43.108528],[-6.851002,43.109335],[-6.841279,43.115182],[-6.831425,43.120924],[-6.830833,43.122474],[-6.827977,43.123182],[-6.827585,43.130687],[-6.824293,43.137037],[-6.82504,43.140334],[-6.821926,43.143238],[-6.826714,43.145869],[-6.830164,43.151885],[-6.837122,43.157333],[-6.836438,43.158598],[-6.839091,43.166307],[-6.847051,43.16704],[-6.855916,43.17226],[-6.861824,43.182253],[-6.867379,43.181957],[-6.871713,43.179865],[-6.868571,43.185617],[-6.868246,43.190022],[-6.870214,43.187875],[-6.871624,43.188377],[-6.874655,43.186878],[-6.876988,43.17477],[-6.880364,43.170199],[-6.886273,43.166783],[-6.882149,43.160522],[-6.885406,43.156801],[-6.892839,43.154954],[-6.902146,43.155096],[-6.905852,43.149774],[-6.914304,43.146946],[-6.919444,43.140998],[-6.926973,43.140579],[-6.929441,43.141393],[-6.929597,43.142864],[-6.932942,43.14057],[-6.937316,43.139375],[-6.938635,43.132937],[-6.941563,43.131827],[-6.955346,43.134754],[-6.957652,43.13616],[-6.95745,43.140264],[-6.965092,43.148714],[-6.97347,43.14954],[-6.980773,43.166545],[-6.97405,43.178934],[-6.965118,43.187087],[-6.964471,43.190387],[-6.965858,43.194705],[-6.971019,43.20425],[-6.980919,43.203752],[-6.986366,43.202158],[-6.992748,43.208669],[-7.001445,43.207275],[-7.009584,43.222881],[-7.014202,43.223088],[-7.017001,43.222035],[-7.016936,43.214871],[-7.020054,43.21324],[-7.023684,43.215831],[-7.034099,43.22814],[-7.041248,43.228626],[-7.046571,43.231283],[-7.050662,43.237836],[-7.055501,43.241518],[-7.061593,43.244047],[-7.06529,43.249453],[-7.0716,43.267775],[-7.0705,43.275836],[-7.069129,43.275417],[-7.068891,43.276659],[-7.069708,43.279484],[-7.066428,43.279637],[-7.068235,43.283255],[-7.064682,43.288738],[-7.06561,43.295071],[-7.064365,43.300607],[-7.059786,43.305335],[-7.067633,43.306901],[-7.073938,43.305695],[-7.078604,43.30045],[-7.086163,43.300675],[-7.091087,43.299824],[-7.097497,43.301467],[-7.101276,43.304131],[-7.107228,43.314154],[-7.11216,43.316884],[-7.115229,43.326173],[-7.125657,43.33173],[-7.130749,43.330249],[-7.131649,43.334052],[-7.130128,43.340896],[-7.132788,43.347732],[-7.130325,43.350153],[-7.130998,43.351884],[-7.128277,43.355602],[-7.131574,43.362901],[-7.127531,43.3726],[-7.134364,43.377421],[-7.136672,43.382308],[-7.139014,43.383348],[-7.150452,43.379665],[-7.155554,43.37486],[-7.159556,43.374724],[-7.162935,43.380263],[-7.16722,43.379387],[-7.171862,43.383359],[-7.176719,43.382542],[-7.175401,43.386894],[-7.178639,43.388018],[-7.177039,43.391326],[-7.178043,43.392631],[-7.180535,43.391712],[-7.182477,43.392442],[-7.179043,43.397654],[-7.172902,43.401174],[-7.172837,43.403463],[-7.174574,43.405389],[-7.170131,43.403076],[-7.168548,43.403593],[-7.169046,43.40886],[-7.17139,43.409008],[-7.176805,43.414644],[-7.172652,43.41819],[-7.17212,43.421055],[-7.169788,43.422157],[-7.174752,43.42465],[-7.173393,43.430029],[-7.162002,43.432003],[-7.155575,43.429504],[-7.152183,43.428786],[-7.142029,43.430785],[-7.136953,43.427547],[-7.129891,43.425237],[-7.129468,43.423749],[-7.118907,43.426291],[-7.112712,43.425299],[-7.109329,43.42896],[-7.103161,43.426951],[-7.100726,43.429015],[-7.105191,43.432915],[-7.103174,43.433608],[-7.099017,43.432236],[-7.097493,43.432894],[-7.099674,43.439937],[-7.098303,43.441769],[-7.090997,43.445192],[-7.087021,43.443227],[-7.085935,43.443797],[-7.090561,43.44843],[-7.090698,43.453944],[-7.087614,43.456765],[-7.082916,43.459319],[-7.080653,43.461678],[-7.080018,43.462529],[-7.078428,43.46498],[-7.072009,43.46584],[-7.069724,43.470099],[-7.065052,43.47158],[-7.062263,43.474047],[-7.056345,43.472439],[-7.053729,43.473252],[-7.048031,43.477893],[-7.048931,43.488196],[-7.045299,43.495285],[-7.048842,43.501092],[-7.047996,43.507307],[-7.045152,43.516186],[-7.040561,43.524319],[-7.035008,43.53158],[-7.030557,43.534979],[-7.033699,43.541251],[-7.032261,43.544552],[-7.030185,43.54423],[-7.026805,43.546438],[-7.025041,43.546356],[-7.025176,43.547629],[-7.021921,43.549122],[-7.02163,43.552193],[-7.023382,43.554148],[-7.029338,43.556954],[-7.025968,43.557838],[-7.024119,43.55685],[-7.023021,43.5595],[-7.021115,43.558955],[-7.018721,43.559255],[-7.018111,43.556783],[-7.007553,43.556065],[-7.005187,43.556787],[-7.004433,43.558308],[-6.997377,43.554387],[-6.993885,43.554563],[-6.992945,43.556262],[-6.990063,43.557047],[-6.986798,43.555963],[-6.982056,43.558767],[-6.979842,43.557494],[-6.974031,43.557219],[-6.969716,43.561646],[-6.964692,43.561496],[-6.96462,43.56058],[-6.95935,43.562906],[-6.957344,43.562526],[-6.953825,43.56759],[-6.94878,43.567315],[-6.948997,43.57252],[-6.947638,43.572198],[-6.947425,43.573097],[-6.947111,43.572081],[-6.944763,43.571784],[-6.94633,43.572829],[-6.945627,43.573816],[-6.948328,43.573273],[-6.94652,43.575163],[-6.945456,43.574236],[-6.943802,43.574888],[-6.942415,43.572226],[-6.936757,43.569774],[-6.935081,43.57066],[-6.932255,43.569857],[-6.931401,43.571201],[-6.930019,43.570511],[-6.930339,43.571625],[-6.926312,43.574627],[-6.924575,43.570959],[-6.92394,43.571854],[-6.922452,43.571446],[-6.916709,43.57321],[-6.916268,43.572127],[-6.914603,43.572814],[-6.914901,43.570157],[-6.911853,43.569361],[-6.912016,43.568248],[-6.910668,43.568466],[-6.911784,43.567338],[-6.91086,43.566451],[-6.907898,43.567183],[-6.906901,43.56918],[-6.904368,43.568303],[-6.900931,43.571068],[-6.896583,43.570082],[-6.896891,43.56891],[-6.895515,43.569272],[-6.894501,43.568334],[-6.894069,43.569321],[-6.890517,43.569911],[-6.889837,43.568592],[-6.886504,43.568562],[-6.887735,43.565567],[-6.88279,43.566843],[-6.882728,43.565494],[-6.881595,43.566154],[-6.881307,43.565336],[-6.878634,43.565165],[-6.877732,43.563467],[-6.874522,43.562838],[-6.867109,43.57004],[-6.867337,43.567016],[-6.865474,43.565963],[-6.864258,43.567094],[-6.857295,43.567798],[-6.854149,43.570686],[-6.85471,43.569785],[-6.855557,43.567919],[-6.853757,43.567071],[-6.855037,43.565407],[-6.853403,43.565984],[-6.852544,43.564357],[-6.851398,43.565611],[-6.851428,43.564917],[-6.850226,43.565299],[-6.85208,43.562725],[-6.84905,43.564916],[-6.847297,43.565371],[-6.847266,43.564508],[-6.843953,43.565952],[-6.84357,43.564993],[-6.840308,43.565291],[-6.839509,43.564211],[-6.840946,43.564226],[-6.840985,43.563288],[-6.840539,43.56405],[-6.839175,43.563439],[-6.838516,43.56437],[-6.841039,43.566068],[-6.837381,43.567353],[-6.835687,43.567194],[-6.835826,43.565685],[-6.833773,43.567276],[-6.832963,43.565637],[-6.83116,43.566886],[-6.831202,43.565598],[-6.828803,43.565453],[-6.828263,43.563968],[-6.826227,43.565431],[-6.826489,43.564099],[-6.824989,43.56505],[-6.825287,43.563689],[-6.824239,43.564148],[-6.822742,43.562604],[-6.821442,43.563395],[-6.821401,43.561956],[-6.81989,43.56234],[-6.820159,43.559945],[-6.817353,43.558832],[-6.818381,43.557087],[-6.817398,43.556022],[-6.814373,43.556348],[-6.812776,43.55479],[-6.809405,43.554722],[-6.80865,43.556683],[-6.803728,43.559521],[-6.80403,43.557638],[-6.802377,43.55655],[-6.798509,43.555482],[-6.795205,43.55786],[-6.78839,43.555998],[-6.784135,43.556454],[-6.781149,43.559371],[-6.783487,43.563093],[-6.783058,43.56534],[-6.778916,43.56464],[-6.776919,43.565778],[-6.77735,43.567123],[-6.774835,43.568079],[-6.770938,43.566354],[-6.767296,43.568518],[-6.763889,43.568477],[-6.764721,43.564749],[-6.758869,43.561449],[-6.748312,43.566487],[-6.746131,43.56546],[-6.745525,43.566074],[-6.744926,43.564005],[-6.742652,43.564665],[-6.742885,43.563037],[-6.740979,43.562442],[-6.741542,43.560542],[-6.736467,43.563967],[-6.733671,43.564401],[-6.732742,43.560587],[-6.729435,43.559759],[-6.727691,43.557187],[-6.725264,43.556375],[-6.72142,43.556473],[-6.710832,43.563471],[-6.708549,43.561583],[-6.7036,43.563661],[-6.702281,43.562741],[-6.698826,43.563339],[-6.698237,43.560387],[-6.691579,43.562052],[-6.691393,43.559627],[-6.688928,43.56022],[-6.688855,43.558818],[-6.68693,43.55933],[-6.685494,43.558521],[-6.684284,43.559785],[-6.682499,43.559149],[-6.674623,43.56033],[-6.673319,43.562506],[-6.670609,43.563953],[-6.668208,43.563562],[-6.667263,43.56533],[-6.665435,43.566019],[-6.664175,43.564844],[-6.663608,43.566311],[-6.65702,43.567522],[-6.656669,43.56603],[-6.653774,43.566059],[-6.650022,43.567899],[-6.646146,43.566051],[-6.646187,43.56406],[-6.644463,43.5675],[-6.645207,43.568539],[-6.641425,43.569272],[-6.633911,43.568701],[-6.63259,43.567735],[-6.633176,43.570057],[-6.629138,43.569213],[-6.626605,43.572202],[-6.628335,43.57275],[-6.62724,43.572875],[-6.622204,43.570055],[-6.622636,43.567763],[-6.621492,43.567889],[-6.620596,43.565532],[-6.616327,43.565991],[-6.617076,43.562798],[-6.613676,43.561222],[-6.609061,43.561476],[-6.608737,43.562684],[-6.606501,43.563178],[-6.605714,43.565355],[-6.603209,43.56529],[-6.601855,43.563343],[-6.604052,43.556998],[-6.601949,43.555786],[-6.600254,43.556424],[-6.599564,43.554204],[-6.596558,43.553606],[-6.588042,43.553622],[-6.582924,43.555214],[-6.581508,43.554295],[-6.580384,43.557049],[-6.577875,43.557542],[-6.578045,43.556447],[-6.576313,43.557501],[-6.575506,43.556635],[-6.572376,43.557498],[-6.57024,43.557187],[-6.570178,43.556135],[-6.562619,43.556426],[-6.5631,43.55515],[-6.561477,43.555534],[-6.56132,43.554764],[-6.559052,43.55578],[-6.558905,43.553066],[-6.555631,43.553393],[-6.557242,43.550687],[-6.553351,43.552717],[-6.551763,43.55183],[-6.549265,43.553555],[-6.545646,43.553271],[-6.542826,43.554583],[-6.542807,43.553198],[-6.541029,43.553496],[-6.542279,43.552007],[-6.53986,43.552551],[-6.542023,43.549746],[-6.538,43.549538],[-6.540186,43.549029],[-6.540146,43.5475],[-6.5376,43.546102],[-6.534996,43.546012],[-6.534974,43.54522],[-6.534585,43.545754],[-6.535547,43.547183],[-6.533484,43.546617],[-6.533698,43.545197],[-6.532592,43.546392],[-6.535761,43.548716],[-6.534454,43.54818],[-6.532522,43.550698],[-6.531177,43.547805],[-6.528337,43.549837],[-6.523825,43.550796],[-6.521687,43.550646],[-6.518548,43.548185],[-6.515955,43.548724],[-6.5132,43.547324],[-6.507759,43.551029],[-6.50461,43.54946],[-6.50208,43.551735],[-6.500418,43.550606],[-6.498597,43.55186],[-6.494004,43.54929],[-6.489743,43.549033],[-6.482184,43.553397],[-6.482512,43.552649],[-6.476886,43.550605],[-6.477102,43.549842],[-6.474527,43.550263],[-6.472249,43.551782],[-6.473374,43.554539],[-6.475721,43.555755],[-6.473964,43.557267],[-6.475698,43.561374],[-6.474241,43.561661],[-6.474955,43.56308],[-6.472998,43.564373],[-6.473562,43.567714],[-6.471694,43.568392],[-6.471485,43.570568],[-6.469918,43.570445],[-6.465027,43.56873],[-6.46053,43.569127],[-6.461805,43.567171],[-6.460843,43.565075],[-6.458752,43.564031],[-6.455388,43.56452],[-6.45013,43.560699],[-6.44763,43.560928],[-6.445938,43.562735],[-6.443769,43.559235],[-6.439472,43.55922],[-6.438943,43.555797],[-6.434775,43.556093],[-6.430471,43.552891],[-6.421634,43.55358],[-6.415951,43.55881],[-6.414147,43.557576],[-6.404079,43.556193],[-6.396961,43.560169],[-6.393989,43.558619],[-6.389563,43.558516],[-6.38427,43.555963],[-6.380097,43.557284],[-6.375435,43.555378],[-6.370704,43.558012],[-6.368803,43.557672],[-6.372338,43.55402],[-6.369764,43.551152],[-6.363341,43.553403],[-6.361369,43.551777],[-6.35469,43.550992],[-6.345037,43.554175],[-6.339481,43.558686],[-6.335763,43.558633],[-6.33476,43.559958],[-6.33291,43.559868],[-6.332468,43.561286],[-6.329496,43.560607],[-6.324899,43.56256],[-6.321205,43.561587],[-6.319634,43.564532],[-6.317981,43.562842],[-6.312354,43.564536],[-6.311007,43.563468],[-6.309572,43.564167],[-6.308149,43.563055],[-6.304433,43.563028],[-6.302865,43.564919],[-6.296459,43.566184],[-6.295485,43.567635],[-6.297732,43.568642],[-6.295282,43.570495],[-6.293681,43.569506],[-6.290526,43.571389],[-6.288524,43.569871],[-6.285223,43.569957],[-6.281346,43.572895],[-6.274658,43.573339],[-6.272782,43.576427],[-6.270241,43.576392],[-6.267347,43.578519],[-6.261708,43.576618],[-6.256317,43.577699],[-6.249423,43.583064],[-6.246422,43.583906],[-6.246352,43.587671],[-6.242949,43.589352],[-6.246086,43.593783],[-6.245027,43.595056],[-6.243277,43.593611],[-6.242392,43.594653],[-6.242895,43.592496],[-6.241812,43.592167],[-6.237291,43.593798],[-6.23808,43.591408],[-6.235751,43.590484],[-6.233496,43.590935],[-6.232295,43.588403],[-6.227256,43.58914],[-6.22656,43.586557],[-6.224382,43.585664],[-6.225598,43.583163],[-6.224237,43.582247],[-6.222136,43.582811],[-6.221084,43.579329],[-6.217863,43.578852],[-6.216435,43.58018],[-6.215012,43.579743],[-6.2113,43.5819],[-6.209397,43.585015],[-6.207105,43.577543],[-6.20489,43.573374],[-6.203185,43.572512],[-6.199827,43.57248],[-6.197116,43.575077],[-6.194686,43.575713],[-6.194034,43.580476],[-6.191735,43.578694],[-6.18871,43.57958],[-6.188875,43.575911],[-6.192426,43.568105],[-6.191387,43.565325],[-6.186605,43.563171],[-6.183691,43.562847],[-6.177944,43.567752],[-6.1748,43.565886],[-6.170504,43.56967],[-6.16614,43.567216],[-6.161593,43.568818],[-6.158868,43.566211],[-6.153901,43.568545],[-6.151712,43.565265],[-6.149497,43.564822],[-6.146764,43.566068],[-6.147624,43.563802],[-6.146536,43.563598],[-6.147027,43.564953],[-6.145784,43.564609],[-6.144794,43.565816],[-6.144089,43.564881],[-6.143099,43.565844],[-6.142956,43.565002],[-6.135846,43.564468],[-6.135994,43.560638],[-6.133236,43.559975],[-6.132902,43.558327],[-6.130202,43.559491],[-6.127623,43.55894],[-6.125494,43.561114],[-6.123985,43.561129],[-6.124273,43.556646],[-6.12169,43.55578],[-6.117241,43.555218],[-6.115169,43.556571],[-6.114108,43.555204],[-6.112591,43.555308],[-6.11144,43.557726],[-6.109512,43.556094],[-6.107744,43.556386],[-6.104018,43.560737],[-6.100494,43.560094],[-6.098938,43.558255],[-6.092885,43.558023],[-6.089777,43.562618],[-6.087071,43.561988],[-6.084501,43.562823],[-6.082328,43.564656],[-6.082895,43.565316],[-6.078503,43.56466],[-6.07941,43.567633],[-6.077786,43.570288],[-6.079122,43.567578],[-6.078364,43.565096],[-6.07689,43.564613],[-6.065016,43.565581],[-6.053455,43.571148],[-6.037084,43.57804],[-6.034864,43.58044],[-6.036973,43.583949],[-6.032372,43.583585],[-6.032122,43.58478],[-6.029014,43.586267],[-6.026224,43.585234],[-6.021721,43.585839],[-6.018515,43.587617],[-6.016858,43.587408],[-6.01809,43.5858],[-6.016896,43.584697],[-6.017551,43.582456],[-6.011978,43.579731],[-6.008089,43.580473],[-6.006804,43.577805],[-6.004588,43.57781],[-6.004185,43.579666],[-5.998174,43.578338],[-5.999143,43.576413],[-5.997961,43.573806],[-5.995205,43.573914],[-5.993983,43.576251],[-5.991801,43.576705],[-5.992282,43.579159],[-5.989252,43.577239],[-5.986928,43.580082],[-5.985416,43.580059],[-5.981657,43.577438],[-5.979334,43.579047],[-5.977097,43.578646],[-5.974438,43.581984],[-5.973508,43.579946],[-5.970155,43.579772],[-5.966659,43.581214],[-5.968017,43.579108],[-5.966983,43.578468],[-5.960297,43.578525],[-5.947205,43.584337],[-5.940949,43.590657],[-5.940597,43.592584],[-5.941844,43.593524],[-5.939771,43.593442],[-5.941341,43.594374],[-5.939002,43.594435],[-5.939028,43.595217],[-5.945094,43.594872],[-5.946434,43.595936],[-5.945572,43.596796],[-5.948018,43.597165],[-5.944875,43.598776],[-5.942714,43.598661],[-5.94265,43.599635],[-5.933676,43.601333],[-5.926831,43.598412],[-5.912839,43.608304],[-5.916043,43.611779],[-5.913684,43.613487],[-5.914131,43.614799],[-5.911027,43.616463],[-5.916262,43.619912],[-5.913811,43.624315],[-5.911933,43.624705],[-5.907069,43.623055],[-5.904678,43.624619],[-5.902897,43.623926],[-5.900612,43.627946],[-5.898568,43.624108],[-5.896161,43.626645],[-5.891057,43.624884],[-5.888984,43.622748],[-5.884341,43.624135],[-5.880081,43.623973],[-5.87997,43.625533],[-5.878031,43.62542],[-5.876774,43.627378],[-5.877381,43.629461],[-5.866978,43.630956],[-5.865812,43.633281],[-5.86703,43.635168],[-5.862068,43.634851],[-5.859352,43.635865],[-5.85783,43.640369],[-5.859998,43.644501],[-5.86158,43.645191],[-5.86065,43.645439],[-5.86147,43.649389],[-5.858825,43.655065],[-5.854043,43.656463],[-5.852873,43.658734],[-5.850941,43.657477],[-5.848864,43.658411],[-5.848853,43.657385],[-5.8472,43.658101],[-5.845725,43.657319],[-5.844821,43.658917],[-5.839882,43.661228],[-5.842259,43.657189],[-5.839757,43.655414],[-5.840136,43.653982],[-5.838444,43.654141],[-5.837234,43.652398],[-5.834158,43.6545],[-5.835529,43.651999],[-5.835804,43.645473],[-5.834171,43.64582],[-5.834546,43.644028],[-5.829951,43.642296],[-5.830102,43.640231],[-5.826336,43.639496],[-5.823781,43.643448],[-5.820824,43.644638],[-5.820927,43.642853],[-5.819086,43.643258],[-5.818058,43.64223],[-5.817683,43.642942],[-5.816216,43.640475],[-5.815385,43.641531],[-5.813574,43.639928],[-5.812643,43.642291],[-5.810545,43.642226],[-5.809825,43.632628],[-5.806614,43.632887],[-5.805099,43.635499],[-5.798889,43.635246],[-5.797728,43.636409],[-5.795675,43.634389],[-5.794451,43.636327],[-5.793161,43.633352],[-5.794023,43.629504],[-5.790371,43.631475],[-5.790438,43.630249],[-5.788131,43.630737],[-5.788336,43.629274],[-5.786191,43.629263],[-5.7834,43.631375],[-5.783891,43.629931],[-5.781176,43.628566],[-5.780834,43.62708],[-5.782527,43.622672],[-5.786382,43.620255],[-5.782871,43.619116],[-5.787443,43.619626],[-5.786949,43.616711],[-5.791877,43.614205],[-5.788996,43.613546],[-5.790076,43.613052],[-5.788884,43.612189],[-5.785292,43.612772],[-5.786305,43.61029],[-5.784084,43.609146],[-5.781368,43.610698],[-5.780326,43.609616],[-5.77795,43.609935],[-5.778168,43.60875],[-5.775521,43.608328],[-5.776495,43.606612],[-5.775436,43.605926],[-5.770852,43.608108],[-5.770049,43.605994],[-5.767817,43.604887],[-5.769557,43.603917],[-5.769205,43.602728],[-5.770981,43.603099],[-5.770895,43.60067],[-5.769708,43.599114],[-5.767773,43.599323],[-5.76769,43.597534],[-5.764825,43.595019],[-5.759903,43.594931],[-5.761736,43.590592],[-5.757882,43.589487],[-5.759303,43.589678],[-5.760222,43.587567],[-5.757164,43.584607],[-5.755544,43.584934],[-5.755809,43.583154],[-5.754541,43.583589],[-5.75214,43.58227],[-5.748777,43.585124],[-5.743592,43.582232],[-5.743558,43.579028],[-5.740632,43.578144],[-5.738686,43.578929],[-5.739012,43.575742],[-5.738195,43.576284],[-5.734976,43.573849],[-5.709947,43.568852],[-5.707357,43.569108],[-5.706282,43.570476],[-5.70576,43.569836],[-5.703513,43.571941],[-5.701189,43.570857],[-5.699355,43.572006],[-5.699134,43.571303],[-5.700786,43.56898],[-5.695911,43.567225],[-5.689539,43.567532],[-5.676198,43.570957],[-5.684956,43.568538],[-5.681662,43.564783],[-5.684388,43.567386],[-5.69312,43.565088],[-5.691594,43.561072],[-5.696133,43.566795],[-5.700892,43.568206],[-5.700151,43.564561],[-5.697772,43.565511],[-5.697043,43.564556],[-5.700954,43.563024],[-5.699654,43.560944],[-5.696385,43.562235],[-5.69587,43.561543],[-5.699576,43.559044],[-5.696415,43.559617],[-5.698626,43.558097],[-5.696217,43.558209],[-5.692695,43.555229],[-5.698465,43.557877],[-5.696374,43.555086],[-5.697648,43.552551],[-5.69539,43.549741],[-5.68789,43.557435],[-5.686161,43.556095],[-5.684718,43.557529],[-5.686282,43.560546],[-5.683737,43.557315],[-5.688684,43.5524],[-5.686242,43.550467],[-5.688495,43.552193],[-5.694502,43.546617],[-5.695195,43.545376],[-5.691671,43.543441],[-5.688376,43.543612],[-5.686855,43.54483],[-5.687704,43.54549],[-5.685575,43.544308],[-5.67938,43.545471],[-5.681158,43.54484],[-5.681314,43.543595],[-5.681225,43.542256],[-5.67917,43.54123],[-5.677318,43.541667],[-5.677064,43.543517],[-5.678723,43.544439],[-5.677122,43.545196],[-5.675352,43.545244],[-5.677608,43.544233],[-5.67538,43.542717],[-5.671754,43.542179],[-5.66969,43.542601],[-5.668758,43.544056],[-5.671188,43.544956],[-5.668728,43.544491],[-5.668674,43.545503],[-5.667837,43.542614],[-5.66676,43.543164],[-5.667629,43.54559],[-5.666314,43.543387],[-5.666371,43.545911],[-5.66516,43.544059],[-5.664275,43.545166],[-5.665952,43.546745],[-5.667425,43.546156],[-5.666768,43.547393],[-5.670138,43.546559],[-5.663795,43.549746],[-5.659644,43.5477],[-5.661637,43.544875],[-5.659751,43.542584],[-5.654669,43.540989],[-5.644844,43.540251],[-5.647077,43.543843],[-5.643395,43.544944],[-5.643001,43.548122],[-5.637883,43.548762],[-5.639095,43.551328],[-5.637079,43.552157],[-5.628811,43.549532],[-5.621801,43.552687],[-5.621662,43.556652],[-5.617365,43.55722],[-5.61403,43.55605],[-5.614908,43.554686],[-5.612663,43.553446],[-5.612979,43.551612],[-5.609562,43.549468],[-5.60153,43.549026],[-5.598289,43.547664],[-5.593805,43.548925],[-5.591587,43.548055],[-5.588773,43.548201],[-5.585114,43.549472],[-5.585428,43.550177],[-5.583039,43.549015],[-5.580515,43.54963],[-5.579183,43.54858],[-5.575132,43.550841],[-5.570746,43.549572],[-5.568005,43.550615],[-5.562407,43.549093],[-5.548148,43.550312],[-5.535484,43.547947],[-5.531536,43.546206],[-5.528017,43.546996],[-5.525597,43.549534],[-5.522769,43.549687],[-5.516962,43.553218],[-5.508278,43.548925],[-5.50421,43.550824],[-5.49915,43.550305],[-5.497284,43.551282],[-5.496248,43.54837],[-5.493854,43.547665],[-5.494521,43.544923],[-5.483351,43.547507],[-5.467554,43.552919],[-5.449362,43.552167],[-5.439068,43.553863],[-5.431719,43.551508],[-5.41301,43.556073],[-5.408286,43.555912],[-5.399735,43.553184],[-5.396591,43.550386],[-5.39712,43.545936],[-5.399278,43.545738],[-5.398494,43.544071],[-5.394112,43.541875],[-5.388327,43.540826],[-5.386834,43.530584],[-5.385649,43.530653],[-5.38602,43.53757],[-5.383432,43.535337],[-5.379625,43.535461],[-5.37524,43.536624],[-5.371773,43.540369],[-5.369938,43.539957],[-5.366457,43.535473],[-5.364743,43.535617],[-5.3652,43.534644],[-5.35374,43.53244],[-5.348806,43.534766],[-5.348091,43.536761],[-5.346868,43.535544],[-5.342739,43.535331],[-5.338296,43.533424],[-5.332528,43.533388],[-5.324021,43.535524],[-5.320582,43.534298],[-5.316276,43.534952],[-5.311885,43.534042],[-5.308558,43.533785],[-5.305986,43.535133],[-5.30407,43.534884],[-5.303957,43.536138],[-5.29904,43.536696],[-5.295559,43.536289],[-5.291699,43.532404],[-5.287357,43.532131],[-5.28639,43.530782],[-5.287447,43.530256],[-5.284609,43.528512],[-5.283389,43.529311],[-5.279837,43.526996],[-5.278691,43.52746],[-5.273993,43.522952],[-5.266133,43.51957],[-5.264639,43.517691],[-5.267433,43.514979],[-5.266585,43.512484],[-5.269092,43.508733],[-5.26209,43.503776],[-5.247796,43.500915],[-5.24375,43.494539],[-5.232685,43.489965],[-5.229254,43.486134],[-5.226161,43.486752],[-5.223292,43.484395],[-5.224387,43.480214],[-5.215412,43.475184],[-5.214867,43.473799],[-5.204952,43.475539],[-5.204806,43.474578],[-5.201104,43.476477],[-5.195411,43.47529],[-5.193697,43.477484],[-5.190525,43.47867],[-5.190218,43.476326],[-5.171225,43.474897],[-5.168372,43.476373],[-5.155565,43.479245],[-5.149612,43.477331],[-5.144975,43.47803],[-5.134833,43.480741],[-5.130159,43.483206],[-5.129007,43.485271],[-5.127791,43.484114],[-5.121306,43.484298],[-5.114769,43.476648],[-5.100624,43.474136],[-5.096412,43.477112],[-5.093561,43.475841],[-5.086454,43.476268],[-5.082419,43.475072],[-5.078581,43.471306],[-5.07483,43.470807],[-5.075549,43.468327],[-5.072436,43.46624],[-5.062014,43.466951],[-5.067039,43.468211],[-5.067011,43.469922],[-5.058663,43.468749],[-5.054698,43.46448],[-5.051036,43.462574],[-5.048362,43.463189],[-5.04425,43.461471],[-5.042082,43.462059],[-5.036141,43.460742],[-5.02328,43.461313],[-5.018511,43.460668],[-5.014082,43.458324],[-5.012646,43.460483],[-5.008707,43.459129],[-5.007741,43.460173],[-5.002417,43.459546],[-4.999095,43.460378],[-4.997597,43.458451],[-4.997096,43.460125],[-4.991213,43.459769],[-4.990008,43.461482],[-4.989209,43.460488],[-4.989169,43.46228],[-4.987041,43.460327],[-4.985466,43.4613],[-4.984937,43.460274],[-4.984526,43.461677],[-4.983701,43.460268],[-4.981146,43.45961],[-4.979793,43.459057],[-4.974694,43.462288],[-4.97054,43.461531],[-4.970236,43.460528],[-4.966878,43.461819],[-4.960221,43.460466],[-4.955365,43.461296],[-4.955067,43.459717],[-4.952127,43.46092],[-4.950733,43.459872],[-4.950282,43.460834],[-4.946026,43.461465],[-4.94173,43.460493],[-4.942876,43.459627],[-4.941994,43.458706],[-4.940771,43.459897],[-4.939109,43.458935],[-4.936435,43.45998],[-4.936784,43.457732],[-4.933994,43.460561],[-4.928344,43.463259],[-4.926433,43.462652],[-4.928468,43.46015],[-4.92694,43.458772],[-4.917531,43.456733],[-4.915406,43.454022],[-4.907594,43.452442],[-4.902143,43.452821],[-4.898771,43.451319],[-4.902021,43.44932],[-4.896822,43.449037],[-4.89701,43.447945],[-4.889758,43.449217],[-4.885547,43.44854],[-4.885562,43.447045],[-4.880776,43.446916],[-4.880866,43.445042],[-4.877309,43.444326],[-4.876315,43.442533],[-4.871132,43.440357],[-4.871617,43.441277],[-4.861428,43.443487],[-4.853524,43.442427],[-4.851127,43.441214],[-4.846468,43.444864],[-4.847175,43.4466],[-4.841439,43.446935],[-4.839655,43.440265],[-4.836066,43.438873],[-4.834858,43.434471],[-4.836349,43.433502],[-4.831788,43.433881],[-4.834821,43.436101],[-4.832323,43.438897],[-4.828973,43.438455],[-4.824576,43.43604],[-4.819889,43.437168],[-4.817221,43.436373],[-4.815366,43.438384],[-4.816911,43.440043],[-4.81515,43.440233],[-4.814805,43.439455],[-4.812537,43.439644],[-4.814338,43.436221],[-4.806821,43.435251],[-4.808385,43.433407],[-4.806484,43.432231],[-4.803605,43.433879],[-4.801529,43.432651],[-4.799171,43.432715],[-4.799097,43.433536],[-4.791742,43.431769],[-4.791067,43.433157],[-4.786513,43.43249],[-4.784573,43.428703],[-4.785213,43.4261],[-4.783089,43.429923],[-4.785211,43.43107],[-4.785043,43.43209],[-4.769588,43.430466],[-4.768337,43.429099],[-4.766316,43.429247],[-4.763705,43.426145],[-4.757529,43.426195],[-4.749194,43.423325],[-4.752685,43.422722],[-4.748736,43.421567],[-4.754333,43.419673],[-4.751031,43.420631],[-4.746542,43.420025],[-4.747209,43.418727],[-4.744535,43.418984],[-4.744336,43.416348],[-4.742376,43.416045],[-4.74223,43.417416],[-4.740958,43.417426],[-4.739725,43.414483],[-4.738194,43.415361],[-4.735564,43.414969],[-4.735489,43.417122],[-4.734263,43.41742],[-4.727075,43.414864],[-4.725236,43.417539],[-4.721534,43.415496],[-4.722543,43.414482],[-4.720086,43.413645],[-4.717553,43.414908],[-4.711879,43.413021],[-4.71378,43.412092],[-4.711439,43.40966],[-4.70099,43.412328],[-4.69736,43.41014],[-4.698502,43.409457],[-4.69769,43.408694],[-4.695258,43.409622],[-4.678207,43.409819],[-4.667448,43.407527],[-4.666187,43.405682],[-4.653056,43.401487],[-4.648421,43.402725],[-4.641923,43.402638],[-4.638649,43.401208],[-4.632522,43.400684],[-4.627784,43.397618],[-4.626527,43.398626],[-4.624345,43.397847],[-4.620286,43.399849],[-4.617886,43.398758],[-4.619357,43.396009],[-4.616749,43.396379],[-4.613746,43.398627],[-4.606199,43.39714],[-4.605022,43.398408],[-4.601329,43.397433],[-4.591603,43.397605],[-4.588532,43.399169],[-4.581269,43.400071],[-4.57831,43.398806],[-4.57774,43.394951],[-4.577328,43.393336],[-4.573675,43.3939],[-4.570781,43.391779],[-4.559952,43.391314],[-4.557762,43.398332],[-4.553213,43.398655],[-4.550256,43.396498],[-4.547676,43.397001],[-4.54695,43.400504],[-4.541385,43.400688],[-4.532014,43.400291],[-4.530788,43.398183],[-4.524571,43.398455],[-4.522507,43.396411],[-4.512279,43.393287],[-4.513077,43.389621],[-4.510836,43.379908],[-4.516384,43.376647],[-4.521333,43.371683],[-4.522959,43.3686],[-4.520911,43.366151],[-4.530148,43.368333],[-4.534444,43.368338],[-4.535352,43.364706],[-4.530998,43.360875],[-4.530809,43.358788],[-4.535734,43.358317],[-4.538808,43.355925],[-4.534109,43.353098],[-4.537443,43.346831],[-4.536789,43.344364],[-4.539456,43.343959],[-4.522999,43.338092],[-4.522349,43.335778],[-4.527029,43.327611],[-4.520169,43.314655],[-4.519101,43.309924],[-4.51857,43.294038],[-4.521712,43.280625],[-4.52496,43.27743],[-4.529398,43.275507],[-4.530806,43.276109],[-4.532671,43.275319],[-4.537721,43.269326],[-4.547773,43.268686],[-4.552784,43.271941],[-4.552855,43.28053],[-4.550875,43.284609],[-4.555241,43.288098],[-4.569513,43.291847],[-4.571324,43.291795],[-4.573235,43.289419],[-4.580266,43.289592],[-4.58242,43.291849],[-4.590937,43.293235],[-4.599159,43.298865],[-4.606551,43.300553],[-4.607594,43.295235],[-4.614961,43.291286],[-4.618516,43.290552],[-4.619806,43.288057],[-4.623906,43.288368],[-4.626747,43.281656],[-4.630393,43.279695],[-4.631192,43.277783],[-4.634547,43.277429],[-4.636585,43.275761],[-4.636206,43.270805],[-4.634882,43.268771],[-4.631883,43.267652],[-4.65025,43.268821],[-4.653743,43.265871],[-4.659941,43.264493],[-4.669374,43.265211],[-4.675606,43.267795],[-4.681141,43.267893],[-4.685313,43.265455],[-4.689876,43.266477],[-4.693391,43.263949],[-4.696783,43.265835],[-4.704888,43.265291],[-4.706041,43.266868],[-4.711617,43.260967],[-4.723331,43.258225],[-4.725704,43.256316],[-4.728803,43.256089],[-4.730945,43.257336],[-4.729391,43.249471],[-4.722804,43.240395],[-4.720739,43.239238],[-4.719602,43.236454],[-4.721659,43.22949],[-4.724117,43.228867],[-4.731101,43.222837],[-4.73197,43.220915],[-4.72833,43.216729],[-4.736076,43.208984],[-4.736916,43.199526],[-4.733527,43.194607],[-4.734156,43.189879],[-4.738426,43.186383],[-4.741706,43.186162],[-4.745807,43.184119],[-4.754316,43.184772],[-4.778609,43.192042],[-4.787096,43.18639],[-4.805453,43.182094],[-4.81114,43.18132],[-4.817521,43.184046],[-4.819043,43.178962],[-4.82113,43.179631],[-4.830918,43.178601],[-4.8341,43.180468],[-4.841024,43.18078],[-4.839202,43.18976],[-4.852765,43.196304],[-4.855984,43.200177],[-4.856084,43.203471],[-4.861688,43.205623],[-4.860071,43.209125],[-4.862543,43.212272],[-4.859553,43.215553],[-4.860156,43.218407],[-4.873614,43.229659],[-4.882109,43.231996],[-4.887621,43.236227],[-4.891455,43.236362],[-4.893432,43.238438],[-4.907466,43.237951],[-4.912556,43.236885],[-4.919467,43.227512],[-4.932316,43.224955],[-4.942265,43.224948],[-4.948341,43.22046],[-4.951988,43.21938],[-4.952016,43.214463],[-4.963917,43.21244],[-4.971057,43.204394],[-4.970572,43.201935],[-4.97903,43.200492],[-4.986143,43.193219],[-4.99646,43.185791],[-4.996859,43.173096],[-5.002191,43.17665],[-5.011258,43.178868],[-5.017536,43.181945],[-5.020914,43.185109],[-5.024401,43.185264],[-5.031432,43.183527],[-5.040896,43.184683],[-5.053322,43.182776],[-5.054407,43.179533],[-5.058783,43.180886],[-5.063818,43.17949],[-5.075859,43.181532],[-5.076293,43.180912],[-5.078167,43.175196],[-5.076157,43.171451],[-5.078455,43.160468],[-5.082894,43.158271],[-5.08739,43.153399],[-5.085688,43.148207],[-5.093943,43.144689],[-5.094821,43.143376],[-5.090445,43.134064],[-5.091065,43.129524],[-5.099191,43.116552],[-5.097674,43.110304],[-5.095656,43.107703],[-5.101736,43.101846],[-5.105273,43.10215],[-5.110614,43.100944],[-5.115024,43.101619],[-5.123935,43.100599],[-5.140679,43.102916],[-5.140754,43.105085],[-5.147803,43.115119],[-5.153459,43.110978],[-5.157553,43.109974],[-5.160038,43.111071],[-5.162031,43.110078],[-5.167918,43.102439],[-5.17094,43.102391],[-5.175402,43.100019],[-5.180604,43.100802],[-5.188603,43.099767],[-5.191248,43.095367],[-5.198176,43.093244],[-5.20091,43.091706],[-5.201189,43.090233],[-5.206832,43.092385],[-5.209693,43.086863],[-5.220191,43.083653],[-5.225983,43.085503],[-5.228811,43.084223],[-5.231901,43.084379],[-5.235791,43.08596],[-5.240321,43.088564],[-5.249372,43.089143],[-5.259716,43.087435],[-5.268504,43.087558],[-5.278175,43.083296],[-5.280833,43.0811],[-5.282121,43.077427],[-5.287741,43.078918],[-5.301074,43.080028],[-5.304249,43.082477],[-5.311499,43.084158],[-5.317194,43.082719],[-5.319072,43.079764],[-5.325952,43.079453],[-5.341447,43.083783],[-5.338956,43.091587],[-5.344817,43.094187],[-5.356669,43.094549],[-5.362209,43.095305],[-5.369136,43.094577],[-5.370666,43.092537],[-5.374717,43.09149],[-5.377777,43.088329],[-5.383104,43.087236],[-5.387007,43.061528],[-5.390451,43.049336],[-5.394975,43.047602],[-5.398568,43.047491],[-5.405893,43.049886],[-5.412724,43.049363],[-5.41692,43.052093],[-5.421036,43.05279],[-5.433925,43.052705],[-5.436961,43.054027],[-5.448177,43.055409],[-5.454351,43.052872],[-5.467353,43.051017],[-5.47559,43.055548],[-5.480741,43.053582],[-5.481514,43.040769],[-5.485971,43.033199],[-5.491029,43.029586],[-5.493752,43.021351],[-5.506002,43.028638],[-5.509578,43.027236],[-5.513737,43.027759],[-5.528568,43.025818],[-5.530204,43.02263],[-5.54041,43.018352],[-5.548532,43.020396],[-5.556159,43.020541],[-5.558035,43.022552],[-5.570143,43.022731],[-5.574602,43.032229],[-5.592311,43.034206],[-5.595174,43.033403],[-5.599999,43.035752],[-5.603856,43.036087],[-5.609135,43.034076],[-5.613132,43.035425],[-5.627491,43.034205],[-5.636372,43.035216],[-5.63871,43.038494],[-5.643127,43.037888],[-5.650026,43.044734],[-5.659053,43.04565],[-5.659985,43.04733],[-5.665044,43.048211],[-5.667607,43.050979],[-5.671626,43.051912],[-5.671843,43.052942],[-5.673644,43.052018],[-5.687193,43.056653],[-5.687627,43.056733],[-5.69335,43.056481],[-5.700881,43.051819],[-5.710138,43.049286],[-5.711522,43.047812],[-5.716598,43.046269],[-5.721115,43.042911],[-5.728377,43.042513],[-5.729636,43.037414],[-5.734794,43.03304],[-5.736567,43.025722],[-5.735745,43.02323],[-5.740087,43.020686],[-5.74388,43.020721],[-5.748264,43.017212],[-5.751008,43.005566],[-5.758821,42.999201],[-5.759439,42.99273],[-5.766513,42.986085],[-5.76363,42.981967],[-5.763639,42.97642],[-5.761364,42.973819],[-5.76386,42.97013],[-5.780029,42.967027],[-5.79065,42.967921],[-5.794812,42.965866],[-5.800091,42.965484],[-5.804007,42.962615],[-5.807119,42.964997],[-5.818814,42.967357],[-5.820546,42.966621],[-5.824344,42.968175],[-5.828907,42.966603],[-5.839484,42.966233],[-5.843133,42.964278],[-5.850328,42.967404],[-5.85429,42.972213],[-5.863663,42.97893],[-5.863912,42.981382],[-5.876628,42.979235],[-5.880441,42.980786],[-5.889152,42.979027],[-5.890963,42.981043],[-5.892009,42.987644],[-5.887208,42.994086],[-5.899315,42.992267],[-5.90662,42.990056],[-5.914619,42.992698],[-5.913125,42.996635],[-5.919661,43.002789],[-5.925173,43.0039],[-5.925396,43.00601],[-5.928642,43.005126],[-5.931231,43.005906],[-5.933688,43.010867],[-5.943407,43.012949],[-5.945611,43.01491],[-5.950517,43.015368],[-5.956746,43.018593],[-5.958477,43.025266],[-5.961104,43.029096],[-5.963301,43.033443],[-5.96899,43.038139],[-5.970247,43.041294],[-5.967796,43.044951],[-5.970737,43.050673],[-5.967129,43.058357],[-5.969912,43.056466],[-5.971383,43.057193],[-5.97414,43.064946],[-5.975988,43.065556],[-5.980553,43.06423],[-5.989214,43.067822],[-5.994171,43.063703],[-5.996447,43.059745],[-6.004125,43.058562],[-6.008124,43.058439],[-6.014785,43.055301],[-6.020585,43.054878],[-6.028553,43.057603],[-6.038015,43.063213],[-6.0488,43.065006],[-6.052609,43.068011],[-6.061553,43.064863],[-6.06765,43.065717],[-6.07171,43.067841],[-6.073914,43.071141],[-6.081945,43.075449],[-6.083958,43.069906],[-6.08759,43.067638],[-6.091852,43.066919],[-6.090309,43.058218],[-6.094997,43.04888],[-6.090043,43.043377],[-6.089817,43.038152],[-6.095061,43.034534],[-6.096902,43.03064],[-6.101398,43.031922],[-6.10613,43.029372],[-6.112528,43.029441],[-6.120378,43.024257],[-6.136669,43.020992],[-6.139511,43.024993],[-6.146828,43.030087],[-6.148411,43.033194],[-6.159321,43.03555],[-6.16259,43.03301],[-6.167409,43.042448],[-6.172158,43.043604],[-6.178402,43.047798],[-6.186092,43.049546],[-6.18865,43.048908],[-6.190822,43.044633],[-6.195068,43.042705],[-6.213897,43.046661],[-6.22681,43.008912],[-6.238873,43.014558],[-6.242719,43.013504],[-6.260116,43.015503],[-6.265055,43.016794],[-6.269402,43.021469],[-6.270537,43.025497],[-6.273961,43.026191],[-6.285562,43.036366],[-6.290723,43.034417],[-6.295538,43.026904],[-6.303755,43.028855],[-6.311684,43.028877],[-6.314048,43.031294],[-6.326864,43.031327],[-6.329824,43.037498],[-6.330243,43.04297],[-6.333527,43.046484],[-6.33859,43.045895],[-6.341089,43.049181],[-6.349298,43.050003],[-6.351259,43.053097],[-6.358292,43.056654],[-6.359459,43.059573],[-6.363804,43.057303],[-6.362393,43.054184],[-6.364942,43.052065],[-6.365118,43.049899],[-6.367298,43.048241],[-6.374396,43.046248],[-6.373917,43.041103],[-6.390519,43.040531],[-6.397418,43.038318],[-6.395412,43.032669],[-6.39207,43.031265],[-6.391193,43.025816],[-6.393842,43.022217],[-6.39237,43.021784],[-6.394723,43.016608],[-6.402739,43.016226],[-6.40835,43.018499],[-6.411478,43.016929],[-6.412925,43.015148],[-6.411327,43.01199],[-6.412525,43.007488],[-6.410849,43.001596],[-6.407948,42.999485],[-6.413777,42.99444],[-6.424451,42.987872],[-6.427958,42.987623],[-6.434479,42.992181],[-6.43747,42.993028],[-6.44681,42.982166],[-6.459399,42.983596],[-6.461618,42.985321],[-6.466251,42.98636],[-6.471223,42.991674],[-6.477687,42.991892],[-6.479258,42.989746],[-6.47863,42.980131],[-6.472338,42.976631],[-6.475052,42.970614],[-6.473475,42.967854],[-6.468544,42.966122],[-6.462379,42.967677],[-6.451775,42.965954],[-6.442373,42.966877],[-6.43364,42.964159]]]]}}
]
}
