{
"type": "FeatureCollection",
"name": "cod_prov_07",
"crs": { "type": "name", "properties": { "name": "urn:ogc:def:crs:OGC:1.3:CRS84" } },
"xy_coordinate_resolution": 1e-15,
"features": [
{"type":"Feature","properties":{"fid":6,"cod_ccaa":"04","provincia":"Illes Balears","cod_prov":"07"},"geometry":{"type":"MultiPolygon","coordinates":[[[[1.424039,38.782426],[1.423062,38.780548],[1.41946,38.779265],[1.420279,38.780848],[1.417215,38.785578],[1.422577,38.791706],[1.419232,38.794941],[1.421862,38.797364],[1.423488,38.796512],[1.425771,38.795547],[1.424332,38.795379],[1.426087,38.793939],[1.424674,38.793527],[1.430884,38.785303],[1.432917,38.77526],[1.429778,38.776565],[1.429264,38.780059],[1.42596,38.782331],[1.424039,38.782426]]],[[[1.405235,38.813834],[1.402725,38.814055],[1.403917,38.814474],[1.405235,38.813834]]],[[[1.401843,38.815753],[1.404484,38.816429],[1.404037,38.815561],[1.401843,38.815753]]],[[[1.411421,38.813714],[1.409062,38.817554],[1.40998,38.818566],[1.411669,38.816917],[1.411421,38.813714]]],[[[1.402535,38.816213],[1.402375,38.81615],[1.402366,38.816242],[1.402535,38.816213]]],[[[1.409334,38.816308],[1.409392,38.816185],[1.409206,38.816191],[1.409334,38.816308]]],[[[1.401744,38.825227],[1.401769,38.825129],[1.40168,38.82515],[1.401744,38.825227]]],[[[1.407354,38.827153],[1.407798,38.826584],[1.407763,38.826098],[1.407354,38.827153]]],[[[1.370908,38.828624],[1.371039,38.828884],[1.37128,38.829097],[1.370908,38.828624]]],[[[1.37064,38.829884],[1.370804,38.829592],[1.370693,38.829582],[1.37064,38.829884]]],[[[1.405302,38.830155],[1.405252,38.830903],[1.405827,38.830569],[1.405302,38.830155]]],[[[1.371515,38.831104],[1.372003,38.831015],[1.371165,38.830418],[1.371515,38.831104]]],[[[1.405338,38.831566],[1.404916,38.831628],[1.405231,38.831685],[1.405338,38.831566]]],[[[1.2436,38.86052],[1.243504,38.861177],[1.243859,38.861439],[1.2436,38.86052]]],[[[1.297415,38.861983],[1.29748,38.862029],[1.297452,38.86193],[1.297415,38.861983]]],[[[1.244118,38.862938],[1.244131,38.86241],[1.243933,38.862554],[1.244118,38.862938]]],[[[1.309002,38.864176],[1.309014,38.864312],[1.309047,38.864146],[1.309002,38.864176]]],[[[1.194667,38.86352],[1.192262,38.864234],[1.188459,38.862582],[1.188247,38.864103],[1.193867,38.86739],[1.195531,38.869904],[1.20018,38.870647],[1.203384,38.868733],[1.202974,38.864643],[1.198759,38.864902],[1.194667,38.86352]]],[[[1.258299,38.867384],[1.258216,38.867423],[1.258277,38.867477],[1.258299,38.867384]]],[[[1.21372,38.868336],[1.211166,38.868398],[1.210868,38.867074],[1.206803,38.86826],[1.20806,38.869502],[1.211551,38.86994],[1.215301,38.869125],[1.21487,38.866922],[1.212975,38.865717],[1.21372,38.868336]]],[[[1.298236,38.870019],[1.298379,38.869931],[1.298288,38.869922],[1.298236,38.870019]]],[[[1.298268,38.870174],[1.298376,38.870084],[1.298212,38.870114],[1.298268,38.870174]]],[[[1.298204,38.870241],[1.298269,38.87054],[1.298567,38.870358],[1.298204,38.870241]]],[[[1.299674,38.871532],[1.299591,38.8701],[1.299172,38.871666],[1.299674,38.871532]]],[[[1.224831,38.870956],[1.224866,38.871033],[1.224931,38.870915],[1.224831,38.870956]]],[[[1.196208,38.871869],[1.196805,38.871973],[1.195247,38.871047],[1.196208,38.871869]]],[[[1.406563,38.871566],[1.405603,38.871563],[1.406383,38.872106],[1.406563,38.871566]]],[[[1.262438,38.872161],[1.262353,38.872218],[1.26242,38.872228],[1.262438,38.872161]]],[[[1.261984,38.872212],[1.261957,38.87217],[1.261928,38.872255],[1.261984,38.872212]]],[[[1.262169,38.872262],[1.262224,38.872242],[1.262175,38.872213],[1.262169,38.872262]]],[[[1.26257,38.872355],[1.262632,38.87228],[1.262564,38.872294],[1.26257,38.872355]]],[[[1.218721,38.890233],[1.219204,38.890047],[1.218664,38.889619],[1.218721,38.890233]]],[[[1.424402,38.896901],[1.422971,38.895688],[1.423733,38.897113],[1.424402,38.896901]]],[[[1.26105,38.969437],[1.260625,38.971254],[1.262836,38.970211],[1.263365,38.967468],[1.267837,38.96662],[1.268561,38.967455],[1.265961,38.968581],[1.266907,38.969806],[1.276539,38.969923],[1.278657,38.972452],[1.281915,38.972045],[1.283793,38.974243],[1.286428,38.973155],[1.286887,38.971378],[1.292171,38.972437],[1.291997,38.97102],[1.296018,38.96843],[1.299674,38.968069],[1.302342,38.969459],[1.303978,38.970537],[1.303708,38.972669],[1.305945,38.972296],[1.307546,38.973382],[1.306799,38.978791],[1.302463,38.978809],[1.301881,38.97735],[1.301312,38.9785],[1.301471,38.977277],[1.300816,38.978443],[1.300943,38.977215],[1.300789,38.978442],[1.298765,38.978147],[1.296984,38.975454],[1.298487,38.978999],[1.293228,38.982504],[1.296711,38.985145],[1.291963,38.989387],[1.286358,38.990166],[1.29023,38.992362],[1.28446,38.993832],[1.285413,38.9965],[1.283957,38.996897],[1.283758,38.998971],[1.290982,39.001672],[1.289205,39.004525],[1.292782,39.002541],[1.292362,39.005472],[1.295042,39.005601],[1.29584,39.008411],[1.298998,39.009655],[1.29749,39.011507],[1.294835,39.010207],[1.294513,39.014572],[1.291265,39.014372],[1.292058,39.016064],[1.294295,39.016002],[1.295189,39.018934],[1.291038,39.024365],[1.290001,39.02831],[1.291593,39.027428],[1.293532,39.031169],[1.300659,39.033462],[1.302471,39.035912],[1.305611,39.036512],[1.305517,39.038285],[1.310078,39.041902],[1.311078,39.044646],[1.313754,39.043671],[1.317441,39.044238],[1.318614,39.045733],[1.319891,39.045102],[1.32542,39.047614],[1.326253,39.049793],[1.324244,39.051197],[1.325832,39.05295],[1.334936,39.055121],[1.335957,39.053784],[1.341721,39.052888],[1.345422,39.060442],[1.345459,39.062524],[1.343994,39.063107],[1.34542,39.063983],[1.34483,39.064132],[1.344613,39.066891],[1.34549,39.067264],[1.344937,39.065413],[1.346343,39.065884],[1.347498,39.063148],[1.351466,39.064596],[1.356757,39.06859],[1.356466,39.071744],[1.359128,39.074755],[1.363966,39.074291],[1.363557,39.068559],[1.365832,39.064509],[1.368743,39.062933],[1.372611,39.063397],[1.375428,39.06217],[1.378433,39.06396],[1.378205,39.065178],[1.380227,39.065183],[1.382251,39.067806],[1.380764,39.06979],[1.381753,39.072007],[1.386635,39.078521],[1.389219,39.079147],[1.397313,39.080426],[1.398315,39.074425],[1.40013,39.077198],[1.401097,39.077],[1.40037,39.075836],[1.403098,39.076518],[1.405791,39.075023],[1.409977,39.078121],[1.416489,39.077448],[1.417669,39.078964],[1.416483,39.081246],[1.419496,39.084404],[1.420619,39.090015],[1.426193,39.092473],[1.428335,39.091615],[1.430339,39.088682],[1.431005,39.0897],[1.43734,39.086122],[1.437399,39.088678],[1.439869,39.087377],[1.436272,39.084234],[1.43806,39.082753],[1.437747,39.081195],[1.440498,39.080412],[1.443666,39.087869],[1.446938,39.088125],[1.447587,39.0893],[1.448901,39.088399],[1.453469,39.088887],[1.45338,39.089895],[1.448886,39.092124],[1.452775,39.097019],[1.455766,39.09632],[1.459834,39.097441],[1.459934,39.09869],[1.464592,39.099261],[1.464058,39.101651],[1.465689,39.101442],[1.466634,39.099671],[1.469708,39.099369],[1.470904,39.10006],[1.470302,39.101764],[1.472845,39.102154],[1.47239,39.103603],[1.474913,39.105285],[1.479695,39.104387],[1.481927,39.100659],[1.484368,39.100925],[1.485428,39.102133],[1.484502,39.103806],[1.486503,39.105544],[1.485213,39.108311],[1.48838,39.110501],[1.493273,39.108659],[1.491311,39.105944],[1.491902,39.102447],[1.49496,39.101666],[1.495798,39.099109],[1.497625,39.098511],[1.498614,39.099997],[1.504703,39.100616],[1.506147,39.102522],[1.509103,39.102961],[1.506999,39.106687],[1.508676,39.107627],[1.507113,39.108409],[1.506083,39.111473],[1.507281,39.113772],[1.510202,39.11458],[1.512159,39.113096],[1.510841,39.111696],[1.512158,39.111582],[1.511785,39.110149],[1.515531,39.108728],[1.517355,39.110274],[1.514904,39.113829],[1.517082,39.113064],[1.51755,39.113926],[1.520304,39.113808],[1.518776,39.115492],[1.520324,39.116385],[1.520293,39.114781],[1.521318,39.11551],[1.521916,39.114423],[1.524556,39.114794],[1.533273,39.118256],[1.542216,39.116112],[1.541003,39.114019],[1.542761,39.112915],[1.538185,39.109407],[1.537213,39.106678],[1.544794,39.105768],[1.545986,39.102868],[1.547493,39.103],[1.550486,39.100348],[1.551798,39.100693],[1.553178,39.096673],[1.555728,39.100115],[1.555377,39.097047],[1.557237,39.093273],[1.560512,39.092773],[1.565507,39.094402],[1.567928,39.098261],[1.570846,39.096459],[1.574145,39.097986],[1.57453,39.096328],[1.578518,39.097012],[1.579426,39.098307],[1.581766,39.098016],[1.584812,39.095719],[1.591194,39.095026],[1.592257,39.0979],[1.59654,39.093221],[1.600391,39.092547],[1.601343,39.091008],[1.600129,39.088732],[1.604279,39.09085],[1.604742,39.089801],[1.598147,39.084379],[1.598434,39.082431],[1.60176,39.081913],[1.60167,39.079046],[1.60672,39.080107],[1.607585,39.078982],[1.609718,39.079913],[1.609664,39.078935],[1.599271,39.07367],[1.596311,39.074328],[1.593969,39.076435],[1.592346,39.076046],[1.589649,39.069217],[1.587942,39.063766],[1.588752,39.060782],[1.595226,39.051623],[1.59867,39.050252],[1.599833,39.050385],[1.606677,39.044172],[1.607299,39.044073],[1.608702,39.044727],[1.609913,39.043883],[1.606994,39.040024],[1.608891,39.039239],[1.607274,39.036845],[1.608661,39.034874],[1.611743,39.036322],[1.620038,39.036781],[1.620749,39.034362],[1.61653,39.029172],[1.617261,39.028017],[1.621476,39.027637],[1.615033,39.024278],[1.60917,39.029202],[1.605984,39.029571],[1.604591,39.02553],[1.602734,39.024117],[1.598884,39.02409],[1.599066,39.02289],[1.597542,39.02282],[1.595481,39.024674],[1.596058,39.022857],[1.594078,39.022709],[1.595108,39.021776],[1.593811,39.020869],[1.596529,39.018352],[1.594575,39.015453],[1.591934,39.015957],[1.588689,39.014912],[1.58579,39.016207],[1.584751,39.015483],[1.584805,39.01391],[1.587557,39.012409],[1.5861,39.011916],[1.587272,39.010756],[1.582659,39.009927],[1.581646,39.007343],[1.582584,39.005823],[1.581177,39.004744],[1.582096,39.002379],[1.579711,39.002639],[1.577875,39.00123],[1.580419,38.999307],[1.579492,38.996987],[1.581515,38.996557],[1.579398,38.995247],[1.580733,38.993524],[1.579595,38.991403],[1.58182,38.990148],[1.581368,38.989349],[1.578524,38.989187],[1.573962,38.991358],[1.571315,38.990746],[1.567817,38.99232],[1.563544,38.992202],[1.561913,38.993365],[1.560408,38.992969],[1.560337,38.99163],[1.558213,38.992185],[1.557602,38.990664],[1.556744,38.990976],[1.55594,38.990468],[1.554083,38.990945],[1.553797,38.992691],[1.552017,38.992654],[1.550453,38.989965],[1.549264,38.990992],[1.548216,38.99051],[1.54873,38.987231],[1.547479,38.988368],[1.546007,38.987597],[1.546082,38.983046],[1.542107,38.984144],[1.537922,38.980975],[1.541388,38.983993],[1.539125,38.985732],[1.540396,38.984407],[1.53881,38.985456],[1.540272,38.983914],[1.538131,38.984854],[1.53992,38.983616],[1.537804,38.983993],[1.539234,38.983006],[1.537587,38.983255],[1.538381,38.982245],[1.535239,38.983486],[1.532063,38.981119],[1.530943,38.979635],[1.531768,38.977611],[1.529404,38.978817],[1.527434,38.982366],[1.52833,38.979475],[1.53208,38.976576],[1.530882,38.975119],[1.532704,38.973261],[1.531752,38.963861],[1.532926,38.962225],[1.528493,38.959506],[1.528756,38.957868],[1.531201,38.957102],[1.529259,38.953758],[1.525066,38.954611],[1.519855,38.952924],[1.520668,38.951786],[1.524742,38.952245],[1.527666,38.951352],[1.528562,38.948417],[1.527509,38.947758],[1.528905,38.946011],[1.521769,38.943668],[1.516042,38.947039],[1.510225,38.946787],[1.509645,38.94181],[1.507718,38.937745],[1.505733,38.936491],[1.505238,38.933172],[1.504363,38.932709],[1.504164,38.933151],[1.502945,38.932943],[1.502771,38.933883],[1.501055,38.932951],[1.49982,38.933301],[1.501099,38.930513],[1.494593,38.930721],[1.495226,38.929357],[1.491555,38.929821],[1.493108,38.9285],[1.490829,38.928972],[1.488842,38.92793],[1.487399,38.926205],[1.489443,38.925656],[1.489191,38.924399],[1.486781,38.925543],[1.486514,38.923204],[1.484127,38.923113],[1.481446,38.918805],[1.477994,38.91735],[1.478852,38.915646],[1.475895,38.916231],[1.474535,38.915347],[1.47419,38.914307],[1.476618,38.912897],[1.46423,38.913391],[1.461744,38.917542],[1.457301,38.917807],[1.452025,38.914264],[1.452141,38.913099],[1.455503,38.911233],[1.453734,38.908421],[1.455833,38.906426],[1.458134,38.906785],[1.458243,38.904173],[1.456669,38.903612],[1.454902,38.905409],[1.453344,38.904046],[1.454486,38.90543],[1.453396,38.90893],[1.450375,38.910687],[1.450573,38.911713],[1.448868,38.910834],[1.449434,38.9119],[1.448005,38.911372],[1.448888,38.912263],[1.447587,38.911642],[1.447646,38.912967],[1.44574,38.912487],[1.449502,38.909568],[1.443416,38.912911],[1.445108,38.912794],[1.446362,38.914297],[1.445138,38.913709],[1.444643,38.914842],[1.444126,38.913943],[1.443909,38.915071],[1.444032,38.913473],[1.442448,38.913222],[1.443123,38.915051],[1.43956,38.916657],[1.439136,38.915971],[1.441552,38.915229],[1.440335,38.912829],[1.438592,38.913288],[1.439776,38.915169],[1.438173,38.915738],[1.434952,38.911541],[1.43511,38.910615],[1.438392,38.911217],[1.437807,38.910281],[1.440183,38.909403],[1.443013,38.910864],[1.438879,38.907692],[1.438623,38.902521],[1.428013,38.903631],[1.423669,38.905163],[1.423076,38.903938],[1.420773,38.903502],[1.421276,38.902436],[1.417112,38.895879],[1.417454,38.896681],[1.415462,38.896721],[1.410148,38.890927],[1.404087,38.878924],[1.403399,38.874372],[1.405232,38.873059],[1.404134,38.871884],[1.404785,38.869374],[1.407492,38.869574],[1.407654,38.868091],[1.405825,38.86655],[1.406778,38.865016],[1.405221,38.861219],[1.407515,38.858841],[1.4069,38.857376],[1.404366,38.857369],[1.404614,38.85268],[1.402146,38.849443],[1.403005,38.840446],[1.40621,38.834105],[1.40591,38.831538],[1.392915,38.840691],[1.384444,38.842388],[1.381685,38.840032],[1.38044,38.834361],[1.376923,38.835075],[1.375191,38.832191],[1.372044,38.831069],[1.372003,38.833356],[1.368625,38.835081],[1.370834,38.841502],[1.370456,38.844709],[1.361336,38.860494],[1.353125,38.866502],[1.343288,38.871013],[1.335038,38.868664],[1.335136,38.866349],[1.332696,38.86687],[1.332206,38.868108],[1.329595,38.867821],[1.326969,38.863251],[1.324615,38.863133],[1.320257,38.855806],[1.321444,38.86369],[1.31628,38.867735],[1.309924,38.868217],[1.309023,38.864366],[1.305028,38.861812],[1.30433,38.863084],[1.302574,38.862991],[1.302233,38.861906],[1.299537,38.862929],[1.297512,38.862159],[1.299516,38.865422],[1.302146,38.865259],[1.305239,38.867671],[1.303414,38.870496],[1.300823,38.869235],[1.300802,38.8717],[1.297395,38.876451],[1.295564,38.877147],[1.289491,38.875937],[1.283967,38.876919],[1.282371,38.874749],[1.282066,38.877096],[1.280014,38.878278],[1.274472,38.877633],[1.274336,38.878807],[1.272162,38.879525],[1.266436,38.877485],[1.255924,38.866139],[1.25334,38.862724],[1.255754,38.86197],[1.2553,38.859784],[1.248175,38.855772],[1.247489,38.856904],[1.246284,38.856538],[1.246087,38.860408],[1.244384,38.861486],[1.244026,38.864969],[1.242888,38.866196],[1.243378,38.866517],[1.235747,38.872606],[1.233089,38.871991],[1.233091,38.873164],[1.229841,38.872103],[1.230493,38.873032],[1.228782,38.873169],[1.22434,38.87081],[1.226282,38.875676],[1.222069,38.879372],[1.225616,38.888031],[1.223176,38.890739],[1.220166,38.890011],[1.218947,38.891443],[1.21966,38.892833],[1.216697,38.893783],[1.218052,38.894656],[1.213668,38.897504],[1.214027,38.905004],[1.216896,38.90747],[1.216608,38.908865],[1.218209,38.908781],[1.217816,38.909983],[1.219994,38.910778],[1.21944,38.913467],[1.220548,38.913177],[1.220916,38.914215],[1.223404,38.912833],[1.224241,38.913721],[1.221878,38.91572],[1.218622,38.915328],[1.219034,38.917518],[1.222,38.91851],[1.220765,38.922801],[1.222453,38.922462],[1.225259,38.924571],[1.228488,38.924799],[1.227579,38.928291],[1.230667,38.928405],[1.230739,38.930414],[1.232639,38.929804],[1.231977,38.932757],[1.233072,38.933277],[1.231807,38.933626],[1.236125,38.935726],[1.235227,38.936923],[1.236502,38.939041],[1.235163,38.94107],[1.233094,38.941733],[1.230943,38.940991],[1.230966,38.9426],[1.229393,38.943268],[1.232825,38.944994],[1.226231,38.945042],[1.228024,38.948058],[1.226255,38.947375],[1.225344,38.948474],[1.227526,38.950205],[1.219514,38.950976],[1.218489,38.952051],[1.220335,38.953297],[1.22014,38.955129],[1.218247,38.954532],[1.214739,38.957053],[1.215084,38.958586],[1.219667,38.960519],[1.219928,38.963198],[1.223777,38.964456],[1.224984,38.963635],[1.229788,38.974504],[1.230185,38.972984],[1.232428,38.971966],[1.232302,38.968693],[1.235332,38.968454],[1.237608,38.971969],[1.242869,38.972858],[1.242801,38.970864],[1.239583,38.968374],[1.244821,38.965901],[1.246133,38.96772],[1.251284,38.966676],[1.250196,38.969151],[1.258985,38.967476],[1.26105,38.969437]]],[[[1.235167,38.940182],[1.235478,38.940168],[1.235306,38.940108],[1.235167,38.940182]]],[[[1.218106,38.954421],[1.217932,38.954247],[1.217727,38.95436],[1.218106,38.954421]]],[[[1.189502,38.95663],[1.188477,38.95647],[1.189523,38.957859],[1.189502,38.95663]]],[[[1.192434,38.95952],[1.198659,38.959676],[1.199908,38.957505],[1.198684,38.956461],[1.189729,38.957916],[1.192434,38.95952]]],[[[1.201182,38.958334],[1.200918,38.95875],[1.201996,38.958516],[1.201182,38.958334]]],[[[1.219394,38.964339],[1.219442,38.964185],[1.219168,38.964272],[1.219394,38.964339]]],[[[1.217448,38.964739],[1.217328,38.964963],[1.217516,38.964941],[1.217448,38.964739]]],[[[1.218461,38.96549],[1.218536,38.965554],[1.218534,38.965452],[1.218461,38.96549]]],[[[1.218585,38.966779],[1.218518,38.966658],[1.218429,38.966737],[1.218585,38.966779]]],[[[1.214701,38.967976],[1.215411,38.971593],[1.219059,38.969733],[1.219535,38.967447],[1.216146,38.966797],[1.214701,38.967976]]],[[[1.232143,38.972944],[1.232188,38.972829],[1.232078,38.972869],[1.232143,38.972944]]],[[[1.231622,38.97346],[1.232005,38.97393],[1.231953,38.973516],[1.231622,38.97346]]],[[[1.2319,38.977174],[1.231811,38.976837],[1.231694,38.977097],[1.2319,38.977174]]],[[[1.206417,38.98164],[1.206321,38.98368],[1.208905,38.98631],[1.206361,38.988977],[1.212758,38.994782],[1.214766,38.994848],[1.215923,38.992646],[1.215321,38.988168],[1.214482,38.986586],[1.212644,38.987089],[1.210504,38.984017],[1.213399,38.982236],[1.217387,38.982334],[1.218339,38.9807],[1.216547,38.979926],[1.218929,38.978395],[1.216037,38.978763],[1.214082,38.975961],[1.206417,38.98164]]],[[[1.216129,38.98798],[1.215883,38.987757],[1.215528,38.98832],[1.216129,38.98798]]],[[[1.463737,38.72254],[1.472681,38.728154],[1.470746,38.724583],[1.470729,38.720865],[1.471235,38.719083],[1.472773,38.718815],[1.472457,38.717067],[1.474884,38.716662],[1.475457,38.714205],[1.478861,38.71142],[1.479592,38.707726],[1.47774,38.702358],[1.479404,38.702303],[1.49416,38.689735],[1.505998,38.68261],[1.513453,38.678862],[1.516772,38.678372],[1.516566,38.677518],[1.521961,38.676474],[1.527421,38.673231],[1.528839,38.673808],[1.530329,38.672385],[1.534816,38.676753],[1.551309,38.684586],[1.554111,38.68759],[1.559454,38.69036],[1.56521,38.692075],[1.569284,38.691602],[1.569482,38.688852],[1.573373,38.685507],[1.577661,38.684212],[1.578105,38.680964],[1.582379,38.677479],[1.580438,38.67619],[1.582119,38.675034],[1.580681,38.6743],[1.581931,38.674059],[1.581901,38.671197],[1.584667,38.669928],[1.583567,38.667221],[1.584662,38.666581],[1.583618,38.665491],[1.584694,38.662936],[1.575802,38.65862],[1.573144,38.651509],[1.568255,38.650602],[1.556561,38.652166],[1.540182,38.652873],[1.537227,38.651849],[1.524497,38.65332],[1.523526,38.655727],[1.519914,38.656475],[1.516126,38.661694],[1.51068,38.665598],[1.495165,38.674122],[1.476071,38.682138],[1.465585,38.684812],[1.456737,38.685565],[1.441775,38.6837],[1.435373,38.678311],[1.429994,38.665376],[1.424887,38.666339],[1.42376,38.664481],[1.420745,38.663823],[1.420131,38.66176],[1.416642,38.659672],[1.415841,38.656931],[1.412352,38.655014],[1.407179,38.649001],[1.399125,38.64512],[1.394631,38.641229],[1.388356,38.640467],[1.385461,38.641391],[1.383729,38.648422],[1.387637,38.666003],[1.385026,38.672513],[1.386307,38.673792],[1.384248,38.674976],[1.384387,38.67878],[1.382221,38.682535],[1.382636,38.687699],[1.380872,38.689576],[1.38052,38.692658],[1.388649,38.692842],[1.390475,38.697855],[1.386803,38.712032],[1.380126,38.718072],[1.380313,38.719282],[1.387454,38.721998],[1.38655,38.723788],[1.39174,38.726158],[1.392015,38.728207],[1.396375,38.730934],[1.394385,38.733606],[1.396499,38.735468],[1.398198,38.730337],[1.401491,38.7279],[1.406436,38.728215],[1.412073,38.731049],[1.410375,38.728963],[1.404975,38.726785],[1.407035,38.722006],[1.412551,38.721166],[1.41929,38.722587],[1.419634,38.725038],[1.416463,38.728005],[1.416712,38.730928],[1.414829,38.732317],[1.412098,38.731744],[1.414759,38.735776],[1.419062,38.73474],[1.416712,38.734365],[1.416725,38.733523],[1.415506,38.734128],[1.415187,38.733182],[1.421604,38.732868],[1.428533,38.738184],[1.430497,38.741805],[1.432095,38.747144],[1.430846,38.747248],[1.430513,38.749181],[1.432865,38.749447],[1.433485,38.752132],[1.431512,38.753723],[1.433659,38.755004],[1.435377,38.759447],[1.433219,38.771696],[1.434799,38.769559],[1.436015,38.759226],[1.439954,38.743811],[1.446691,38.732786],[1.449896,38.730264],[1.452068,38.73041],[1.452869,38.728966],[1.45402,38.729918],[1.455605,38.72947],[1.453987,38.727908],[1.456097,38.724926],[1.463737,38.72254]]],[[[1.482323,38.799134],[1.478762,38.795533],[1.480201,38.788028],[1.477761,38.789888],[1.474092,38.797423],[1.477692,38.805152],[1.478676,38.804881],[1.477515,38.800635],[1.481273,38.799121],[1.482323,38.799134]]],[[[1.496736,38.920114],[1.496654,38.920391],[1.496799,38.920655],[1.496736,38.920114]]],[[[1.50182,38.933098],[1.502099,38.933264],[1.501887,38.932909],[1.50182,38.933098]]],[[[1.506896,38.937205],[1.506846,38.936889],[1.506732,38.936978],[1.506896,38.937205]]],[[[1.52882,38.945451],[1.52883,38.94497],[1.528206,38.945356],[1.52882,38.945451]]],[[[1.577493,38.98191],[1.577616,38.981997],[1.577568,38.981862],[1.577493,38.98191]]],[[[1.577514,38.981997],[1.577548,38.981987],[1.577522,38.981952],[1.577514,38.981997]]],[[[1.578966,38.982294],[1.577816,38.981905],[1.578236,38.982684],[1.578966,38.982294]]],[[[1.582971,38.985181],[1.584278,38.986036],[1.584959,38.985351],[1.583824,38.982176],[1.582971,38.985181]],[[1.584474,38.984529],[1.584514,38.9844],[1.584562,38.984588],[1.584474,38.984529]]],[[[1.576649,38.984452],[1.576724,38.98436],[1.57663,38.984362],[1.576649,38.984452]]],[[[1.57655,38.984475],[1.576638,38.984518],[1.576601,38.984461],[1.57655,38.984475]]],[[[1.572909,38.986852],[1.572856,38.987141],[1.573185,38.986918],[1.572909,38.986852]]],[[[1.557051,38.990672],[1.557134,38.99053],[1.556992,38.990614],[1.557051,38.990672]]],[[[1.569232,38.990657],[1.569416,38.99067],[1.569702,38.99056],[1.569232,38.990657]]],[[[1.584675,38.999835],[1.584512,38.999971],[1.584703,39.000511],[1.584675,38.999835]]],[[[1.586894,39.00231],[1.586961,39.001062],[1.586372,39.001474],[1.586894,39.00231]]],[[[1.583205,39.003134],[1.583352,39.002956],[1.582822,39.003133],[1.583205,39.003134]]],[[[1.58366,39.003545],[1.583874,39.003386],[1.583647,39.00348],[1.58366,39.003545]]],[[[1.640437,39.039064],[1.646235,39.040617],[1.644953,39.036562],[1.648022,39.036246],[1.650434,39.032194],[1.647022,39.031935],[1.639853,39.034721],[1.641206,39.036321],[1.636492,39.041069],[1.641465,39.041558],[1.639332,39.040854],[1.640437,39.039064]]],[[[1.610486,39.040241],[1.610263,39.040197],[1.610421,39.040384],[1.610486,39.040241]]],[[[1.609896,39.040617],[1.610133,39.040904],[1.610199,39.040335],[1.609896,39.040617]]],[[[1.608256,39.044743],[1.607862,39.044418],[1.607751,39.04466],[1.608256,39.044743]]],[[[1.606377,39.046309],[1.606581,39.046963],[1.607086,39.046832],[1.606377,39.046309]]],[[[1.620172,39.049524],[1.620285,39.049566],[1.620514,39.049331],[1.620172,39.049524]]],[[[1.599861,39.05077],[1.59973,39.050539],[1.599677,39.050865],[1.599861,39.05077]]],[[[1.598608,39.050715],[1.598507,39.050614],[1.598469,39.05089],[1.598608,39.050715]]],[[[1.59803,39.051479],[1.597951,39.051506],[1.598057,39.051548],[1.59803,39.051479]]],[[[1.595056,39.054605],[1.595121,39.054589],[1.59509,39.054528],[1.595056,39.054605]]],[[[1.593729,39.054638],[1.593868,39.054655],[1.593841,39.05461],[1.593729,39.054638]]],[[[1.602188,39.054555],[1.602815,39.054891],[1.60265,39.054664],[1.602188,39.054555]]],[[[1.593911,39.054836],[1.593858,39.054762],[1.593781,39.054786],[1.593911,39.054836]]],[[[1.600683,39.055119],[1.600755,39.05496],[1.600667,39.054812],[1.600683,39.055119]]],[[[1.593841,39.055448],[1.593952,39.055436],[1.593908,39.055386],[1.593841,39.055448]]],[[[1.590882,39.05869],[1.59089,39.058544],[1.590775,39.058621],[1.590882,39.05869]]],[[[1.591185,39.059051],[1.591225,39.059261],[1.5913,39.059107],[1.591185,39.059051]]],[[[1.515874,39.116207],[1.513976,39.116471],[1.515598,39.116582],[1.518253,39.115228],[1.51664,39.114816],[1.515397,39.115277],[1.515874,39.116207]]],[[[2.421971,39.523794],[2.422054,39.523727],[2.421984,39.523736],[2.421971,39.523794]]],[[[2.42545,39.524559],[2.425479,39.524501],[2.425442,39.524496],[2.42545,39.524559]]],[[[2.430953,39.528718],[2.430918,39.528681],[2.430895,39.528704],[2.430953,39.528718]]],[[[2.348818,39.576492],[2.347118,39.576573],[2.347594,39.577945],[2.348818,39.576492]]],[[[2.421744,39.534115],[2.423711,39.536863],[2.422776,39.53739],[2.422365,39.536388],[2.422285,39.53764],[2.42059,39.537073],[2.418365,39.538747],[2.413581,39.538975],[2.412093,39.537346],[2.405907,39.536864],[2.407201,39.531014],[2.404633,39.526586],[2.387684,39.520812],[2.38565,39.521919],[2.386933,39.524214],[2.386266,39.525995],[2.388034,39.526076],[2.389218,39.527695],[2.388208,39.534033],[2.379782,39.532889],[2.376972,39.537487],[2.375733,39.536814],[2.376248,39.535114],[2.373265,39.534341],[2.371534,39.53143],[2.363726,39.531415],[2.362991,39.532943],[2.365138,39.533558],[2.367938,39.537898],[2.371261,39.538412],[2.371841,39.537325],[2.378642,39.539389],[2.384578,39.541916],[2.386933,39.5441],[2.386144,39.545159],[2.387582,39.544401],[2.390464,39.546209],[2.386164,39.548133],[2.384283,39.547609],[2.384425,39.546105],[2.384076,39.547383],[2.383236,39.546243],[2.382415,39.546959],[2.383825,39.545543],[2.382194,39.54694],[2.379036,39.546167],[2.379112,39.542842],[2.376896,39.544641],[2.372163,39.544301],[2.370886,39.546447],[2.367981,39.547278],[2.368422,39.552525],[2.366212,39.554883],[2.363641,39.553463],[2.360316,39.554346],[2.359243,39.557124],[2.354082,39.557636],[2.356041,39.559719],[2.355253,39.563112],[2.352682,39.564224],[2.349725,39.562937],[2.346438,39.564666],[2.351833,39.570391],[2.351407,39.572299],[2.35327,39.573562],[2.352383,39.575044],[2.354475,39.576677],[2.353286,39.578157],[2.349702,39.579119],[2.349219,39.58218],[2.347973,39.582236],[2.348654,39.584168],[2.346294,39.583669],[2.344607,39.587236],[2.347938,39.593463],[2.34704,39.594828],[2.349795,39.596582],[2.354946,39.596304],[2.355919,39.605599],[2.359018,39.605644],[2.361666,39.609037],[2.366392,39.61064],[2.368599,39.613895],[2.373332,39.612263],[2.376287,39.613964],[2.383495,39.613074],[2.389449,39.616926],[2.394679,39.616962],[2.394531,39.619322],[2.397975,39.62116],[2.39951,39.62015],[2.411433,39.62787],[2.415531,39.629701],[2.421656,39.630228],[2.42247,39.633277],[2.420874,39.635909],[2.423709,39.636932],[2.423092,39.638371],[2.425729,39.637979],[2.427888,39.638962],[2.431116,39.641834],[2.436173,39.643373],[2.436733,39.643303],[2.441408,39.644614],[2.442095,39.646113],[2.444857,39.646181],[2.447117,39.647768],[2.447136,39.6483],[2.448159,39.648656],[2.448539,39.649262],[2.450222,39.648684],[2.455378,39.651105],[2.46205,39.651902],[2.467172,39.657386],[2.471603,39.658694],[2.475192,39.662044],[2.476023,39.664616],[2.479252,39.666279],[2.482449,39.672222],[2.487607,39.671587],[2.49396,39.676571],[2.493968,39.680211],[2.498006,39.684589],[2.50316,39.686251],[2.507552,39.69028],[2.510101,39.689272],[2.514165,39.691866],[2.516134,39.690496],[2.517748,39.693206],[2.520122,39.693927],[2.527407,39.701381],[2.530333,39.701645],[2.541632,39.69869],[2.543019,39.700642],[2.54429,39.698971],[2.548576,39.699808],[2.5515,39.698575],[2.552258,39.700407],[2.555735,39.700286],[2.559344,39.703228],[2.561736,39.703074],[2.564123,39.70566],[2.566698,39.706129],[2.573663,39.71166],[2.587221,39.71725],[2.586795,39.718204],[2.588868,39.718752],[2.591458,39.722771],[2.596305,39.726013],[2.599568,39.732782],[2.615623,39.743702],[2.616004,39.744424],[2.618848,39.745191],[2.61995,39.746438],[2.622243,39.747571],[2.623447,39.749332],[2.623666,39.752054],[2.622898,39.753818],[2.621626,39.75576],[2.619233,39.755797],[2.622645,39.757232],[2.625566,39.752565],[2.627766,39.753644],[2.632563,39.762678],[2.635886,39.765599],[2.641296,39.760318],[2.641797,39.762644],[2.643005,39.761702],[2.645104,39.762087],[2.64639,39.764028],[2.64785,39.763879],[2.655328,39.769686],[2.659087,39.76994],[2.662146,39.772238],[2.66577,39.775703],[2.665244,39.778955],[2.663599,39.780423],[2.664936,39.780395],[2.667337,39.784263],[2.666542,39.78668],[2.669351,39.792396],[2.680011,39.79876],[2.683879,39.797203],[2.683685,39.793922],[2.689873,39.793502],[2.691093,39.790555],[2.694328,39.791221],[2.696664,39.793966],[2.695998,39.796618],[2.695,39.796012],[2.695754,39.797189],[2.693192,39.797854],[2.692207,39.796829],[2.693255,39.796264],[2.691097,39.79642],[2.691604,39.795223],[2.689022,39.796586],[2.68909,39.798023],[2.691587,39.798052],[2.693582,39.800202],[2.694333,39.804673],[2.698458,39.807927],[2.6995,39.810885],[2.700088,39.810117],[2.701426,39.81185],[2.702417,39.808519],[2.704192,39.808537],[2.714884,39.818186],[2.717029,39.817538],[2.718841,39.819669],[2.728337,39.82312],[2.727178,39.823775],[2.727651,39.825389],[2.732823,39.82668],[2.738515,39.82936],[2.741612,39.832458],[2.746193,39.832621],[2.746216,39.829414],[2.747858,39.827813],[2.754235,39.828854],[2.756845,39.83104],[2.762484,39.832511],[2.766285,39.835276],[2.765528,39.837834],[2.766577,39.838656],[2.765059,39.841626],[2.767124,39.842909],[2.770275,39.8406],[2.77625,39.839954],[2.773947,39.843617],[2.775601,39.849116],[2.774215,39.851195],[2.778677,39.85569],[2.782839,39.855824],[2.78673,39.85257],[2.790424,39.856505],[2.792411,39.856581],[2.799095,39.853574],[2.800061,39.851107],[2.802405,39.85303],[2.805515,39.852738],[2.805264,39.854648],[2.803544,39.855257],[2.804756,39.85671],[2.801781,39.858489],[2.804308,39.862205],[2.809114,39.861997],[2.809994,39.860755],[2.808889,39.858744],[2.815075,39.858205],[2.815791,39.857062],[2.819622,39.85859],[2.822827,39.857739],[2.824233,39.861039],[2.825051,39.856779],[2.827235,39.857557],[2.828035,39.860342],[2.835453,39.862659],[2.838299,39.865645],[2.842378,39.861182],[2.845112,39.861816],[2.848045,39.868136],[2.852169,39.869745],[2.853783,39.874865],[2.866539,39.875916],[2.875539,39.87835],[2.879133,39.882931],[2.887126,39.886831],[2.889201,39.891257],[2.893176,39.892125],[2.895535,39.894903],[2.904549,39.897794],[2.907124,39.897147],[2.908518,39.895265],[2.914949,39.897504],[2.917406,39.896722],[2.918552,39.897254],[2.919062,39.90148],[2.920465,39.902139],[2.922326,39.90069],[2.92483,39.900223],[2.936197,39.904041],[2.940799,39.912612],[2.94494,39.914136],[2.946154,39.9172],[2.950329,39.920211],[2.952214,39.919275],[2.953301,39.916737],[2.956294,39.916727],[2.957126,39.915167],[2.95987,39.915529],[2.96135,39.914023],[2.963681,39.914527],[2.962433,39.912451],[2.966084,39.910003],[2.970493,39.909012],[2.973667,39.910518],[2.975372,39.908878],[2.976259,39.909585],[2.976905,39.908793],[2.985214,39.908925],[2.987035,39.90935],[2.992079,39.914953],[2.994385,39.914915],[2.994297,39.917464],[2.995953,39.917071],[2.998739,39.919184],[3.001392,39.923666],[3.006122,39.92389],[3.007517,39.926137],[3.015441,39.928188],[3.027963,39.93487],[3.034551,39.934471],[3.03102,39.931693],[3.033227,39.930226],[3.037198,39.931931],[3.037054,39.933298],[3.042084,39.937745],[3.042707,39.936425],[3.037525,39.930795],[3.039404,39.929619],[3.043826,39.929452],[3.046842,39.931899],[3.049647,39.931713],[3.052179,39.933336],[3.057328,39.933657],[3.059049,39.931962],[3.061259,39.932573],[3.054806,39.921565],[3.056172,39.920831],[3.058978,39.922135],[3.057597,39.919974],[3.060254,39.91939],[3.065916,39.923058],[3.068706,39.922273],[3.069033,39.923108],[3.072439,39.92316],[3.073199,39.922077],[3.076234,39.924047],[3.080766,39.924786],[3.092686,39.934632],[3.099376,39.936006],[3.101711,39.935193],[3.094765,39.928737],[3.098617,39.927892],[3.105344,39.932021],[3.107318,39.931898],[3.109615,39.931177],[3.111932,39.932277],[3.113413,39.930961],[3.118026,39.935053],[3.119408,39.931302],[3.12203,39.931874],[3.131459,39.938227],[3.132617,39.944745],[3.1395,39.946905],[3.145679,39.9506],[3.146065,39.95326],[3.147879,39.954541],[3.156515,39.957679],[3.159403,39.957429],[3.159938,39.95566],[3.165614,39.959993],[3.171322,39.959724],[3.171748,39.958412],[3.174505,39.961668],[3.178148,39.962469],[3.18006,39.961023],[3.180203,39.958521],[3.173165,39.952094],[3.179658,39.951113],[3.190898,39.957783],[3.192798,39.957948],[3.192307,39.954551],[3.195992,39.954926],[3.20134,39.957353],[3.204799,39.957545],[3.213978,39.962825],[3.214928,39.962164],[3.21312,39.959341],[3.214623,39.958742],[3.213909,39.956147],[3.208454,39.952521],[3.205279,39.948589],[3.20566,39.947007],[3.202315,39.943876],[3.196069,39.94241],[3.19291,39.93982],[3.189426,39.943984],[3.187955,39.942989],[3.189149,39.942069],[3.188043,39.940113],[3.184269,39.939521],[3.180435,39.940535],[3.184375,39.937489],[3.178287,39.937337],[3.169389,39.931383],[3.163551,39.929962],[3.164654,39.928679],[3.154416,39.923129],[3.148661,39.92482],[3.145456,39.923918],[3.143114,39.926528],[3.138577,39.928024],[3.131386,39.926814],[3.129673,39.925316],[3.129343,39.919242],[3.127359,39.916769],[3.119849,39.914902],[3.118524,39.91224],[3.115838,39.910697],[3.111084,39.911831],[3.109839,39.911181],[3.108687,39.908115],[3.111273,39.904043],[3.110692,39.899224],[3.107345,39.906008],[3.105009,39.905474],[3.099706,39.907023],[3.102978,39.906803],[3.099756,39.909225],[3.098962,39.907697],[3.099086,39.909519],[3.096224,39.908882],[3.090641,39.911198],[3.087183,39.910302],[3.083215,39.906248],[3.088495,39.904676],[3.088096,39.90379],[3.085594,39.901893],[3.087312,39.903452],[3.086342,39.903803],[3.087518,39.903822],[3.086556,39.90417],[3.087712,39.90416],[3.086644,39.904546],[3.087931,39.904559],[3.085313,39.905429],[3.084707,39.904723],[3.083095,39.906072],[3.083862,39.904785],[3.082372,39.904866],[3.084111,39.90434],[3.082116,39.904484],[3.085803,39.904168],[3.084348,39.903688],[3.084628,39.902721],[3.081876,39.904139],[3.080897,39.902455],[3.081897,39.902011],[3.08014,39.902375],[3.081804,39.90178],[3.080199,39.901523],[3.078324,39.894564],[3.078774,39.88715],[3.082935,39.876818],[3.086904,39.870914],[3.090277,39.866397],[3.098838,39.859525],[3.104809,39.857654],[3.10931,39.858029],[3.111455,39.861486],[3.11542,39.862122],[3.115775,39.864564],[3.118381,39.864183],[3.118424,39.861831],[3.120657,39.861748],[3.120484,39.863153],[3.122322,39.864548],[3.12509,39.86295],[3.132094,39.86942],[3.134372,39.868337],[3.135244,39.865633],[3.136659,39.866063],[3.137814,39.864819],[3.141415,39.864661],[3.143313,39.866605],[3.143298,39.865073],[3.144224,39.866198],[3.1451,39.865567],[3.14294,39.867182],[3.14606,39.866331],[3.148857,39.867301],[3.149646,39.869832],[3.152375,39.872162],[3.157038,39.870984],[3.159145,39.871648],[3.159897,39.873169],[3.163862,39.87384],[3.166502,39.877521],[3.168537,39.877662],[3.170334,39.876029],[3.171886,39.879189],[3.173052,39.877863],[3.179766,39.883186],[3.182889,39.883199],[3.187049,39.886004],[3.189259,39.886099],[3.18987,39.887125],[3.187616,39.888147],[3.188287,39.889822],[3.19003,39.889963],[3.190271,39.892296],[3.194508,39.893262],[3.196096,39.892404],[3.198757,39.890543],[3.20021,39.891261],[3.201259,39.890043],[3.20333,39.890346],[3.204377,39.888551],[3.201311,39.887872],[3.192498,39.881706],[3.188183,39.88165],[3.188491,39.879073],[3.190603,39.877285],[3.186977,39.876958],[3.188664,39.87364],[3.184224,39.870818],[3.185953,39.870022],[3.186671,39.863263],[3.188035,39.861973],[3.197297,39.862777],[3.197236,39.861714],[3.194779,39.857195],[3.188626,39.851529],[3.187036,39.851379],[3.186035,39.848623],[3.178709,39.840715],[3.175505,39.840486],[3.174074,39.838245],[3.169104,39.83718],[3.164317,39.839079],[3.159625,39.836923],[3.157138,39.83771],[3.143771,39.833997],[3.14081,39.831884],[3.143398,39.834412],[3.140855,39.836695],[3.137941,39.834644],[3.14068,39.836758],[3.137669,39.839032],[3.135868,39.838323],[3.136971,39.840502],[3.133395,39.840921],[3.132092,39.838039],[3.134941,39.836738],[3.132195,39.836858],[3.130282,39.838636],[3.132928,39.841218],[3.128941,39.840619],[3.123043,39.836022],[3.120078,39.831529],[3.117188,39.822648],[3.116954,39.815638],[3.11716,39.814354],[3.120567,39.802728],[3.121284,39.801614],[3.123229,39.802004],[3.119151,39.800463],[3.123811,39.801981],[3.122342,39.801185],[3.122821,39.799757],[3.129955,39.788117],[3.144975,39.773804],[3.15275,39.767974],[3.158061,39.765471],[3.158569,39.766745],[3.158564,39.765425],[3.159444,39.766366],[3.15893,39.765321],[3.15968,39.766181],[3.159266,39.765226],[3.159986,39.765978],[3.159594,39.765131],[3.160161,39.76582],[3.161743,39.764691],[3.159252,39.767222],[3.163871,39.762949],[3.166423,39.762833],[3.17064,39.759245],[3.173954,39.75906],[3.177709,39.756113],[3.182263,39.755651],[3.187754,39.752997],[3.189512,39.753972],[3.190355,39.751871],[3.197974,39.7482],[3.200738,39.747579],[3.201873,39.748387],[3.202768,39.747143],[3.206073,39.746452],[3.212951,39.741241],[3.218124,39.739663],[3.220236,39.740281],[3.231113,39.734998],[3.236732,39.732103],[3.243653,39.730386],[3.254409,39.729615],[3.256967,39.733376],[3.260557,39.735377],[3.262655,39.734651],[3.262604,39.733543],[3.265513,39.734474],[3.266023,39.733526],[3.271834,39.73627],[3.274704,39.736182],[3.27655,39.739566],[3.282705,39.740605],[3.285643,39.739904],[3.288826,39.744915],[3.294009,39.747749],[3.296212,39.747094],[3.298191,39.748603],[3.300838,39.747983],[3.300333,39.749868],[3.302773,39.749888],[3.303153,39.751527],[3.304295,39.751155],[3.307871,39.754614],[3.317841,39.757308],[3.320439,39.756211],[3.322153,39.758224],[3.325794,39.757989],[3.330865,39.761362],[3.330414,39.764715],[3.333958,39.766165],[3.335818,39.769322],[3.335265,39.773225],[3.334127,39.774471],[3.332781,39.7738],[3.332005,39.775135],[3.334558,39.77675],[3.33506,39.783884],[3.343103,39.787798],[3.3484,39.789071],[3.356896,39.781251],[3.358332,39.781166],[3.359465,39.778883],[3.364648,39.776398],[3.367802,39.776739],[3.371574,39.774646],[3.371508,39.773177],[3.373317,39.773054],[3.373988,39.771773],[3.373841,39.768439],[3.385198,39.763708],[3.387176,39.76463],[3.392345,39.763982],[3.396191,39.764824],[3.399494,39.76266],[3.40402,39.763977],[3.405845,39.760746],[3.404539,39.75902],[3.409303,39.759247],[3.40985,39.756893],[3.412167,39.755948],[3.411492,39.754256],[3.413824,39.753888],[3.413371,39.752358],[3.416735,39.752589],[3.417644,39.750567],[3.420803,39.751655],[3.42046,39.75099],[3.420887,39.751768],[3.425785,39.751745],[3.43032,39.7493],[3.432207,39.745099],[3.43534,39.744164],[3.439432,39.745392],[3.450569,39.743358],[3.459301,39.746873],[3.459785,39.748453],[3.46135,39.748046],[3.457276,39.744097],[3.458577,39.741191],[3.461471,39.740815],[3.461764,39.738205],[3.460064,39.738644],[3.458139,39.737472],[3.457547,39.733334],[3.45275,39.729352],[3.45207,39.7259],[3.456696,39.728035],[3.452205,39.72489],[3.452297,39.72298],[3.454385,39.720831],[3.456598,39.721661],[3.45677,39.720786],[3.458969,39.720998],[3.459121,39.720002],[3.460569,39.720843],[3.461186,39.719881],[3.462408,39.721174],[3.465759,39.72012],[3.466953,39.721038],[3.470623,39.720632],[3.47139,39.721912],[3.473105,39.719698],[3.476147,39.720176],[3.476691,39.71653],[3.478682,39.716143],[3.477733,39.714615],[3.476023,39.714933],[3.477632,39.712863],[3.475493,39.712147],[3.474669,39.709321],[3.474448,39.710651],[3.469767,39.712981],[3.469336,39.711383],[3.463,39.708963],[3.463583,39.710307],[3.465321,39.71053],[3.463078,39.711237],[3.461148,39.707776],[3.456611,39.705438],[3.456298,39.700493],[3.454879,39.700224],[3.456175,39.698822],[3.455846,39.69576],[3.453365,39.693121],[3.454793,39.688876],[3.457716,39.689396],[3.458023,39.684448],[3.456795,39.683165],[3.453682,39.683591],[3.452349,39.682114],[3.456794,39.679786],[3.452707,39.67445],[3.456643,39.672556],[3.45721,39.670792],[3.452467,39.669518],[3.452729,39.667774],[3.454804,39.667112],[3.453424,39.662928],[3.454623,39.66081],[3.456105,39.66139],[3.45588,39.655854],[3.453463,39.654553],[3.448994,39.65621],[3.447585,39.655463],[3.4467,39.656836],[3.443073,39.65758],[3.440856,39.656237],[3.437817,39.648369],[3.436572,39.647964],[3.438882,39.643905],[3.438117,39.640011],[3.435264,39.637062],[3.436389,39.634478],[3.434203,39.632755],[3.430256,39.633292],[3.429884,39.632365],[3.426798,39.632196],[3.413533,39.634947],[3.412735,39.636779],[3.410045,39.637712],[3.40447,39.636074],[3.396979,39.628504],[3.395953,39.624039],[3.393032,39.620715],[3.394374,39.619728],[3.392567,39.619464],[3.391927,39.617971],[3.393037,39.614624],[3.392407,39.615189],[3.391428,39.613918],[3.393415,39.614334],[3.393067,39.612876],[3.391895,39.612898],[3.39268,39.61149],[3.391388,39.611413],[3.392428,39.610761],[3.390492,39.610312],[3.391868,39.609474],[3.38662,39.60332],[3.385756,39.600047],[3.385042,39.595184],[3.386725,39.587898],[3.393256,39.585471],[3.394608,39.583556],[3.398772,39.582821],[3.401991,39.583576],[3.403796,39.579713],[3.399937,39.57678],[3.395973,39.575803],[3.391985,39.576798],[3.379627,39.576109],[3.375615,39.572563],[3.37687,39.569946],[3.374911,39.569394],[3.373349,39.566993],[3.37356,39.564947],[3.375745,39.564364],[3.374075,39.562562],[3.375161,39.559752],[3.373118,39.558335],[3.37288,39.556191],[3.370811,39.557802],[3.366979,39.556098],[3.369599,39.554305],[3.367735,39.552108],[3.368396,39.550845],[3.360903,39.551301],[3.359214,39.548923],[3.354121,39.547456],[3.353067,39.548288],[3.353501,39.547291],[3.355496,39.546938],[3.355581,39.546478],[3.341098,39.541224],[3.340452,39.537725],[3.338232,39.538507],[3.338175,39.541719],[3.332818,39.538536],[3.331875,39.540476],[3.332633,39.537703],[3.33681,39.540385],[3.336523,39.536637],[3.340322,39.534847],[3.338018,39.534317],[3.336157,39.532192],[3.331962,39.532704],[3.33386,39.531432],[3.32422,39.525882],[3.322024,39.522136],[3.319227,39.52126],[3.317539,39.522445],[3.317051,39.52078],[3.314745,39.520926],[3.317257,39.518774],[3.316802,39.517866],[3.315145,39.516428],[3.311086,39.516836],[3.312701,39.514281],[3.306074,39.507555],[3.299986,39.503818],[3.301761,39.50066],[3.296243,39.499836],[3.296894,39.4981],[3.299723,39.498029],[3.298515,39.496924],[3.296676,39.497546],[3.296791,39.494667],[3.292171,39.494296],[3.294408,39.493227],[3.291765,39.491359],[3.294144,39.490858],[3.294495,39.487514],[3.293144,39.484855],[3.287729,39.486283],[3.288405,39.484768],[3.286592,39.484074],[3.290205,39.483457],[3.286631,39.482691],[3.291248,39.481035],[3.289983,39.477817],[3.287894,39.474709],[3.286123,39.475159],[3.286961,39.472814],[3.283967,39.470983],[3.284328,39.469095],[3.282398,39.468983],[3.283308,39.467079],[3.279698,39.466705],[3.282686,39.464905],[3.280452,39.463414],[3.281742,39.462379],[3.280541,39.45817],[3.277682,39.456969],[3.279767,39.455261],[3.276838,39.452124],[3.278606,39.451498],[3.277111,39.438864],[3.276083,39.43155],[3.27255,39.428405],[3.274908,39.428354],[3.277023,39.425403],[3.274392,39.418335],[3.27486,39.416019],[3.27304,39.414149],[3.270205,39.414083],[3.270966,39.418551],[3.268276,39.419873],[3.266193,39.428005],[3.265414,39.424898],[3.263129,39.425885],[3.260972,39.423944],[3.262856,39.421354],[3.26214,39.419184],[3.259371,39.418289],[3.258934,39.416181],[3.262891,39.415118],[3.265919,39.417175],[3.268273,39.41607],[3.266011,39.413732],[3.264327,39.413808],[3.264759,39.411311],[3.2632,39.410828],[3.261834,39.411886],[3.260955,39.409869],[3.25869,39.410019],[3.260358,39.408699],[3.26338,39.409179],[3.25847,39.403838],[3.25416,39.403658],[3.256516,39.402995],[3.252484,39.399427],[3.25438,39.400134],[3.253371,39.397352],[3.254639,39.394863],[3.250148,39.392584],[3.248351,39.3932],[3.250192,39.391637],[3.252413,39.392642],[3.252677,39.391857],[3.250514,39.390862],[3.250525,39.387384],[3.247862,39.386443],[3.246987,39.388481],[3.246005,39.3866],[3.247718,39.384948],[3.248869,39.38536],[3.248152,39.383037],[3.243729,39.376693],[3.241986,39.37612],[3.241835,39.379509],[3.240914,39.378429],[3.239921,39.379873],[3.239473,39.377048],[3.24001,39.375282],[3.237248,39.376126],[3.2405,39.373488],[3.237143,39.369444],[3.233018,39.373012],[3.233665,39.369168],[3.230104,39.371103],[3.23142,39.368595],[3.228692,39.368164],[3.223093,39.370846],[3.223475,39.373157],[3.222137,39.37302],[3.223446,39.369111],[3.224332,39.369853],[3.223913,39.368759],[3.225046,39.369626],[3.227074,39.368802],[3.228849,39.366069],[3.234899,39.36744],[3.234641,39.365224],[3.231415,39.36441],[3.233847,39.363995],[3.229277,39.35899],[3.22678,39.358409],[3.224381,39.361022],[3.225262,39.358097],[3.223647,39.356838],[3.221976,39.357589],[3.219997,39.356935],[3.220494,39.359291],[3.216035,39.357772],[3.216216,39.361659],[3.212475,39.362383],[3.211015,39.364782],[3.211342,39.360799],[3.208279,39.360998],[3.212241,39.359833],[3.211039,39.357384],[3.208623,39.357821],[3.20927,39.355613],[3.21291,39.356575],[3.215335,39.35498],[3.202236,39.350728],[3.197063,39.351268],[3.1972,39.35262],[3.193417,39.35122],[3.19243,39.351208],[3.19293,39.35246],[3.191546,39.351998],[3.191497,39.350156],[3.188827,39.350241],[3.188824,39.351971],[3.185421,39.350409],[3.192264,39.346167],[3.189058,39.343794],[3.186985,39.338611],[3.189365,39.338342],[3.186688,39.335075],[3.182228,39.335424],[3.179287,39.334352],[3.180219,39.331053],[3.177277,39.329336],[3.174335,39.329728],[3.16933,39.333471],[3.17001,39.331938],[3.167383,39.331874],[3.172546,39.330402],[3.173837,39.327864],[3.170942,39.326449],[3.160391,39.32581],[3.158753,39.326795],[3.154744,39.326431],[3.151806,39.327863],[3.148912,39.32702],[3.146309,39.330199],[3.145869,39.326222],[3.140595,39.325683],[3.141343,39.324551],[3.139197,39.324252],[3.142375,39.323698],[3.142615,39.320625],[3.137527,39.316843],[3.133401,39.315888],[3.132039,39.314056],[3.129665,39.313477],[3.12454,39.31606],[3.121542,39.313792],[3.12319,39.313187],[3.120977,39.312094],[3.1181,39.313147],[3.115448,39.308577],[3.110859,39.304936],[3.110042,39.302252],[3.107072,39.302426],[3.10641,39.300836],[3.104717,39.30082],[3.103393,39.29696],[3.097505,39.292653],[3.095004,39.292479],[3.096084,39.291857],[3.095598,39.290136],[3.093662,39.288705],[3.090279,39.28923],[3.09178,39.287053],[3.087883,39.284096],[3.087145,39.28183],[3.084504,39.280913],[3.080498,39.277131],[3.080256,39.274946],[3.077371,39.273782],[3.073294,39.268815],[3.068767,39.26674],[3.055679,39.264423],[3.050221,39.265574],[3.043037,39.273615],[3.043458,39.274601],[3.04165,39.274746],[3.043831,39.276561],[3.042221,39.279616],[3.037346,39.279501],[3.037888,39.280591],[3.030193,39.282566],[3.029428,39.285117],[3.027698,39.285514],[3.031019,39.288522],[3.02951,39.289752],[3.026049,39.287776],[3.023888,39.288848],[3.021858,39.292904],[3.019911,39.293337],[3.017589,39.295991],[3.018594,39.29809],[3.017448,39.298897],[3.02003,39.301239],[3.019764,39.304262],[3.01586,39.306642],[3.013639,39.310611],[3.010698,39.310783],[3.009135,39.312441],[3.006382,39.311585],[3.004938,39.312229],[3.005487,39.314225],[3.003909,39.316987],[2.999082,39.317595],[2.997047,39.315194],[2.999563,39.315518],[2.993314,39.312162],[2.992016,39.312865],[2.993741,39.313356],[2.993781,39.314874],[2.986029,39.315955],[2.986228,39.317563],[2.984479,39.317991],[2.986674,39.318901],[2.987098,39.321199],[2.984129,39.321365],[2.984286,39.324857],[2.986624,39.325457],[2.98612,39.326466],[2.988605,39.325065],[2.991482,39.332319],[2.990124,39.333373],[2.991226,39.335482],[2.990274,39.337806],[2.983449,39.345483],[2.974464,39.352897],[2.972085,39.352626],[2.972096,39.353851],[2.968777,39.354806],[2.965699,39.358598],[2.956921,39.362821],[2.955807,39.362992],[2.953267,39.360297],[2.955366,39.362911],[2.952547,39.360648],[2.951397,39.361107],[2.953627,39.359702],[2.952466,39.359675],[2.938626,39.364192],[2.930907,39.364088],[2.91914,39.361125],[2.919594,39.360153],[2.917784,39.359421],[2.920163,39.359829],[2.918702,39.358683],[2.917215,39.359439],[2.914593,39.358581],[2.91446,39.352994],[2.913185,39.352029],[2.908192,39.35408],[2.908943,39.356523],[2.901281,39.357625],[2.89883,39.358965],[2.898119,39.360956],[2.895053,39.361845],[2.89293,39.361149],[2.887027,39.365145],[2.881604,39.366216],[2.87472,39.362775],[2.871212,39.363486],[2.859989,39.362832],[2.859684,39.363867],[2.855856,39.362916],[2.852117,39.365416],[2.844453,39.36593],[2.834912,39.360943],[2.836056,39.364149],[2.833897,39.36244],[2.833425,39.360015],[2.829934,39.358924],[2.831866,39.358238],[2.828939,39.356123],[2.81745,39.358629],[2.81074,39.363416],[2.809427,39.365682],[2.806012,39.367166],[2.79863,39.363434],[2.790141,39.362104],[2.787089,39.363039],[2.784946,39.368388],[2.773284,39.377434],[2.773621,39.379791],[2.770794,39.383725],[2.759402,39.388833],[2.753764,39.392784],[2.746074,39.4007],[2.743706,39.405805],[2.742035,39.406479],[2.739576,39.411256],[2.739454,39.416034],[2.743623,39.428312],[2.746432,39.432187],[2.745881,39.433895],[2.747946,39.437424],[2.746428,39.439454],[2.747244,39.441564],[2.743986,39.445057],[2.743015,39.447258],[2.744135,39.448679],[2.742013,39.449811],[2.740504,39.453847],[2.736699,39.458233],[2.735123,39.457912],[2.730327,39.462503],[2.72832,39.467762],[2.726834,39.468315],[2.721886,39.4761],[2.726801,39.480162],[2.733978,39.482506],[2.733861,39.483883],[2.735797,39.484696],[2.734846,39.485811],[2.736964,39.487143],[2.735921,39.489402],[2.737183,39.492579],[2.747836,39.498334],[2.745338,39.500329],[2.746874,39.502651],[2.745593,39.500373],[2.746759,39.500718],[2.747984,39.499234],[2.748806,39.500271],[2.747403,39.500454],[2.747559,39.501685],[2.751171,39.499489],[2.747827,39.503052],[2.748737,39.502103],[2.750683,39.501172],[2.749285,39.501985],[2.75058,39.502668],[2.751272,39.503784],[2.752981,39.503819],[2.75099,39.50405],[2.748881,39.510252],[2.744126,39.516252],[2.727588,39.530669],[2.719911,39.534997],[2.717106,39.534228],[2.716732,39.53372],[2.717079,39.533521],[2.717537,39.53275],[2.716861,39.532195],[2.71587,39.532253],[2.716857,39.532352],[2.717193,39.532698],[2.717002,39.533475],[2.715224,39.534223],[2.716088,39.533548],[2.714829,39.533727],[2.716565,39.532988],[2.715327,39.533493],[2.716348,39.532715],[2.71499,39.533289],[2.715568,39.532578],[2.714619,39.532851],[2.716203,39.531351],[2.713396,39.533209],[2.713264,39.534775],[2.712144,39.5347],[2.712444,39.533412],[2.711061,39.533679],[2.709153,39.534869],[2.710412,39.536329],[2.708354,39.536552],[2.705428,39.54024],[2.700435,39.542651],[2.700331,39.543805],[2.696517,39.543911],[2.698092,39.545788],[2.696313,39.547804],[2.695015,39.547927],[2.695278,39.546663],[2.695057,39.547709],[2.694153,39.547381],[2.694891,39.546249],[2.689271,39.548256],[2.691444,39.548848],[2.689261,39.552637],[2.674993,39.557886],[2.67522,39.558664],[2.674425,39.558282],[2.674992,39.557594],[2.671919,39.560196],[2.66921,39.558861],[2.6685,39.560499],[2.670594,39.560508],[2.669421,39.562624],[2.667129,39.560399],[2.668296,39.558709],[2.666869,39.560498],[2.665518,39.559661],[2.665582,39.561004],[2.658755,39.563594],[2.658062,39.562958],[2.657979,39.563855],[2.650612,39.564222],[2.645317,39.565763],[2.634472,39.559147],[2.633081,39.561138],[2.635833,39.562527],[2.634998,39.563506],[2.636415,39.562825],[2.638856,39.564065],[2.638094,39.564705],[2.639616,39.564351],[2.641259,39.565192],[2.640719,39.565907],[2.644127,39.567073],[2.641427,39.568864],[2.640569,39.566591],[2.639419,39.566036],[2.640078,39.56658],[2.639398,39.567009],[2.638302,39.566543],[2.637671,39.567196],[2.639335,39.567711],[2.638725,39.568506],[2.632901,39.565885],[2.633551,39.567333],[2.638995,39.568658],[2.632678,39.568449],[2.630386,39.567261],[2.630458,39.565903],[2.629518,39.566407],[2.627586,39.561645],[2.628999,39.56113],[2.627571,39.561591],[2.627081,39.559889],[2.629769,39.560012],[2.629916,39.556851],[2.629698,39.559296],[2.627061,39.559809],[2.628562,39.558739],[2.626926,39.559012],[2.628285,39.558078],[2.626756,39.558334],[2.625963,39.557041],[2.628554,39.557411],[2.628472,39.555766],[2.628359,39.556855],[2.625922,39.556935],[2.624475,39.554564],[2.626,39.554006],[2.627266,39.556083],[2.62651,39.554245],[2.63109,39.55293],[2.627348,39.552868],[2.624399,39.550249],[2.619746,39.550569],[2.619922,39.549571],[2.62498,39.548339],[2.625201,39.54578],[2.632156,39.545612],[2.639121,39.550406],[2.639453,39.552617],[2.639415,39.550407],[2.632175,39.545079],[2.619087,39.544907],[2.615468,39.548853],[2.611009,39.549413],[2.607845,39.552285],[2.605395,39.552254],[2.603415,39.550685],[2.600385,39.550972],[2.599393,39.549191],[2.597327,39.548929],[2.598045,39.547896],[2.600495,39.548977],[2.597989,39.547587],[2.595709,39.546765],[2.597162,39.543504],[2.589369,39.534566],[2.590406,39.531114],[2.588566,39.533455],[2.587021,39.533584],[2.584998,39.532753],[2.5839,39.533082],[2.583219,39.532197],[2.58213,39.532842],[2.581544,39.532146],[2.579196,39.531709],[2.576251,39.533735],[2.575695,39.531259],[2.572016,39.531724],[2.570865,39.529642],[2.564828,39.528061],[2.563479,39.528394],[2.570525,39.529799],[2.571254,39.531126],[2.570005,39.531653],[2.570364,39.530384],[2.569541,39.531557],[2.56994,39.530175],[2.569058,39.531465],[2.569473,39.530025],[2.568487,39.531355],[2.568915,39.52986],[2.567767,39.531217],[2.567945,39.529744],[2.566807,39.531276],[2.567463,39.529517],[2.566612,39.531519],[2.56531,39.531266],[2.565442,39.529356],[2.56503,39.531797],[2.561618,39.532009],[2.554073,39.528611],[2.554053,39.525966],[2.553067,39.525976],[2.553477,39.525761],[2.552222,39.524724],[2.552276,39.526847],[2.551124,39.527049],[2.549131,39.525731],[2.546466,39.526094],[2.545192,39.523864],[2.541497,39.523935],[2.542346,39.524533],[2.541244,39.524848],[2.538663,39.523234],[2.539327,39.521412],[2.537179,39.520417],[2.536758,39.517676],[2.538506,39.516678],[2.538742,39.513183],[2.54604,39.512284],[2.547265,39.511185],[2.543316,39.508633],[2.540654,39.509546],[2.537551,39.508493],[2.533998,39.505276],[2.534827,39.501806],[2.537101,39.500517],[2.536728,39.496393],[2.534005,39.495243],[2.536125,39.495003],[2.537151,39.493358],[2.536598,39.487909],[2.535316,39.486395],[2.532885,39.487512],[2.53348,39.485054],[2.532308,39.483784],[2.530491,39.483826],[2.531469,39.483019],[2.529712,39.479871],[2.52561,39.479039],[2.526657,39.476818],[2.525896,39.474355],[2.524805,39.473918],[2.524871,39.475013],[2.52072,39.476244],[2.520661,39.472135],[2.523986,39.471869],[2.522201,39.467758],[2.522311,39.463514],[2.521287,39.462451],[2.519142,39.462564],[2.524413,39.460581],[2.521697,39.456488],[2.521188,39.458306],[2.518888,39.457558],[2.517236,39.458704],[2.512728,39.45905],[2.509739,39.458294],[2.505977,39.462338],[2.501194,39.461146],[2.499747,39.468172],[2.499093,39.468039],[2.499503,39.46837],[2.498669,39.468848],[2.497653,39.468682],[2.497681,39.469326],[2.49388,39.470958],[2.49401,39.47159],[2.491543,39.471773],[2.491606,39.472309],[2.490429,39.472912],[2.485247,39.472353],[2.476101,39.466217],[2.482057,39.476056],[2.477945,39.477574],[2.476161,39.483616],[2.477532,39.48519],[2.476799,39.490643],[2.478311,39.487685],[2.478843,39.490368],[2.47785,39.490575],[2.479151,39.491933],[2.47278,39.493688],[2.467645,39.490457],[2.465605,39.494493],[2.467534,39.494646],[2.46698,39.495811],[2.462394,39.499101],[2.459347,39.498902],[2.460902,39.504176],[2.458655,39.50499],[2.455796,39.504387],[2.459798,39.507505],[2.459327,39.5098],[2.465229,39.51359],[2.4676,39.509325],[2.46877,39.510402],[2.470067,39.509845],[2.465843,39.512984],[2.472955,39.511818],[2.472455,39.512672],[2.474376,39.513865],[2.478909,39.513706],[2.479469,39.517799],[2.479063,39.518572],[2.472696,39.518746],[2.472852,39.519549],[2.466842,39.518918],[2.466709,39.521075],[2.468337,39.522272],[2.466481,39.522579],[2.46494,39.525923],[2.462731,39.525864],[2.462245,39.52697],[2.462397,39.528462],[2.458478,39.53093],[2.459257,39.531497],[2.457889,39.532275],[2.458404,39.53284],[2.45899,39.532654],[2.458942,39.533352],[2.455572,39.53503],[2.451933,39.534729],[2.452774,39.53613],[2.450015,39.537058],[2.447945,39.535156],[2.440085,39.533533],[2.439473,39.532003],[2.43798,39.532568],[2.438996,39.52923],[2.44054,39.528809],[2.434808,39.527029],[2.4307,39.529113],[2.430698,39.527049],[2.428052,39.527739],[2.424161,39.523539],[2.421985,39.524015],[2.41903,39.52327],[2.423512,39.531339],[2.421744,39.534115]],[[3.231019,39.73503],[3.231029,39.735007],[3.231113,39.734998],[3.231019,39.73503]],[[2.495043,39.470571],[2.495,39.470544],[2.495061,39.470531],[2.495043,39.470571]],[[2.494953,39.470598],[2.494906,39.470607],[2.494941,39.470567],[2.494953,39.470598]],[[2.531515,39.484037],[2.531482,39.483992],[2.531533,39.483965],[2.531515,39.484037]],[[2.464056,39.498077],[2.464051,39.49814],[2.464028,39.498077],[2.464056,39.498077]],[[2.462019,39.499099],[2.461994,39.499149],[2.461939,39.499139],[2.462019,39.499099]],[[2.461102,39.503285],[2.461008,39.503258],[2.46114,39.503209],[2.461102,39.503285]],[[2.462554,39.526588],[2.462522,39.526602],[2.462535,39.526579],[2.462554,39.526588]],[[2.46237,39.52679],[2.46237,39.526763],[2.462388,39.52679],[2.46237,39.52679]],[[2.462438,39.52812],[2.462447,39.528138],[2.462413,39.52811],[2.462438,39.52812]],[[2.452305,39.53497],[2.45237,39.535087],[2.452286,39.535024],[2.452305,39.53497]]],[[[2.304656,39.576426],[2.307919,39.580788],[2.316244,39.585622],[2.322619,39.592237],[2.332324,39.59551],[2.337128,39.59861],[2.339007,39.598107],[2.337289,39.596331],[2.333926,39.588761],[2.329509,39.586646],[2.328324,39.587612],[2.318487,39.576508],[2.313247,39.574224],[2.309409,39.573841],[2.307895,39.574986],[2.307938,39.573049],[2.306315,39.572318],[2.303725,39.572807],[2.304656,39.576426]]],[[[2.420712,39.635881],[2.420794,39.635828],[2.420561,39.635763],[2.420712,39.635881]]],[[[2.420604,39.636196],[2.420755,39.636251],[2.420663,39.636097],[2.420604,39.636196]]],[[[2.424045,39.638682],[2.424324,39.638665],[2.424244,39.638575],[2.424045,39.638682]]],[[[2.427058,39.639256],[2.427338,39.639275],[2.427339,39.639131],[2.427058,39.639256]]],[[[2.435072,39.644124],[2.435246,39.644134],[2.435177,39.644044],[2.435072,39.644124]]],[[[2.435108,39.645332],[2.435318,39.645297],[2.435191,39.645242],[2.435108,39.645332]]],[[[2.508922,39.459025],[2.50881,39.459079],[2.50896,39.459107],[2.508922,39.459025]]],[[[2.472432,39.46283],[2.471095,39.461648],[2.471958,39.462819],[2.472432,39.46283]]],[[[2.472682,39.463327],[2.472785,39.463152],[2.472579,39.46307],[2.472682,39.463327]]],[[[2.474682,39.464859],[2.47481,39.464796],[2.474536,39.464759],[2.474682,39.464859]]],[[[2.474466,39.464822],[2.474751,39.46585],[2.47535,39.465677],[2.474466,39.464822]]],[[[2.475807,39.466125],[2.475645,39.465809],[2.475515,39.466043],[2.475807,39.466125]]],[[[2.522643,39.468336],[2.522628,39.468395],[2.522675,39.468418],[2.522643,39.468336]]],[[[2.52672,39.47553],[2.526772,39.475359],[2.526684,39.475395],[2.52672,39.47553]]],[[[2.540917,39.478069],[2.540535,39.477856],[2.541099,39.479066],[2.540917,39.478069]]],[[[2.532154,39.483612],[2.532138,39.483715],[2.532191,39.483607],[2.532154,39.483612]]],[[[2.476952,39.484715],[2.476875,39.484728],[2.476938,39.4848],[2.476952,39.484715]]],[[[2.477296,39.485378],[2.47725,39.485378],[2.477256,39.48541],[2.477296,39.485378]]],[[[2.476937,39.485485],[2.476984,39.485508],[2.477002,39.485472],[2.476937,39.485485]]],[[[2.533544,39.486356],[2.533484,39.486054],[2.533349,39.486473],[2.533544,39.486356]]],[[[2.536035,39.48693],[2.53593,39.486808],[2.535945,39.486929],[2.536035,39.48693]]],[[[2.536355,39.487368],[2.536419,39.487463],[2.53642,39.487332],[2.536355,39.487368]]],[[[2.465931,39.494734],[2.465811,39.494747],[2.465882,39.494765],[2.465931,39.494734]]],[[[2.454764,39.501138],[2.447575,39.495297],[2.450974,39.499818],[2.454764,39.501138]],[[2.451683,39.498952],[2.451713,39.498948],[2.451697,39.499002],[2.451683,39.498952]],[[2.451592,39.499024],[2.451631,39.499028],[2.451591,39.499042],[2.451592,39.499024]]],[[[2.462987,39.498568],[2.463015,39.498518],[2.462955,39.498568],[2.462987,39.498568]]],[[[2.449895,39.498723],[2.449827,39.498655],[2.449796,39.4987],[2.449895,39.498723]]],[[[2.455462,39.502849],[2.456429,39.501912],[2.455063,39.502],[2.455462,39.502849]]],[[[2.54521,39.502581],[2.543133,39.505024],[2.544318,39.505118],[2.546986,39.502628],[2.54521,39.502581]]],[[[2.455788,39.504161],[2.455852,39.504044],[2.455646,39.504084],[2.455788,39.504161]]],[[[2.470566,39.51929],[2.470579,39.519277],[2.470568,39.519272],[2.470566,39.51929]]],[[[2.468021,39.522275],[2.467922,39.522288],[2.468026,39.52232],[2.468021,39.522275]]],[[[2.466527,39.522471],[2.46645,39.522353],[2.466398,39.52256],[2.466527,39.522471]]],[[[2.553646,39.525856],[2.553792,39.525663],[2.553539,39.525649],[2.553646,39.525856]]],[[[2.462162,39.526212],[2.462255,39.526384],[2.462377,39.526087],[2.462162,39.526212]]],[[[2.462193,39.527019],[2.462202,39.526992],[2.462176,39.526997],[2.462193,39.527019]]],[[[2.462184,39.52751],[2.462168,39.527506],[2.462156,39.527528],[2.462184,39.52751]]],[[[2.462288,39.527592],[2.462251,39.527619],[2.462258,39.527659],[2.462288,39.527592]]],[[[2.462321,39.527768],[2.462302,39.527781],[2.462321,39.527777],[2.462321,39.527768]]],[[[2.462284,39.527808],[2.462302,39.527799],[2.462287,39.527799],[2.462284,39.527808]]],[[[2.458336,39.531565],[2.458729,39.53167],[2.458468,39.531313],[2.458336,39.531565]]],[[[2.440434,39.533188],[2.440434,39.533107],[2.440207,39.533146],[2.440434,39.533188]]],[[[2.435444,39.645586],[2.435282,39.645504],[2.43535,39.645684],[2.435444,39.645586]]],[[[2.436035,39.646039],[2.43576,39.645497],[2.435732,39.646083],[2.436035,39.646039]]],[[[2.436184,39.646292],[2.436382,39.646374],[2.436454,39.646158],[2.436184,39.646292]]],[[[2.44433,39.646493],[2.444562,39.646576],[2.444494,39.646377],[2.44433,39.646493]]],[[[2.445388,39.646832],[2.444773,39.646396],[2.445038,39.646848],[2.445388,39.646832]]],[[[2.444642,39.646846],[2.444444,39.646818],[2.444571,39.646927],[2.444642,39.646846]]],[[[2.445199,39.647164],[2.445361,39.647201],[2.445362,39.647093],[2.445199,39.647164]]],[[[2.445723,39.647122],[2.445769,39.64723],[2.445956,39.647159],[2.445723,39.647122]]],[[[2.445418,39.647373],[2.445558,39.647436],[2.445593,39.647346],[2.445418,39.647373]]],[[[2.445942,39.647483],[2.445732,39.647563],[2.445917,39.647627],[2.445942,39.647483]]],[[[2.446524,39.647567],[2.446291,39.647539],[2.446476,39.647702],[2.446524,39.647567]]],[[[2.461828,39.652072],[2.461897,39.652189],[2.461955,39.652145],[2.461828,39.652072]]],[[[2.555914,39.52809],[2.555961,39.528145],[2.555979,39.528032],[2.555914,39.52809]]],[[[2.555818,39.528387],[2.555909,39.528262],[2.555851,39.528257],[2.555818,39.528387]]],[[[2.556009,39.5286],[2.55602,39.528532],[2.555869,39.528586],[2.556009,39.5286]]],[[[2.573772,39.528959],[2.573509,39.528783],[2.573383,39.528917],[2.573772,39.528959]]],[[[2.586931,39.527633],[2.585981,39.528323],[2.58807,39.530799],[2.589424,39.529696],[2.586931,39.527633]]],[[[2.573561,39.529062],[2.573056,39.529831],[2.574284,39.529349],[2.573561,39.529062]]],[[[2.575042,39.530784],[2.575209,39.530469],[2.57497,39.530608],[2.575042,39.530784]]],[[[2.58873,39.531644],[2.588806,39.530811],[2.588432,39.531008],[2.58873,39.531644]]],[[[2.578284,39.531661],[2.578138,39.531746],[2.578296,39.53176],[2.578284,39.531661]]],[[[2.584902,39.532532],[2.584893,39.532437],[2.58478,39.532518],[2.584902,39.532532]]],[[[2.584634,39.532756],[2.584526,39.532616],[2.584455,39.532661],[2.584634,39.532756]]],[[[2.58649,39.53301],[2.586388,39.532897],[2.586105,39.532932],[2.58649,39.53301]]],[[[2.592693,39.534258],[2.593298,39.533386],[2.591553,39.534254],[2.592693,39.534258]]],[[[2.591548,39.534069],[2.591406,39.534037],[2.59144,39.534177],[2.591548,39.534069]]],[[[2.583077,39.715578],[2.583007,39.715542],[2.582913,39.715667],[2.583077,39.715578]]],[[[2.586428,39.717104],[2.5863,39.717058],[2.586346,39.71713],[2.586428,39.717104]]],[[[2.586741,39.717402],[2.586578,39.717473],[2.586753,39.717474],[2.586741,39.717402]]],[[[2.590393,39.721352],[2.590218,39.721388],[2.590299,39.721478],[2.590393,39.721352]]],[[[2.592735,39.723928],[2.592968,39.723956],[2.592957,39.723875],[2.592735,39.723928]]],[[[2.59696,39.727709],[2.596889,39.727817],[2.597041,39.7278],[2.59696,39.727709]]],[[[2.59683,39.727952],[2.596761,39.72788],[2.596643,39.728006],[2.59683,39.727952]]],[[[2.597928,39.729857],[2.597799,39.729938],[2.598021,39.72993],[2.597928,39.729857]]],[[[2.598356,39.730525],[2.598356,39.730381],[2.59824,39.730291],[2.598356,39.730525]]],[[[2.598413,39.730697],[2.598424,39.730868],[2.598553,39.730751],[2.598413,39.730697]]],[[[2.599023,39.732122],[2.59886,39.732104],[2.598894,39.732284],[2.599023,39.732122]]],[[[2.599451,39.732854],[2.599206,39.732844],[2.599439,39.732953],[2.599451,39.732854]]],[[[2.600323,39.733433],[2.600206,39.733397],[2.600194,39.733523],[2.600323,39.733433]]],[[[2.606623,39.737807],[2.606529,39.737942],[2.606716,39.737897],[2.606623,39.737807]]],[[[2.60731,39.738061],[2.607157,39.738187],[2.607333,39.738151],[2.60731,39.738061]]],[[[2.609727,39.739917],[2.60954,39.739997],[2.609738,39.739989],[2.609727,39.739917]]],[[[2.610155,39.740513],[2.610377,39.740513],[2.610343,39.740432],[2.610155,39.740513]]],[[[2.614989,39.744304],[2.61521,39.744593],[2.615258,39.744206],[2.614989,39.744304]]],[[[2.61676,39.744995],[2.617052,39.744978],[2.616772,39.744923],[2.61676,39.744995]]],[[[2.619401,39.746499],[2.619612,39.74631],[2.619204,39.746282],[2.619401,39.746499]]],[[[2.621764,39.747714],[2.621811,39.747651],[2.621612,39.74765],[2.621764,39.747714]]],[[[2.623235,39.749665],[2.62306,39.749746],[2.623223,39.749773],[2.623235,39.749665]]],[[[2.623394,39.750476],[2.623172,39.750494],[2.623347,39.750548],[2.623394,39.750476]]],[[[2.710523,39.815828],[2.70897,39.816626],[2.709667,39.819092],[2.7107,39.817081],[2.710523,39.815828]]],[[[3.011897,39.305277],[3.012082,39.30352],[3.00941,39.303457],[3.008203,39.304701],[3.01051,39.305827],[3.011897,39.305277]]],[[[3.375699,39.564922],[3.375411,39.565081],[3.375802,39.565143],[3.375699,39.564922]]],[[[3.388048,39.603941],[3.388188,39.603891],[3.388175,39.603837],[3.388048,39.603941]]],[[[3.187965,39.754317],[3.187643,39.754534],[3.188103,39.754983],[3.187965,39.754317]]],[[[3.406183,39.770155],[3.406912,39.769932],[3.406073,39.769534],[3.406183,39.770155]]],[[[3.169402,39.834954],[3.170399,39.836088],[3.171413,39.835023],[3.169402,39.834954]]],[[[4.179153,39.841766],[4.179229,39.84167],[4.179093,39.841537],[4.179153,39.841766]]],[[[4.146804,39.864321],[4.144403,39.864786],[4.143011,39.861899],[4.134905,39.865231],[4.133356,39.864904],[4.132399,39.870661],[4.129714,39.867363],[4.124097,39.867832],[4.120664,39.870262],[4.11768,39.870119],[4.110903,39.874013],[4.097636,39.878744],[4.095249,39.882334],[4.093578,39.883107],[4.092444,39.881712],[4.085787,39.885928],[4.081912,39.89091],[4.080112,39.890233],[4.078206,39.896233],[4.055077,39.907375],[4.052469,39.906714],[4.047506,39.910345],[4.044484,39.910084],[4.043041,39.912926],[4.022296,39.921517],[4.018668,39.922242],[4.012518,39.920215],[4.005378,39.922412],[4.003855,39.925516],[4.001582,39.924499],[4.000385,39.925915],[3.998656,39.924488],[3.994263,39.925733],[3.989991,39.927338],[3.989936,39.930789],[3.988419,39.931099],[3.987404,39.929684],[3.98187,39.928956],[3.976105,39.931744],[3.973127,39.931937],[3.973145,39.934655],[3.968379,39.931603],[3.965836,39.932754],[3.961165,39.932489],[3.957545,39.93491],[3.960799,39.935631],[3.960762,39.937326],[3.95893,39.938493],[3.958054,39.937318],[3.957552,39.938544],[3.962368,39.940247],[3.958032,39.939048],[3.953228,39.935218],[3.950273,39.935598],[3.947644,39.933295],[3.939527,39.935866],[3.936902,39.93836],[3.936272,39.93646],[3.935031,39.936339],[3.936816,39.934528],[3.931041,39.931614],[3.921685,39.931901],[3.916402,39.929195],[3.91681,39.930471],[3.914766,39.93237],[3.913679,39.927252],[3.911608,39.92521],[3.905872,39.924038],[3.903073,39.925371],[3.902684,39.926888],[3.900177,39.92251],[3.896195,39.922492],[3.896021,39.924592],[3.897803,39.925687],[3.895572,39.927772],[3.891354,39.927327],[3.889561,39.923759],[3.886726,39.922898],[3.886599,39.923894],[3.884484,39.923884],[3.885363,39.923089],[3.883633,39.922876],[3.884045,39.921963],[3.88272,39.923275],[3.880971,39.921978],[3.880048,39.923188],[3.875724,39.922063],[3.871047,39.922828],[3.870197,39.922028],[3.868673,39.923742],[3.867062,39.921537],[3.865231,39.922339],[3.863807,39.921377],[3.863483,39.922587],[3.858373,39.92148],[3.856292,39.923221],[3.854175,39.921502],[3.851631,39.923445],[3.847972,39.922931],[3.843697,39.925805],[3.840609,39.925039],[3.841096,39.923607],[3.839462,39.922389],[3.83887,39.924335],[3.837283,39.924536],[3.838034,39.925985],[3.834505,39.925394],[3.834326,39.927607],[3.836582,39.928023],[3.83421,39.92918],[3.834221,39.925459],[3.830244,39.924978],[3.829875,39.923129],[3.825318,39.923423],[3.824195,39.921945],[3.820204,39.928176],[3.823158,39.932336],[3.822041,39.933803],[3.822376,39.937999],[3.82583,39.940403],[3.823139,39.942562],[3.826499,39.946399],[3.824935,39.952185],[3.828018,39.955843],[3.829724,39.955354],[3.829709,39.957467],[3.834222,39.960407],[3.832407,39.965741],[3.835915,39.967576],[3.832232,39.967057],[3.82969,39.969986],[3.830109,39.972627],[3.831623,39.976269],[3.833787,39.976997],[3.833254,39.97924],[3.838935,39.977803],[3.839594,39.978532],[3.834407,39.97997],[3.834344,39.981575],[3.832405,39.981476],[3.832459,39.980205],[3.830948,39.979932],[3.83184,39.981241],[3.830021,39.9842],[3.829344,39.990791],[3.82741,39.992589],[3.833699,39.993116],[3.835599,39.994359],[3.830155,39.993799],[3.825404,39.996257],[3.835865,40.001705],[3.829477,39.999435],[3.828618,40.00041],[3.827202,39.999969],[3.827885,39.999167],[3.825763,39.998727],[3.824569,39.99692],[3.824047,39.998037],[3.823284,39.99733],[3.822423,39.998039],[3.823473,39.996496],[3.821801,39.995602],[3.818147,39.996484],[3.813244,39.995951],[3.81323,40.000676],[3.811527,39.995657],[3.808829,39.998347],[3.80958,39.99963],[3.808175,39.999216],[3.806161,40.001492],[3.806821,40.000127],[3.805045,39.99804],[3.801411,39.997894],[3.801253,39.999611],[3.799908,39.999404],[3.800885,39.997672],[3.799233,39.997855],[3.794732,40.000097],[3.798307,40.0036],[3.796781,40.002822],[3.796189,40.004876],[3.796229,40.003416],[3.794523,40.003883],[3.795972,40.009017],[3.79333,40.011432],[3.795469,40.011188],[3.795099,40.012884],[3.790826,40.016152],[3.792673,40.018347],[3.792183,40.019941],[3.794545,40.020704],[3.796373,40.019817],[3.798974,40.021673],[3.799412,40.020544],[3.801517,40.020822],[3.802669,40.02463],[3.80583,40.025775],[3.808523,40.025067],[3.810281,40.026744],[3.810136,40.029349],[3.806363,40.031316],[3.807501,40.033565],[3.812428,40.0339],[3.815358,40.037119],[3.813965,40.038737],[3.818854,40.040018],[3.817607,40.042644],[3.821293,40.046275],[3.82171,40.05057],[3.822859,40.050242],[3.82234,40.051183],[3.82358,40.050786],[3.825819,40.052798],[3.82644,40.050162],[3.826896,40.052565],[3.828841,40.052934],[3.830597,40.049529],[3.831335,40.052673],[3.835124,40.05037],[3.834971,40.048835],[3.837379,40.049386],[3.83912,40.053292],[3.84591,40.053518],[3.852892,40.055381],[3.864908,40.0544],[3.867093,40.055861],[3.867349,40.058053],[3.871949,40.053626],[3.878788,40.05253],[3.882009,40.055654],[3.882803,40.053224],[3.885016,40.05537],[3.882235,40.058121],[3.883291,40.057437],[3.883473,40.058494],[3.886092,40.05756],[3.888333,40.058223],[3.890638,40.056664],[3.893442,40.058183],[3.894544,40.057346],[3.894993,40.058487],[3.89816,40.058224],[3.898581,40.05982],[3.904344,40.057396],[3.904527,40.055219],[3.906718,40.054332],[3.909338,40.048514],[3.913163,40.051381],[3.914599,40.050004],[3.914182,40.046665],[3.916734,40.048479],[3.921238,40.045389],[3.923533,40.046627],[3.922811,40.048381],[3.924305,40.048806],[3.924393,40.050129],[3.920439,40.051684],[3.919947,40.05694],[3.924801,40.056541],[3.930887,40.058132],[3.928894,40.060445],[3.931158,40.061954],[3.935059,40.062414],[3.938525,40.061309],[3.941406,40.056389],[3.949331,40.056797],[3.958642,40.061189],[3.962201,40.060498],[3.967103,40.057268],[3.969858,40.053276],[3.973137,40.052645],[3.974494,40.053764],[3.978437,40.051037],[3.982671,40.052794],[3.984294,40.052293],[3.98737,40.052298],[3.987643,40.055933],[3.992067,40.056711],[3.994306,40.058871],[3.994868,40.057901],[3.996948,40.058543],[3.99742,40.057549],[4.001345,40.058997],[4.002912,40.05824],[4.005615,40.059437],[4.006625,40.058681],[4.010183,40.059303],[4.010518,40.05793],[4.015624,40.055697],[4.015545,40.058366],[4.017129,40.060001],[4.018241,40.0591],[4.019099,40.060002],[4.021765,40.059546],[4.026977,40.063068],[4.028901,40.06233],[4.029177,40.065111],[4.032174,40.065589],[4.0321,40.064536],[4.03348,40.0651],[4.032983,40.064041],[4.035696,40.064323],[4.040873,40.058556],[4.041874,40.058817],[4.041174,40.055995],[4.043665,40.054765],[4.045869,40.056322],[4.048823,40.052475],[4.051334,40.053398],[4.052005,40.05205],[4.054171,40.052111],[4.054118,40.056463],[4.059325,40.058916],[4.06277,40.058047],[4.063615,40.059233],[4.066369,40.056252],[4.067637,40.058218],[4.069001,40.057814],[4.07223,40.05977],[4.074435,40.058687],[4.076959,40.060195],[4.077447,40.062862],[4.076325,40.062994],[4.075428,40.065741],[4.07782,40.070291],[4.079027,40.066698],[4.082074,40.067873],[4.084311,40.069874],[4.083109,40.073642],[4.084321,40.074942],[4.085921,40.074098],[4.088111,40.068789],[4.089542,40.06919],[4.087144,40.074857],[4.088775,40.076833],[4.090991,40.076208],[4.09026,40.082314],[4.081675,40.089102],[4.085878,40.087446],[4.091881,40.089624],[4.093965,40.088361],[4.0945,40.084702],[4.097364,40.084761],[4.09774,40.086199],[4.099099,40.086042],[4.099332,40.084729],[4.094482,40.080603],[4.096919,40.077751],[4.092473,40.074744],[4.094353,40.07373],[4.092729,40.070295],[4.096379,40.069423],[4.096432,40.066449],[4.095222,40.064082],[4.092239,40.06298],[4.093834,40.060749],[4.092915,40.059532],[4.094698,40.059393],[4.094125,40.058192],[4.095986,40.056917],[4.098965,40.05802],[4.09879,40.054305],[4.100575,40.054599],[4.099032,40.05005],[4.102184,40.047975],[4.102407,40.045068],[4.104349,40.044315],[4.102817,40.044095],[4.102796,40.038947],[4.105012,40.039844],[4.105353,40.037625],[4.107359,40.036845],[4.106532,40.043177],[4.104417,40.044301],[4.108089,40.045257],[4.107365,40.049827],[4.108177,40.049418],[4.107933,40.050785],[4.109517,40.051198],[4.109799,40.054421],[4.111944,40.054216],[4.113422,40.055449],[4.119233,40.055537],[4.119384,40.054482],[4.125042,40.055013],[4.124894,40.059717],[4.126365,40.062559],[4.128444,40.061511],[4.129671,40.063427],[4.132817,40.063635],[4.133524,40.057128],[4.131435,40.055333],[4.131912,40.054297],[4.130298,40.055187],[4.130082,40.051711],[4.12458,40.042728],[4.123838,40.037019],[4.119971,40.035863],[4.121638,40.033694],[4.120923,40.032029],[4.123108,40.031855],[4.122525,40.029906],[4.124859,40.029703],[4.12465,40.028214],[4.128,40.026014],[4.12883,40.028561],[4.13003,40.027197],[4.133408,40.029448],[4.130136,40.031025],[4.134282,40.035341],[4.13701,40.03599],[4.133535,40.032492],[4.137386,40.034603],[4.136493,40.032508],[4.137993,40.032138],[4.13936,40.03239],[4.140746,40.035408],[4.140917,40.039235],[4.139443,40.041669],[4.141288,40.042908],[4.140616,40.04823],[4.142573,40.048787],[4.13882,40.054049],[4.142914,40.055478],[4.140408,40.055745],[4.140837,40.05703],[4.138958,40.057958],[4.139601,40.05924],[4.138442,40.059085],[4.138854,40.060441],[4.137348,40.060848],[4.138115,40.06348],[4.136456,40.063676],[4.1382,40.064272],[4.13662,40.067116],[4.13903,40.067237],[4.14151,40.069613],[4.142142,40.067039],[4.145537,40.065871],[4.151725,40.067931],[4.155513,40.067884],[4.160392,40.064052],[4.159969,40.063065],[4.163279,40.063473],[4.166535,40.062346],[4.166446,40.061216],[4.172555,40.060659],[4.170119,40.05763],[4.1667,40.058714],[4.166652,40.0573],[4.164489,40.057875],[4.165125,40.056797],[4.1638,40.055747],[4.165782,40.054407],[4.163828,40.052274],[4.166695,40.050475],[4.164481,40.049929],[4.1651,40.049207],[4.162651,40.047556],[4.165815,40.046371],[4.166438,40.044315],[4.163791,40.043459],[4.162734,40.044379],[4.160905,40.043141],[4.158495,40.045039],[4.160427,40.042763],[4.159533,40.041537],[4.162184,40.041339],[4.162795,40.039932],[4.160055,40.035216],[4.161048,40.033603],[4.163177,40.033541],[4.164435,40.034105],[4.164246,40.036611],[4.165574,40.0354],[4.167475,40.036201],[4.168545,40.033618],[4.17111,40.036096],[4.17412,40.033174],[4.171286,40.033378],[4.169091,40.030986],[4.167987,40.029492],[4.16967,40.02862],[4.168837,40.026912],[4.175272,40.024072],[4.177867,40.024113],[4.177084,40.025216],[4.179918,40.025633],[4.181585,40.023954],[4.180127,40.022815],[4.181992,40.021747],[4.185611,40.023656],[4.182802,40.025383],[4.188007,40.030496],[4.186374,40.032297],[4.187212,40.033288],[4.1887,40.034075],[4.191533,40.033005],[4.193085,40.03385],[4.192774,40.032542],[4.195347,40.032259],[4.195694,40.029561],[4.194038,40.028511],[4.19495,40.027817],[4.193132,40.023772],[4.198074,40.025019],[4.19743,40.021322],[4.201119,40.020383],[4.202044,40.022545],[4.202879,40.019131],[4.199286,40.013037],[4.19334,40.009648],[4.198967,40.010946],[4.200638,40.013631],[4.20213,40.013728],[4.200889,40.009561],[4.19757,40.006843],[4.198284,40.004124],[4.200722,40.002171],[4.201535,39.995784],[4.20349,39.995718],[4.203535,39.997601],[4.205398,39.992951],[4.206273,39.993428],[4.207187,39.995464],[4.202269,40.001533],[4.201009,40.00851],[4.202968,40.008012],[4.203726,40.009342],[4.206702,40.005631],[4.208795,40.007645],[4.205459,40.009712],[4.207188,40.010658],[4.206699,40.012465],[4.207886,40.013056],[4.21096,40.008807],[4.210715,40.007567],[4.212576,40.006543],[4.209202,40.005357],[4.209091,40.003079],[4.212438,40.00185],[4.216742,40.00335],[4.219728,40.002251],[4.216749,39.999796],[4.2199,39.999484],[4.219199,39.997595],[4.221616,39.996402],[4.224426,39.99808],[4.22958,39.995494],[4.23149,39.99891],[4.234652,39.998219],[4.238775,40.000495],[4.241331,39.998923],[4.24472,39.999427],[4.247191,40.00131],[4.250296,40.001416],[4.251796,40.000702],[4.251332,39.998333],[4.25493,39.99778],[4.256497,39.999529],[4.25695,39.997632],[4.258652,39.997163],[4.259235,39.998779],[4.263819,39.998959],[4.269834,39.996546],[4.26118,39.996384],[4.257101,39.995162],[4.254793,39.992764],[4.2552,39.988502],[4.257276,39.987106],[4.25947,39.98738],[4.260261,39.985655],[4.258076,39.983345],[4.259318,39.981557],[4.266213,39.98191],[4.262887,39.979473],[4.25906,39.978884],[4.260115,39.974832],[4.257584,39.972188],[4.25807,39.970615],[4.256175,39.969464],[4.254747,39.963998],[4.258603,39.962951],[4.259667,39.963314],[4.259126,39.964441],[4.262048,39.964995],[4.262676,39.962979],[4.265806,39.963067],[4.266189,39.961634],[4.263928,39.962159],[4.262768,39.961338],[4.264391,39.96092],[4.262813,39.959302],[4.263337,39.958039],[4.265233,39.957924],[4.267729,39.960028],[4.270045,39.959453],[4.269352,39.956212],[4.271984,39.954147],[4.264392,39.952663],[4.264507,39.950526],[4.267006,39.949585],[4.270392,39.951268],[4.274458,39.949251],[4.275037,39.951046],[4.278184,39.951025],[4.278209,39.950529],[4.279213,39.950081],[4.279206,39.949032],[4.279755,39.948823],[4.278143,39.948665],[4.277756,39.947638],[4.279719,39.946706],[4.278294,39.945501],[4.283684,39.944973],[4.275252,39.939057],[4.27367,39.936142],[4.275195,39.934927],[4.274343,39.933504],[4.276949,39.930723],[4.280729,39.929478],[4.282459,39.924887],[4.285436,39.924926],[4.284262,39.924056],[4.286161,39.921652],[4.285395,39.917868],[4.288807,39.918087],[4.28968,39.916631],[4.286808,39.916118],[4.286979,39.913791],[4.284744,39.911951],[4.292441,39.910438],[4.294187,39.905346],[4.295741,39.904968],[4.293452,39.904426],[4.293306,39.903171],[4.299078,39.899489],[4.298542,39.897387],[4.305757,39.897162],[4.308495,39.898924],[4.30651,39.896874],[4.307645,39.896019],[4.306448,39.892654],[4.309521,39.890538],[4.309667,39.888316],[4.311228,39.888231],[4.310256,39.886255],[4.311855,39.885458],[4.310146,39.883743],[4.309968,39.882154],[4.311032,39.881971],[4.309535,39.879961],[4.314531,39.88108],[4.313479,39.879944],[4.314397,39.879005],[4.319962,39.879771],[4.32789,39.876987],[4.316031,39.871193],[4.313503,39.872483],[4.311571,39.872136],[4.310778,39.869874],[4.307105,39.87561],[4.31039,39.878014],[4.308666,39.880259],[4.305403,39.880773],[4.299883,39.883863],[4.30034,39.884943],[4.2988,39.884221],[4.296601,39.885318],[4.296843,39.88769],[4.295094,39.887889],[4.296824,39.889248],[4.295473,39.890313],[4.296093,39.891901],[4.2932,39.888577],[4.290482,39.888378],[4.287943,39.890527],[4.286071,39.89035],[4.285989,39.891725],[4.284105,39.890849],[4.281208,39.891827],[4.278216,39.893761],[4.278187,39.895253],[4.276874,39.894731],[4.277886,39.892589],[4.270343,39.893974],[4.270259,39.891826],[4.26966,39.893693],[4.268388,39.893964],[4.268136,39.892984],[4.267969,39.894009],[4.267659,39.893039],[4.267554,39.894054],[4.267049,39.893113],[4.267186,39.893806],[4.258011,39.895239],[4.256626,39.897231],[4.256979,39.894538],[4.262566,39.891248],[4.269291,39.889706],[4.276439,39.890754],[4.274768,39.884866],[4.277987,39.886682],[4.280031,39.885263],[4.284375,39.883657],[4.289047,39.883713],[4.290383,39.882437],[4.289756,39.881052],[4.293797,39.881399],[4.295866,39.879258],[4.293116,39.878397],[4.296982,39.877111],[4.295335,39.874863],[4.298007,39.875581],[4.301242,39.873653],[4.303166,39.869532],[4.307492,39.865393],[4.306162,39.864219],[4.302691,39.864758],[4.301149,39.864482],[4.299841,39.863425],[4.298612,39.863907],[4.299634,39.863022],[4.301735,39.864088],[4.305804,39.863191],[4.305114,39.859856],[4.307232,39.856427],[4.305432,39.853303],[4.307973,39.851945],[4.308757,39.849824],[4.308362,39.848454],[4.305838,39.848704],[4.3038,39.847249],[4.302825,39.843287],[4.301121,39.842792],[4.302185,39.842433],[4.301398,39.841645],[4.301138,39.841549],[4.300889,39.84156],[4.299751,39.841082],[4.298146,39.840951],[4.30153,39.838215],[4.303767,39.831811],[4.299536,39.833053],[4.296244,39.827864],[4.292678,39.828976],[4.294888,39.827397],[4.294118,39.825558],[4.29658,39.825535],[4.296092,39.822897],[4.287472,39.815033],[4.281782,39.814321],[4.2803,39.812909],[4.280976,39.811649],[4.272288,39.809154],[4.262556,39.810418],[4.263436,39.812571],[4.260693,39.811673],[4.259571,39.812793],[4.248815,39.814081],[4.245871,39.816833],[4.244879,39.815416],[4.243561,39.816516],[4.239919,39.816392],[4.240212,39.813164],[4.239065,39.814865],[4.237445,39.814103],[4.235989,39.817619],[4.234287,39.817457],[4.233186,39.819478],[4.231597,39.818999],[4.230527,39.821839],[4.228991,39.821649],[4.229197,39.823097],[4.226424,39.821108],[4.224164,39.821254],[4.225801,39.823182],[4.222495,39.825848],[4.2209,39.82573],[4.218831,39.829153],[4.217958,39.826639],[4.216682,39.828193],[4.215525,39.827538],[4.211103,39.829251],[4.2094,39.828431],[4.209696,39.825176],[4.207092,39.825288],[4.205202,39.827038],[4.206924,39.828984],[4.202712,39.830469],[4.204334,39.832354],[4.202899,39.833454],[4.20353,39.832159],[4.201453,39.830982],[4.198052,39.834229],[4.198543,39.832166],[4.19754,39.832113],[4.189295,39.836815],[4.182839,39.838498],[4.181641,39.841209],[4.180725,39.840637],[4.178792,39.843274],[4.176382,39.842965],[4.175678,39.843905],[4.174848,39.842981],[4.174393,39.844751],[4.171659,39.845387],[4.171808,39.847962],[4.16867,39.849138],[4.168145,39.852162],[4.166091,39.848912],[4.156517,39.855152],[4.149343,39.859575],[4.14493,39.860592],[4.146804,39.864321]]],[[[4.136914,40.047379],[4.137133,40.045174],[4.135986,40.046455],[4.13697,40.04809],[4.136914,40.047379]]],[[[4.019748,40.060321],[4.019873,40.06004],[4.019428,40.060098],[4.019748,40.060321]]],[[[4.031599,40.069423],[4.033149,40.068675],[4.031516,40.066726],[4.031599,40.069423]]],[[[4.076153,40.093784],[4.075982,40.090899],[4.073047,40.092484],[4.075526,40.09457],[4.076153,40.093784]]],[[[4.295934,39.799933],[4.285453,39.799288],[4.28194,39.801016],[4.282222,39.801864],[4.28752,39.800878],[4.288893,39.803574],[4.290018,39.802233],[4.291936,39.803221],[4.295159,39.801919],[4.295934,39.799933]]],[[[4.295527,39.802811],[4.295248,39.802963],[4.295473,39.802974],[4.295527,39.802811]]],[[[4.241582,39.812735],[4.241803,39.813115],[4.241919,39.812871],[4.241582,39.812735]]],[[[4.241319,39.813192],[4.241447,39.81343],[4.241572,39.813275],[4.241319,39.813192]]],[[[4.24394,39.815912],[4.243778,39.816072],[4.243911,39.816192],[4.24394,39.815912]]],[[[4.227337,39.821391],[4.227585,39.821555],[4.227453,39.821183],[4.227337,39.821391]]],[[[4.295132,39.82202],[4.29524,39.821974],[4.295196,39.82192],[4.295132,39.82202]]],[[[4.221697,39.824172],[4.22281,39.823705],[4.220316,39.821596],[4.221697,39.824172]]],[[[4.223941,39.824026],[4.223982,39.823409],[4.223451,39.824077],[4.223941,39.824026]]],[[[4.214924,39.827243],[4.214164,39.825652],[4.214391,39.827226],[4.214924,39.827243]]],[[[4.295735,39.827676],[4.296021,39.827091],[4.295906,39.827282],[4.295735,39.827676]]],[[[4.214869,39.827752],[4.215068,39.827669],[4.214891,39.827523],[4.214869,39.827752]]],[[[4.180135,39.840859],[4.180071,39.840937],[4.180119,39.841035],[4.180135,39.840859]]],[[[4.300081,39.840934],[4.299833,39.840964],[4.300139,39.841096],[4.300081,39.840934]]],[[[4.300344,39.841175],[4.300268,39.841234],[4.30047,39.84129],[4.300344,39.841175]]],[[[4.300553,39.841312],[4.300878,39.841538],[4.30103,39.84146],[4.301051,39.84136],[4.300515,39.841146],[4.300553,39.841312]]],[[[4.324636,39.874722],[4.324452,39.874751],[4.324579,39.874903],[4.324636,39.874722]]],[[[4.302665,39.881525],[4.304638,39.88094],[4.305968,39.878776],[4.307062,39.871371],[4.301644,39.875982],[4.3009,39.879986],[4.301285,39.881608],[4.302665,39.881525]]],[[[4.297944,39.882961],[4.299281,39.881527],[4.298333,39.881515],[4.297944,39.882961]]],[[[4.288709,39.88683],[4.287785,39.885727],[4.286121,39.886083],[4.286593,39.888141],[4.288709,39.88683]]],[[[4.311356,39.8884],[4.310763,39.888452],[4.311397,39.888936],[4.311356,39.8884]]],[[[4.311426,39.889129],[4.311417,39.889283],[4.311724,39.889288],[4.311426,39.889129]]],[[[4.311786,39.889139],[4.311902,39.889345],[4.312225,39.889287],[4.311786,39.889139]]],[[[4.308402,39.89179],[4.308839,39.892082],[4.308537,39.891459],[4.308402,39.89179]]],[[[4.30824,39.897562],[4.308158,39.897626],[4.308415,39.89779],[4.30824,39.897562]]],[[[4.307064,39.898765],[4.306901,39.89878],[4.307128,39.898998],[4.307064,39.898765]]],[[[4.298918,39.899739],[4.299066,39.899926],[4.299058,39.899764],[4.298918,39.899739]]],[[[4.29625,39.901972],[4.296323,39.901867],[4.296112,39.901851],[4.29625,39.901972]]],[[[4.295914,39.902313],[4.295798,39.902143],[4.295722,39.902293],[4.295914,39.902313]]],[[[4.29515,39.902844],[4.295392,39.90281],[4.295268,39.902703],[4.29515,39.902844]]],[[[4.290101,39.911383],[4.289472,39.912606],[4.290182,39.912711],[4.290101,39.911383]]],[[[4.286697,39.912443],[4.287033,39.912444],[4.286854,39.912275],[4.286697,39.912443]]],[[[4.287519,39.913781],[4.287377,39.913674],[4.287002,39.91367],[4.287519,39.913781]]],[[[4.289819,39.916508],[4.290238,39.916715],[4.290368,39.91652],[4.289819,39.916508]]],[[[4.279359,39.949102],[4.279311,39.949387],[4.279627,39.949937],[4.280469,39.950054],[4.280214,39.94912],[4.279359,39.949102]]],[[[4.279427,39.950665],[4.280121,39.951328],[4.279947,39.950145],[4.279427,39.950665]]],[[[4.282968,39.958973],[4.283247,39.959127],[4.2833,39.959],[4.282968,39.958973]]],[[[4.279188,39.963956],[4.279536,39.961542],[4.284175,39.960766],[4.28144,39.957093],[4.276882,39.956022],[4.272783,39.956841],[4.274814,39.957932],[4.27346,39.958902],[4.274865,39.963427],[4.273563,39.963995],[4.277629,39.966658],[4.277326,39.96485],[4.279188,39.963956]]],[[[4.273257,39.963728],[4.273518,39.963518],[4.273354,39.963295],[4.273257,39.963728]]],[[[4.224623,39.998258],[4.224835,39.998594],[4.224922,39.998138],[4.224623,39.998258]]],[[[4.26155,39.99906],[4.26164,39.999374],[4.261891,39.999011],[4.26155,39.99906]]],[[[4.199024,40.00704],[4.1996,40.006403],[4.19887,40.006631],[4.199024,40.00704]]],[[[4.205264,40.013867],[4.204258,40.013765],[4.203683,40.014388],[4.205264,40.013867]]],[[[4.212463,40.014418],[4.21208,40.014521],[4.213408,40.015093],[4.212463,40.014418]]],[[[4.210917,40.014813],[4.210647,40.014779],[4.210633,40.014865],[4.210917,40.014813]]],[[[4.212303,40.015077],[4.212553,40.015093],[4.212432,40.015004],[4.212303,40.015077]]],[[[4.2127,40.01824],[4.211971,40.016441],[4.210236,40.016252],[4.210427,40.014944],[4.208264,40.01403],[4.208941,40.016824],[4.211511,40.018577],[4.2127,40.01824]]],[[[4.210692,40.020216],[4.209353,40.017829],[4.208847,40.021321],[4.209846,40.020689],[4.210692,40.020216]]]]}}
]
}
