{
"type": "FeatureCollection",
"name": "cod_prov_08",
"crs": { "type": "name", "properties": { "name": "urn:ogc:def:crs:OGC:1.3:CRS84" } },
"xy_coordinate_resolution": 1e-15,
"features": [
{"type":"Feature","properties":{"fid":4,"cod_ccaa":"09","provincia":"Barcelona","cod_prov":"08"},"geometry":{"type":"MultiPolygon","coordinates":[[[[1.648205,41.212227],[1.647966,41.216423],[1.6443,41.220381],[1.646242,41.227756],[1.64133,41.235358],[1.634459,41.230962],[1.631435,41.224457],[1.621758,41.223206],[1.614518,41.225912],[1.614563,41.229582],[1.609565,41.231108],[1.602907,41.234813],[1.5939,41.233931],[1.581995,41.237162],[1.576282,41.248258],[1.575367,41.256155],[1.570507,41.260724],[1.585383,41.257422],[1.594655,41.258959],[1.593834,41.257976],[1.59656,41.256696],[1.595283,41.255495],[1.59955,41.256287],[1.597319,41.253405],[1.602852,41.253355],[1.606318,41.25038],[1.611757,41.25053],[1.616905,41.252484],[1.61807,41.254618],[1.620056,41.253691],[1.622338,41.254922],[1.621327,41.256485],[1.624214,41.262545],[1.62267,41.263831],[1.623222,41.266735],[1.62781,41.269513],[1.626252,41.272972],[1.623961,41.27381],[1.624084,41.276245],[1.620358,41.277053],[1.629536,41.28277],[1.628412,41.284264],[1.629894,41.288841],[1.627438,41.291076],[1.628132,41.294649],[1.633763,41.294414],[1.637143,41.295943],[1.633515,41.298484],[1.631559,41.298859],[1.628108,41.295993],[1.62524,41.296629],[1.616717,41.2931],[1.612408,41.285152],[1.609281,41.28534],[1.607731,41.287231],[1.607047,41.286158],[1.603111,41.286721],[1.604509,41.288944],[1.599375,41.289268],[1.596207,41.292265],[1.592205,41.292391],[1.588497,41.29398],[1.590507,41.295746],[1.591523,41.300871],[1.595985,41.307609],[1.595331,41.309328],[1.592728,41.311548],[1.587318,41.312232],[1.578594,41.315894],[1.575102,41.315142],[1.573723,41.317277],[1.574073,41.324835],[1.568901,41.330471],[1.569547,41.332525],[1.566138,41.339639],[1.559011,41.343137],[1.573966,41.355346],[1.579138,41.356337],[1.57754,41.360803],[1.578313,41.362447],[1.574446,41.363214],[1.570853,41.361405],[1.569704,41.368364],[1.563321,41.369735],[1.560135,41.367935],[1.552509,41.368102],[1.546979,41.373814],[1.547861,41.376174],[1.546132,41.379322],[1.54213,41.380732],[1.537168,41.38535],[1.531445,41.387647],[1.51921,41.388787],[1.512217,41.39432],[1.509642,41.39443],[1.505548,41.391431],[1.502853,41.391879],[1.496148,41.389323],[1.494484,41.389641],[1.48483,41.382266],[1.478882,41.381832],[1.477849,41.382971],[1.474805,41.382522],[1.473392,41.380749],[1.474059,41.382794],[1.480658,41.387831],[1.48281,41.398597],[1.488969,41.400004],[1.490518,41.401474],[1.485111,41.41394],[1.482106,41.416677],[1.484148,41.42218],[1.477429,41.42346],[1.475448,41.429444],[1.478035,41.433133],[1.48369,41.430293],[1.491527,41.435316],[1.495554,41.4356],[1.476013,41.436085],[1.468837,41.443955],[1.479587,41.452864],[1.483531,41.457824],[1.487525,41.466257],[1.48619,41.471883],[1.484995,41.472092],[1.484915,41.474913],[1.479942,41.476062],[1.475028,41.479459],[1.476525,41.482588],[1.474287,41.48625],[1.465961,41.483936],[1.464314,41.4868],[1.460368,41.488277],[1.453897,41.487682],[1.452309,41.486348],[1.450123,41.492186],[1.446398,41.494807],[1.437343,41.498291],[1.422896,41.49965],[1.422178,41.503342],[1.419113,41.502308],[1.415678,41.505339],[1.408333,41.505118],[1.404959,41.506598],[1.401293,41.51206],[1.396701,41.512884],[1.39897,41.514013],[1.398161,41.519401],[1.400883,41.521197],[1.399815,41.523822],[1.40103,41.527071],[1.399894,41.52851],[1.402107,41.529163],[1.402975,41.530832],[1.405055,41.530581],[1.406423,41.533599],[1.409077,41.53492],[1.425957,41.531865],[1.436539,41.539227],[1.448938,41.537064],[1.449642,41.545392],[1.447077,41.55238],[1.438046,41.550037],[1.432699,41.551414],[1.431383,41.555652],[1.439965,41.562983],[1.454838,41.569177],[1.44783,41.573807],[1.438917,41.575674],[1.436068,41.576271],[1.433524,41.578863],[1.421209,41.582382],[1.416437,41.582574],[1.412571,41.580229],[1.410916,41.575476],[1.395824,41.577486],[1.393202,41.575084],[1.393041,41.579772],[1.395926,41.584812],[1.402139,41.58605],[1.407398,41.59054],[1.406995,41.600469],[1.393719,41.599465],[1.38489,41.602639],[1.37468,41.607585],[1.374431,41.611701],[1.370032,41.613012],[1.368974,41.610324],[1.361092,41.612101],[1.359976,41.61353],[1.369251,41.617247],[1.369607,41.621276],[1.380066,41.62492],[1.386604,41.625949],[1.38774,41.631011],[1.39203,41.634079],[1.417915,41.635093],[1.422048,41.634798],[1.424181,41.631763],[1.430647,41.629802],[1.431572,41.634008],[1.440437,41.63552],[1.44383,41.634425],[1.448674,41.636092],[1.4505,41.646556],[1.445202,41.645807],[1.439856,41.647833],[1.433469,41.651321],[1.430876,41.655347],[1.426011,41.66091],[1.425714,41.66953],[1.415396,41.674574],[1.419306,41.676431],[1.423748,41.684111],[1.420251,41.685479],[1.414553,41.684709],[1.40467,41.686151],[1.404546,41.694881],[1.39623,41.696083],[1.40069,41.704393],[1.398249,41.705594],[1.382279,41.705747],[1.401162,41.719556],[1.416962,41.72878],[1.419739,41.732635],[1.425205,41.732766],[1.425591,41.734705],[1.422369,41.735397],[1.416282,41.740422],[1.411667,41.740789],[1.406151,41.744845],[1.40338,41.745294],[1.404067,41.748824],[1.407759,41.752698],[1.410243,41.759806],[1.411854,41.766289],[1.410456,41.768342],[1.411256,41.77492],[1.414243,41.77621],[1.415896,41.775921],[1.418876,41.787943],[1.421968,41.79319],[1.4199,41.791992],[1.417362,41.79462],[1.42667,41.801869],[1.443039,41.800713],[1.451511,41.797765],[1.456498,41.798714],[1.460709,41.797848],[1.465822,41.798342],[1.47144,41.800924],[1.472595,41.800221],[1.472155,41.792018],[1.469897,41.787406],[1.473852,41.782525],[1.470176,41.781912],[1.469127,41.778756],[1.461476,41.776677],[1.46516,41.775165],[1.467446,41.775517],[1.46867,41.770986],[1.470883,41.771503],[1.470446,41.772303],[1.473219,41.771366],[1.474471,41.772938],[1.478948,41.773664],[1.479874,41.771926],[1.482945,41.771122],[1.484177,41.772415],[1.481831,41.774992],[1.488021,41.777325],[1.482804,41.790999],[1.488198,41.788816],[1.492187,41.788569],[1.496688,41.789789],[1.505192,41.787879],[1.508601,41.774068],[1.512405,41.772559],[1.5107,41.771239],[1.516237,41.770265],[1.519272,41.770848],[1.523709,41.765703],[1.527807,41.763947],[1.53312,41.763575],[1.52857,41.759082],[1.53108,41.752554],[1.535549,41.752837],[1.536422,41.754981],[1.534433,41.757302],[1.54506,41.757592],[1.548677,41.770639],[1.562017,41.770154],[1.563009,41.773968],[1.561553,41.777348],[1.569195,41.777395],[1.57294,41.78218],[1.575468,41.78153],[1.581174,41.777196],[1.58174,41.775526],[1.593952,41.777918],[1.592517,41.780731],[1.600184,41.789022],[1.596516,41.793239],[1.596271,41.794185],[1.598325,41.793968],[1.59747,41.796487],[1.594795,41.797098],[1.594811,41.799844],[1.593433,41.800773],[1.594292,41.801846],[1.589167,41.804716],[1.59361,41.811984],[1.602766,41.813616],[1.611814,41.817763],[1.615797,41.830289],[1.610365,41.836116],[1.612364,41.838296],[1.619685,41.84181],[1.623459,41.841054],[1.631815,41.844705],[1.626823,41.848616],[1.630664,41.85877],[1.62845,41.860129],[1.625954,41.86909],[1.622999,41.870704],[1.621717,41.874645],[1.619023,41.877536],[1.619479,41.881524],[1.615025,41.880074],[1.611994,41.880304],[1.606241,41.884065],[1.60303,41.882474],[1.602095,41.884222],[1.583761,41.873351],[1.581676,41.87519],[1.569286,41.880007],[1.57673,41.891595],[1.583186,41.892903],[1.585044,41.890749],[1.583806,41.88844],[1.587236,41.888554],[1.595294,41.896056],[1.60086,41.904584],[1.60238,41.902587],[1.605516,41.901453],[1.616281,41.905989],[1.61745,41.910003],[1.620382,41.912703],[1.623118,41.913367],[1.622632,41.915484],[1.626304,41.916587],[1.632831,41.920825],[1.634643,41.924029],[1.63861,41.927191],[1.642348,41.927859],[1.643584,41.929114],[1.650362,41.926642],[1.653363,41.928789],[1.643059,41.940471],[1.645063,41.943811],[1.650779,41.944795],[1.649368,41.949435],[1.647698,41.9535],[1.649769,41.956594],[1.645511,41.96008],[1.644614,41.968967],[1.651693,41.978683],[1.650425,41.979653],[1.655929,41.980671],[1.656438,41.979048],[1.660594,41.977628],[1.661433,41.981348],[1.660258,41.982935],[1.668244,41.984546],[1.67565,41.982524],[1.66977,41.973256],[1.669813,41.969896],[1.670866,41.970591],[1.672166,41.968252],[1.679185,41.968865],[1.683105,41.967373],[1.697803,41.97545],[1.715147,41.981238],[1.719585,41.984458],[1.719537,41.985766],[1.717047,41.986039],[1.717041,41.989218],[1.713185,41.991583],[1.715813,41.991213],[1.716407,41.993368],[1.717854,41.993839],[1.715935,41.996781],[1.718711,41.997432],[1.718345,41.999491],[1.713177,42.002729],[1.707625,42.002417],[1.707916,42.007825],[1.6981,42.014675],[1.695107,42.012565],[1.69119,42.005937],[1.693877,42.000137],[1.699639,41.992986],[1.696862,41.991011],[1.697796,41.985174],[1.691416,41.986543],[1.692357,41.989656],[1.691422,41.99072],[1.690082,41.990226],[1.685091,41.994896],[1.682855,41.993871],[1.676928,41.994356],[1.668501,41.99037],[1.662362,41.991079],[1.662268,42.002994],[1.658216,42.005023],[1.655184,42.002364],[1.657323,42.001242],[1.655449,41.999535],[1.658001,41.998297],[1.655326,41.993238],[1.652316,41.992514],[1.652022,41.999224],[1.649009,41.999131],[1.648214,42.000144],[1.649038,42.003325],[1.65302,42.006936],[1.653716,42.011013],[1.651768,42.013271],[1.654886,42.015953],[1.656214,42.020905],[1.662278,42.023405],[1.665058,42.022301],[1.665391,42.0191],[1.662534,42.015858],[1.662459,42.011864],[1.665655,42.010671],[1.66473,42.00826],[1.660677,42.006651],[1.666325,42.003495],[1.67021,42.006938],[1.668909,42.013717],[1.672799,42.018033],[1.675275,42.019517],[1.678299,42.01861],[1.684079,42.02545],[1.689659,42.026779],[1.689099,42.027865],[1.696182,42.028448],[1.69829,42.027398],[1.699816,42.029586],[1.694658,42.035128],[1.697678,42.03694],[1.697564,42.039483],[1.692836,42.046124],[1.683921,42.048082],[1.682978,42.049877],[1.680345,42.046437],[1.679409,42.038795],[1.674181,42.039324],[1.670593,42.044413],[1.673468,42.048843],[1.67401,42.052278],[1.675765,42.057914],[1.674698,42.059173],[1.686486,42.068793],[1.690054,42.074409],[1.691771,42.078021],[1.68869,42.078355],[1.688712,42.081433],[1.691656,42.087093],[1.696377,42.086701],[1.707986,42.082704],[1.713193,42.084794],[1.716953,42.08464],[1.722411,42.091077],[1.722842,42.099793],[1.718388,42.101516],[1.711273,42.101755],[1.70541,42.10666],[1.705511,42.1077],[1.710127,42.110265],[1.711578,42.115968],[1.712044,42.119478],[1.709162,42.120893],[1.708235,42.123236],[1.706419,42.122887],[1.699461,42.128053],[1.700247,42.130506],[1.698915,42.13571],[1.704171,42.14069],[1.703039,42.14206],[1.707181,42.145221],[1.708377,42.149754],[1.710367,42.150159],[1.713921,42.154028],[1.716757,42.154091],[1.72099,42.151621],[1.734683,42.159356],[1.7368,42.162735],[1.736278,42.170977],[1.739428,42.176518],[1.736775,42.18005],[1.73662,42.183477],[1.738368,42.184998],[1.737136,42.185203],[1.738059,42.189441],[1.734424,42.190051],[1.734048,42.191174],[1.721879,42.196196],[1.714821,42.192795],[1.713522,42.190472],[1.707762,42.190025],[1.689946,42.199085],[1.687395,42.205996],[1.680771,42.20633],[1.685705,42.220786],[1.681375,42.224312],[1.700614,42.230708],[1.701987,42.235315],[1.70456,42.2362],[1.703502,42.23989],[1.699167,42.241067],[1.697085,42.245006],[1.690164,42.247586],[1.688363,42.254503],[1.684945,42.256461],[1.685773,42.260425],[1.695419,42.263829],[1.690502,42.277095],[1.684533,42.276223],[1.682956,42.277845],[1.675347,42.280353],[1.672473,42.280191],[1.670669,42.281687],[1.675418,42.285896],[1.686529,42.285144],[1.691392,42.286296],[1.692019,42.28446],[1.696572,42.285849],[1.70272,42.284876],[1.715943,42.288041],[1.71804,42.284462],[1.719581,42.284002],[1.734688,42.28399],[1.738457,42.28929],[1.741089,42.290586],[1.745228,42.290477],[1.762781,42.293781],[1.775862,42.290841],[1.779724,42.291391],[1.782124,42.293298],[1.787625,42.294671],[1.793271,42.293966],[1.797639,42.294792],[1.797957,42.298173],[1.804836,42.302025],[1.814956,42.302248],[1.818773,42.299503],[1.82681,42.29929],[1.833131,42.301229],[1.834876,42.304046],[1.837676,42.305611],[1.842976,42.306395],[1.850923,42.310668],[1.858176,42.310666],[1.861776,42.313142],[1.864217,42.310976],[1.866095,42.312202],[1.874073,42.313563],[1.879511,42.312665],[1.883415,42.314839],[1.883798,42.317119],[1.891484,42.317367],[1.893479,42.318686],[1.893238,42.320893],[1.903482,42.32329],[1.912912,42.318969],[1.918569,42.317771],[1.921541,42.316995],[1.933257,42.318669],[1.939646,42.316458],[1.943604,42.308454],[1.949055,42.315619],[1.956556,42.312287],[1.970679,42.303265],[1.979613,42.300518],[1.98419,42.298059],[1.98689,42.3003],[1.992453,42.300246],[1.993669,42.302588],[2.002637,42.305104],[2.006183,42.307595],[2.007556,42.30686],[2.012985,42.308333],[2.01512,42.307564],[2.018879,42.310298],[2.024053,42.309162],[2.028599,42.306243],[2.038335,42.305139],[2.04042,42.302094],[2.048019,42.297636],[2.057398,42.295574],[2.066701,42.290175],[2.070259,42.291583],[2.069911,42.28771],[2.067296,42.283846],[2.060183,42.282541],[2.052706,42.278802],[2.053486,42.278092],[2.051874,42.275229],[2.048777,42.275005],[2.047415,42.272671],[2.045536,42.272519],[2.042584,42.269571],[2.043623,42.268003],[2.041073,42.264911],[2.040261,42.260517],[2.03074,42.256939],[2.027434,42.253312],[2.02903,42.253422],[2.028557,42.252498],[2.029594,42.251372],[2.027792,42.249442],[2.029235,42.248543],[2.029931,42.244956],[2.027108,42.242216],[2.028156,42.241233],[2.025041,42.23984],[2.025157,42.233237],[2.020993,42.231907],[2.017071,42.2327],[2.019742,42.22836],[2.023536,42.227322],[2.030546,42.215858],[2.039807,42.221123],[2.049265,42.221399],[2.053657,42.219521],[2.050492,42.215844],[2.051875,42.213595],[2.050837,42.208329],[2.053933,42.200549],[2.05287,42.195734],[2.055758,42.19476],[2.060642,42.195274],[2.063908,42.1916],[2.06199,42.188966],[2.061307,42.179813],[2.05958,42.179115],[2.060873,42.177879],[2.058379,42.177107],[2.058133,42.175542],[2.045661,42.17594],[2.037382,42.178978],[2.031727,42.176967],[2.031854,42.172172],[2.028631,42.169991],[2.027678,42.166378],[2.023111,42.164031],[2.013282,42.163994],[2.010847,42.162588],[2.005193,42.162088],[2.004264,42.166261],[1.995905,42.172289],[2.00134,42.176274],[2.00647,42.18345],[1.999313,42.188463],[1.998385,42.192042],[2.007661,42.194058],[1.98582,42.194994],[1.980184,42.196599],[1.976721,42.199063],[1.970297,42.197443],[1.96557,42.199079],[1.964666,42.192034],[1.966253,42.178775],[1.970974,42.178165],[1.971082,42.18015],[1.979141,42.182888],[1.984047,42.181081],[1.991851,42.182577],[1.991559,42.178718],[1.989531,42.176637],[1.992514,42.17241],[1.991131,42.171598],[1.997251,42.162039],[2.005728,42.154925],[2.003972,42.15276],[2.006219,42.151645],[2.004344,42.149503],[2.013193,42.14926],[2.02571,42.152402],[2.028614,42.152247],[2.033681,42.149773],[2.037461,42.143296],[2.040186,42.142726],[2.046327,42.144346],[2.052045,42.143076],[2.054526,42.137781],[2.061385,42.135659],[2.065905,42.138637],[2.070219,42.138743],[2.071158,42.141862],[2.074939,42.14119],[2.089058,42.141958],[2.092681,42.144291],[2.095853,42.14207],[2.095469,42.140448],[2.101362,42.140177],[2.097929,42.130274],[2.100633,42.129757],[2.101059,42.123931],[2.105498,42.122734],[2.113274,42.117489],[2.115839,42.117798],[2.118432,42.115764],[2.123057,42.115989],[2.126282,42.113099],[2.13776,42.1212],[2.140115,42.126541],[2.145057,42.131396],[2.164483,42.135283],[2.181715,42.135233],[2.187949,42.133961],[2.188795,42.131437],[2.186887,42.128517],[2.189516,42.124725],[2.19323,42.124151],[2.201427,42.124274],[2.205259,42.125873],[2.202553,42.129147],[2.204177,42.131846],[2.206586,42.131286],[2.210095,42.127625],[2.212262,42.127652],[2.213208,42.129301],[2.205825,42.133797],[2.210997,42.136973],[2.210489,42.139625],[2.215512,42.138928],[2.215481,42.142081],[2.223616,42.142006],[2.225079,42.14302],[2.238062,42.144083],[2.240653,42.143082],[2.244448,42.137776],[2.245965,42.139156],[2.24907,42.139401],[2.258267,42.138717],[2.260942,42.141223],[2.269173,42.143032],[2.270382,42.1452],[2.272184,42.143748],[2.271452,42.142792],[2.273457,42.142465],[2.273054,42.139369],[2.281208,42.140694],[2.276799,42.137864],[2.279886,42.133823],[2.287011,42.133692],[2.291939,42.129269],[2.293993,42.131848],[2.297682,42.13228],[2.299909,42.134185],[2.301292,42.127873],[2.303228,42.127297],[2.301575,42.126041],[2.302493,42.122416],[2.300412,42.121972],[2.301905,42.119004],[2.298649,42.117084],[2.298925,42.115604],[2.301252,42.115532],[2.303773,42.112417],[2.301048,42.109474],[2.294341,42.105742],[2.295281,42.102666],[2.310038,42.109705],[2.317352,42.110842],[2.318642,42.113257],[2.316175,42.11339],[2.316533,42.114202],[2.319041,42.113545],[2.320243,42.115902],[2.337148,42.116492],[2.341022,42.11812],[2.342346,42.120201],[2.347841,42.121268],[2.351618,42.119453],[2.353439,42.120403],[2.356305,42.119116],[2.357626,42.120153],[2.366385,42.121336],[2.369696,42.116175],[2.37433,42.116776],[2.374152,42.113256],[2.377014,42.109781],[2.37715,42.105832],[2.380234,42.103706],[2.395117,42.104284],[2.40046,42.10215],[2.39538,42.095152],[2.395212,42.09119],[2.397617,42.087916],[2.395356,42.086762],[2.406107,42.078756],[2.409189,42.070823],[2.411381,42.068604],[2.414958,42.068903],[2.417561,42.064855],[2.420985,42.065332],[2.423128,42.063123],[2.425776,42.06244],[2.42786,42.064213],[2.429697,42.063937],[2.443816,42.073187],[2.448968,42.074229],[2.448767,42.076534],[2.450001,42.077394],[2.453866,42.076669],[2.454964,42.077913],[2.458569,42.075149],[2.464026,42.075941],[2.467062,42.073726],[2.470683,42.069331],[2.472259,42.064484],[2.474469,42.06364],[2.477665,42.067349],[2.481436,42.068915],[2.49071,42.067309],[2.492153,42.063738],[2.495763,42.060504],[2.496651,42.058894],[2.494384,42.058805],[2.490592,42.055188],[2.486,42.054328],[2.483745,42.052132],[2.482601,42.052313],[2.482577,42.049235],[2.484079,42.04648],[2.48788,42.045605],[2.492667,42.037831],[2.496971,42.036769],[2.500113,42.033026],[2.506519,42.032259],[2.503495,42.024663],[2.499527,42.021496],[2.494395,42.021202],[2.494837,42.017517],[2.496246,42.01636],[2.495515,42.011669],[2.503695,42.009664],[2.500271,42.008037],[2.49926,42.001505],[2.493558,42.00159],[2.488622,41.999072],[2.484959,41.99914],[2.483296,41.996645],[2.479871,41.998213],[2.479635,42.001358],[2.476876,42.001274],[2.476939,41.997382],[2.469139,41.99382],[2.488381,41.984653],[2.479901,41.982431],[2.480569,41.979401],[2.480783,41.978517],[2.475715,41.977535],[2.472712,41.975293],[2.472096,41.972055],[2.474673,41.96933],[2.465572,41.96674],[2.461797,41.967875],[2.457176,41.966034],[2.456128,41.967875],[2.4524,41.966036],[2.449585,41.970077],[2.44192,41.968191],[2.442901,41.971764],[2.43844,41.973353],[2.434067,41.972427],[2.431456,41.969112],[2.429461,41.968918],[2.429748,41.965349],[2.432783,41.965718],[2.439803,41.96317],[2.441836,41.959859],[2.442469,41.954553],[2.438333,41.951455],[2.437351,41.947991],[2.440567,41.946677],[2.440347,41.943671],[2.442587,41.941377],[2.445458,41.942096],[2.446403,41.943995],[2.45137,41.943696],[2.455204,41.940866],[2.45713,41.943511],[2.459569,41.944394],[2.462552,41.941209],[2.46285,41.937792],[2.465556,41.939112],[2.471105,41.939279],[2.480287,41.930089],[2.479129,41.925167],[2.48063,41.922862],[2.478643,41.919933],[2.481536,41.916004],[2.475179,41.914958],[2.472956,41.909411],[2.47038,41.908607],[2.468303,41.905744],[2.469003,41.90463],[2.460219,41.90252],[2.45936,41.898258],[2.457011,41.896705],[2.453876,41.895414],[2.449145,41.895747],[2.446652,41.894767],[2.44622,41.889558],[2.443665,41.887996],[2.439638,41.887674],[2.434872,41.890142],[2.431117,41.890329],[2.431869,41.894219],[2.428913,41.894314],[2.427366,41.896098],[2.424787,41.896238],[2.422183,41.893805],[2.417955,41.893249],[2.415929,41.896216],[2.407475,41.895707],[2.404751,41.886293],[2.396871,41.885998],[2.395998,41.882645],[2.392993,41.880446],[2.394028,41.879002],[2.39024,41.878649],[2.38757,41.879126],[2.387593,41.877685],[2.384421,41.876492],[2.384777,41.873721],[2.382964,41.871501],[2.378428,41.874127],[2.377557,41.8728],[2.373247,41.878701],[2.371428,41.879416],[2.370022,41.885487],[2.36823,41.884662],[2.36697,41.88013],[2.361881,41.883366],[2.356484,41.881062],[2.349853,41.886909],[2.346712,41.88738],[2.344902,41.886195],[2.340833,41.887096],[2.337884,41.889151],[2.334561,41.883832],[2.330279,41.882186],[2.328338,41.883033],[2.324161,41.875413],[2.324057,41.874005],[2.32556,41.873404],[2.324818,41.872169],[2.332705,41.863464],[2.330143,41.859307],[2.330554,41.85585],[2.326346,41.855649],[2.333345,41.844269],[2.34524,41.837339],[2.347686,41.832327],[2.345227,41.82679],[2.343678,41.82525],[2.344439,41.820821],[2.34676,41.817328],[2.349871,41.815679],[2.351876,41.812741],[2.351907,41.809651],[2.354654,41.807101],[2.364602,41.806626],[2.367458,41.804386],[2.370871,41.804046],[2.376366,41.804724],[2.379589,41.807715],[2.383041,41.808696],[2.38793,41.805162],[2.396626,41.805698],[2.405057,41.801663],[2.410753,41.801583],[2.41411,41.804296],[2.418452,41.804415],[2.4269,41.804582],[2.436885,41.802866],[2.443625,41.798351],[2.44412,41.789172],[2.456109,41.784172],[2.472531,41.789582],[2.471573,41.785253],[2.469503,41.777772],[2.482295,41.771525],[2.490208,41.765483],[2.494578,41.764283],[2.497841,41.76518],[2.505746,41.762568],[2.516328,41.761888],[2.519014,41.75579],[2.515709,41.753419],[2.517233,41.750312],[2.515985,41.748662],[2.523516,41.742303],[2.531593,41.738943],[2.533635,41.735018],[2.531032,41.730472],[2.533928,41.728801],[2.537898,41.721732],[2.545497,41.720401],[2.547664,41.719054],[2.561689,41.723118],[2.569362,41.726652],[2.571977,41.726047],[2.577693,41.724338],[2.584191,41.725551],[2.590298,41.728611],[2.598906,41.727966],[2.60405,41.727291],[2.611076,41.730539],[2.620934,41.731685],[2.628672,41.730845],[2.637247,41.73325],[2.638988,41.73528],[2.63975,41.742867],[2.642205,41.743989],[2.647459,41.744],[2.656651,41.742736],[2.656451,41.746058],[2.657952,41.747677],[2.664088,41.747472],[2.669816,41.745361],[2.681478,41.739553],[2.686934,41.741298],[2.685898,41.745617],[2.68109,41.744397],[2.682103,41.748245],[2.68933,41.746374],[2.690125,41.7415],[2.694516,41.741282],[2.70094,41.742834],[2.703337,41.744785],[2.707721,41.740957],[2.725159,41.744299],[2.745106,41.734965],[2.777216,41.735473],[2.777584,41.731007],[2.770881,41.72823],[2.769891,41.726578],[2.766193,41.725676],[2.774649,41.700224],[2.770213,41.687341],[2.758225,41.679114],[2.761785,41.669258],[2.765623,41.666129],[2.771314,41.660369],[2.778727,41.648806],[2.775515,41.647527],[2.757332,41.645509],[2.74521,41.642399],[2.728155,41.635107],[2.717802,41.628496],[2.703235,41.624685],[2.698379,41.622279],[2.671084,41.614758],[2.655649,41.61111],[2.639782,41.604818],[2.632373,41.603894],[2.625691,41.600028],[2.624808,41.600901],[2.619125,41.598038],[2.615177,41.597582],[2.595581,41.59054],[2.578692,41.584224],[2.572415,41.583322],[2.562988,41.578635],[2.56128,41.575254],[2.55807,41.574326],[2.560902,41.575347],[2.56125,41.578242],[2.561679,41.577048],[2.562901,41.579374],[2.555464,41.579377],[2.556462,41.578039],[2.559801,41.577436],[2.556104,41.577593],[2.554935,41.578518],[2.551514,41.578061],[2.534702,41.571423],[2.533511,41.569466],[2.532049,41.570051],[2.53055,41.568104],[2.529175,41.568566],[2.526467,41.566482],[2.524966,41.567005],[2.523561,41.56529],[2.522629,41.565903],[2.520259,41.564802],[2.520739,41.564104],[2.519985,41.564824],[2.518361,41.564055],[2.518751,41.56301],[2.515931,41.56283],[2.516373,41.561827],[2.515338,41.562617],[2.513369,41.560757],[2.512866,41.561602],[2.509034,41.560372],[2.495261,41.552734],[2.487705,41.551116],[2.46925,41.54602],[2.46126,41.542358],[2.454871,41.536921],[2.453013,41.537063],[2.442958,41.529627],[2.42458,41.519183],[2.403001,41.506175],[2.389197,41.498886],[2.38827,41.499413],[2.376316,41.494168],[2.369441,41.491547],[2.369417,41.49053],[2.365988,41.489458],[2.368781,41.491381],[2.351239,41.485997],[2.350745,41.484948],[2.349707,41.485717],[2.346959,41.484917],[2.322613,41.479297],[2.316659,41.476396],[2.316468,41.477928],[2.31313,41.476929],[2.313877,41.476256],[2.309455,41.476342],[2.296735,41.472294],[2.270652,41.460802],[2.254838,41.449798],[2.245975,41.439777],[2.237463,41.425888],[2.232578,41.418259],[2.229146,41.415293],[2.228862,41.4131],[2.22254,41.412426],[2.229207,41.409571],[2.226133,41.405283],[2.22364,41.4062],[2.221667,41.404629],[2.223593,41.405182],[2.222099,41.403404],[2.22004,41.405274],[2.217854,41.404053],[2.217094,41.403042],[2.218475,41.402119],[2.216833,41.402885],[2.214257,41.399989],[2.215706,41.398917],[2.214195,41.399442],[2.210709,41.396254],[2.212025,41.395219],[2.211275,41.394675],[2.209724,41.395889],[2.205303,41.391634],[2.206352,41.390776],[2.202118,41.390005],[2.201417,41.388785],[2.20369,41.387419],[2.199573,41.383532],[2.20268,41.386594],[2.200839,41.38532],[2.200115,41.385866],[2.201882,41.387196],[2.200461,41.388267],[2.1984,41.386895],[2.200067,41.38518],[2.196422,41.383508],[2.195424,41.381895],[2.197344,41.381204],[2.196778,41.38027],[2.194871,41.380956],[2.192906,41.377316],[2.189493,41.37068],[2.189908,41.369679],[2.192041,41.369949],[2.185416,41.357635],[2.184534,41.357827],[2.186628,41.363431],[2.18925,41.366679],[2.187864,41.367188],[2.185944,41.364786],[2.186703,41.363879],[2.185292,41.364591],[2.187215,41.370093],[2.186283,41.367944],[2.185069,41.368065],[2.184573,41.37096],[2.187079,41.370696],[2.185657,41.371188],[2.187478,41.373116],[2.186662,41.374765],[2.185682,41.372534],[2.184139,41.372929],[2.184677,41.375077],[2.186738,41.375603],[2.186125,41.380024],[2.183568,41.380464],[2.185026,41.376729],[2.182856,41.374008],[2.180797,41.375397],[2.183186,41.377566],[2.182407,41.379448],[2.179581,41.375909],[2.180996,41.374844],[2.179542,41.375506],[2.178203,41.373833],[2.183134,41.371598],[2.18208,41.370279],[2.177128,41.372093],[2.176593,41.367145],[2.182322,41.364728],[2.18321,41.365311],[2.183546,41.363275],[2.17529,41.350291],[2.170003,41.326466],[2.173189,41.317088],[2.169189,41.326338],[2.171217,41.335115],[2.169834,41.335282],[2.169792,41.337938],[2.171854,41.34908],[2.182152,41.364464],[2.180373,41.36511],[2.179343,41.363497],[2.175996,41.365263],[2.173368,41.361817],[2.176772,41.360559],[2.175457,41.358531],[2.170958,41.36019],[2.169969,41.358658],[2.173135,41.356531],[2.167444,41.347873],[2.162556,41.351895],[2.161472,41.351375],[2.165945,41.34589],[2.161741,41.349984],[2.160422,41.349351],[2.161573,41.347366],[2.153325,41.342653],[2.152941,41.345552],[2.15088,41.345747],[2.149622,41.33662],[2.145673,41.336504],[2.144356,41.334769],[2.147357,41.333717],[2.145981,41.33101],[2.148516,41.330125],[2.155724,41.341835],[2.159227,41.343421],[2.16661,41.341885],[2.159179,41.326982],[2.158845,41.327778],[2.154641,41.327803],[2.152932,41.322964],[2.150675,41.320966],[2.138541,41.305677],[2.119802,41.292064],[2.105659,41.286302],[2.074842,41.277271],[2.046525,41.270678],[2.026853,41.266869],[2.003182,41.264723],[1.9445,41.264094],[1.928858,41.261744],[1.930215,41.258636],[1.929151,41.259164],[1.92398,41.256551],[1.922919,41.256609],[1.928828,41.25933],[1.928229,41.260795],[1.927709,41.259445],[1.926783,41.260372],[1.927281,41.25932],[1.926748,41.260361],[1.926886,41.259205],[1.925503,41.259999],[1.926036,41.258957],[1.924921,41.259832],[1.925022,41.258601],[1.924618,41.259787],[1.922885,41.259303],[1.92456,41.258929],[1.923284,41.257267],[1.923532,41.258304],[1.922041,41.258021],[1.920929,41.259144],[1.903306,41.253857],[1.901483,41.250689],[1.901631,41.25192],[1.9,41.251827],[1.899279,41.251312],[1.900906,41.251223],[1.896733,41.24973],[1.885562,41.247742],[1.869482,41.242918],[1.866322,41.239612],[1.867791,41.23793],[1.866086,41.236574],[1.86747,41.237947],[1.865937,41.239734],[1.863804,41.23862],[1.862441,41.239469],[1.861448,41.236754],[1.853601,41.234365],[1.840224,41.23475],[1.829088,41.236681],[1.827652,41.236168],[1.827059,41.233004],[1.824231,41.231991],[1.826817,41.233289],[1.825924,41.23471],[1.824473,41.233984],[1.823878,41.234682],[1.823927,41.233879],[1.823384,41.234652],[1.82343,41.233849],[1.822926,41.234627],[1.822977,41.233794],[1.822527,41.234603],[1.82258,41.233771],[1.822118,41.23458],[1.82217,41.233749],[1.821606,41.23455],[1.821867,41.233356],[1.825179,41.233525],[1.821665,41.233105],[1.820671,41.235733],[1.81477,41.235999],[1.810052,41.23301],[1.808325,41.234181],[1.806025,41.233522],[1.8063,41.232767],[1.803276,41.232667],[1.803032,41.231491],[1.802305,41.2323],[1.800043,41.23171],[1.799147,41.230157],[1.798364,41.230872],[1.796379,41.230233],[1.788328,41.22509],[1.783304,41.223469],[1.776413,41.223558],[1.771018,41.220847],[1.767522,41.221126],[1.766277,41.219714],[1.763582,41.219925],[1.761744,41.2186],[1.756632,41.219412],[1.752761,41.21962],[1.752069,41.218614],[1.741571,41.21741],[1.737242,41.214274],[1.738462,41.210703],[1.734992,41.209873],[1.733495,41.207458],[1.730056,41.205746],[1.733989,41.208519],[1.734363,41.211061],[1.737675,41.211186],[1.737052,41.212804],[1.734532,41.212576],[1.737015,41.213436],[1.736111,41.21578],[1.734001,41.215451],[1.734741,41.213485],[1.733653,41.21542],[1.729391,41.215182],[1.729908,41.214089],[1.728414,41.213548],[1.729756,41.21001],[1.731536,41.210223],[1.729414,41.209562],[1.728413,41.212206],[1.71696,41.212111],[1.707521,41.207374],[1.697732,41.207865],[1.68368,41.201755],[1.675668,41.19857],[1.645573,41.195623],[1.641165,41.203741],[1.641588,41.211738],[1.646893,41.211883],[1.646646,41.20857],[1.653502,41.207404],[1.648205,41.212227]],[[1.715646,41.892137],[1.714015,41.892727],[1.712054,41.89621],[1.709745,41.897098],[1.708747,41.894663],[1.712132,41.891048],[1.710062,41.888793],[1.70719,41.890207],[1.706505,41.888977],[1.715941,41.88584],[1.719108,41.882389],[1.725267,41.893018],[1.720295,41.895367],[1.718628,41.89287],[1.715646,41.892137]],[[1.635682,41.309508],[1.640284,41.31042],[1.642512,41.312032],[1.642852,41.312944],[1.633587,41.313481],[1.629325,41.310645],[1.635682,41.309508]],[[2.020759,42.131282],[2.022153,42.127664],[2.018669,42.12734],[2.017563,42.126047],[2.011214,42.126821],[2.00289,42.125555],[2.006169,42.123125],[2.006371,42.121235],[2.001624,42.120236],[2.004281,42.118814],[2.00337,42.117837],[2.004593,42.11664],[2.006984,42.115824],[2.007902,42.10724],[2.015259,42.108376],[2.017919,42.110222],[2.021736,42.118878],[2.020086,42.121102],[2.030145,42.121227],[2.031776,42.126999],[2.030001,42.129021],[2.026628,42.130097],[2.026326,42.130866],[2.020759,42.131282]]],[[[1.65632,42.115383],[1.657718,42.114165],[1.664348,42.113553],[1.671407,42.114661],[1.683506,42.114418],[1.688765,42.11261],[1.692037,42.112863],[1.692232,42.110271],[1.688251,42.106472],[1.689752,42.104853],[1.679718,42.103553],[1.667258,42.104935],[1.645234,42.11261],[1.65223,42.114514],[1.65573,42.113436],[1.65632,42.115383]]]]}}
]
}
