{
"type": "FeatureCollection",
"name": "cod_prov_48",
"crs": { "type": "name", "properties": { "name": "urn:ogc:def:crs:OGC:1.3:CRS84" } },
"xy_coordinate_resolution": 1e-15,
"features": [
{"type":"Feature","properties":{"fid":50,"cod_ccaa":"16","provincia":"Vizcaya","cod_prov":"48"},"geometry":{"type":"MultiPolygon","coordinates":[[[[-3.018789,43.017721],[-3.007139,43.0134],[-2.997856,43.014264],[-2.986044,43.012134],[-2.983784,43.008698],[-2.993776,42.998667],[-2.98639,42.99239],[-2.97173,42.996449],[-2.966934,42.999198],[-2.966373,43.001148],[-2.955609,42.998798],[-2.958283,42.994441],[-2.967755,42.991733],[-2.974002,42.988642],[-2.994544,42.988429],[-3.000384,42.989595],[-3.003804,42.986398],[-3.004459,42.982197],[-3.024895,42.982389],[-3.031538,42.983607],[-3.036957,42.982232],[-3.041164,42.982321],[-3.046431,42.98919],[-3.052912,42.99441],[-3.060835,42.998724],[-3.060256,43.003511],[-3.071767,43.005611],[-3.077096,43.008526],[-3.0793,43.004805],[-3.088989,43.001637],[-3.089417,43.00175],[-3.090485,43.00943],[-3.085683,43.012963],[-3.07283,43.018456],[-3.07215,43.019789],[-3.064316,43.023522],[-3.063123,43.028372],[-3.064367,43.031892],[-3.062562,43.03617],[-3.050483,43.046406],[-3.0484,43.04534],[-3.044604,43.046332],[-3.042839,43.043842],[-3.028837,43.047818],[-3.028632,43.044031],[-3.028451,43.035801],[-3.018388,43.037163],[-3.024572,43.029071],[-3.033229,43.02439],[-3.032561,43.020442],[-3.028081,43.018647],[-3.018789,43.017721]]],[[[-3.065762,43.155938],[-3.074692,43.146432],[-3.080643,43.147365],[-3.087138,43.151345],[-3.091527,43.152291],[-3.10886,43.14338],[-3.110997,43.143103],[-3.11724,43.146235],[-3.123425,43.154423],[-3.133323,43.156069],[-3.137241,43.16121],[-3.137768,43.162515],[-3.141349,43.161539],[-3.141172,43.165411],[-3.148417,43.174006],[-3.157972,43.178032],[-3.162977,43.176917],[-3.168038,43.178585],[-3.174056,43.177369],[-3.175523,43.175503],[-3.178893,43.175246],[-3.179565,43.174286],[-3.185642,43.169229],[-3.197112,43.170479],[-3.204777,43.174455],[-3.208128,43.179411],[-3.210953,43.177857],[-3.213129,43.173792],[-3.218474,43.175159],[-3.224091,43.170133],[-3.223495,43.17225],[-3.227817,43.176339],[-3.230118,43.176406],[-3.231136,43.178881],[-3.233425,43.179002],[-3.236069,43.181725],[-3.237735,43.186188],[-3.244136,43.189957],[-3.249182,43.195997],[-3.25304,43.198271],[-3.254634,43.195796],[-3.257117,43.195115],[-3.262451,43.196274],[-3.263689,43.194947],[-3.267907,43.194208],[-3.276877,43.194331],[-3.278111,43.194427],[-3.278089,43.189591],[-3.297438,43.182618],[-3.300522,43.179107],[-3.305741,43.177014],[-3.306932,43.173994],[-3.309299,43.172502],[-3.319578,43.171258],[-3.320222,43.169707],[-3.333696,43.165689],[-3.338578,43.167538],[-3.341969,43.166844],[-3.350632,43.154355],[-3.359942,43.152084],[-3.37102,43.151446],[-3.371951,43.148777],[-3.380121,43.145409],[-3.388868,43.140004],[-3.39418,43.140031],[-3.400017,43.137562],[-3.405246,43.137948],[-3.410338,43.134535],[-3.417647,43.133429],[-3.422117,43.152295],[-3.425965,43.155658],[-3.427127,43.160057],[-3.429048,43.160266],[-3.429868,43.164972],[-3.431806,43.16601],[-3.432446,43.171221],[-3.433454,43.171046],[-3.435717,43.191875],[-3.435077,43.197766],[-3.432955,43.206752],[-3.44388,43.221172],[-3.446731,43.230508],[-3.449275,43.233145],[-3.448449,43.234814],[-3.448742,43.23611],[-3.445711,43.237589],[-3.441508,43.235427],[-3.437451,43.234776],[-3.436406,43.235077],[-3.436755,43.237381],[-3.432841,43.241223],[-3.430372,43.242096],[-3.423016,43.239945],[-3.418441,43.241069],[-3.410549,43.247067],[-3.413463,43.249903],[-3.406632,43.250683],[-3.39895,43.245821],[-3.391689,43.252635],[-3.388436,43.264217],[-3.385382,43.266407],[-3.382992,43.270494],[-3.378077,43.270807],[-3.368648,43.274593],[-3.359563,43.272028],[-3.341482,43.277508],[-3.340125,43.27803],[-3.339532,43.282228],[-3.342954,43.294455],[-3.337894,43.297901],[-3.334102,43.298812],[-3.332405,43.301879],[-3.329235,43.297152],[-3.323687,43.292458],[-3.316067,43.294514],[-3.313407,43.297448],[-3.294943,43.300756],[-3.292728,43.296548],[-3.294608,43.292815],[-3.29112,43.290366],[-3.279445,43.290053],[-3.268632,43.295067],[-3.264494,43.296022],[-3.261046,43.29404],[-3.254326,43.296666],[-3.252405,43.300047],[-3.249707,43.300711],[-3.249136,43.302801],[-3.246418,43.304274],[-3.225228,43.308937],[-3.224168,43.302438],[-3.225014,43.297898],[-3.224009,43.295982],[-3.217953,43.291735],[-3.21836,43.286885],[-3.209411,43.28355],[-3.205278,43.290947],[-3.199083,43.292858],[-3.197564,43.29567],[-3.193209,43.298451],[-3.185665,43.298914],[-3.18422,43.298151],[-3.180243,43.299724],[-3.17409,43.2994],[-3.1736,43.300436],[-3.171324,43.299832],[-3.157326,43.30132],[-3.151851,43.306572],[-3.149666,43.319416],[-3.15432,43.340822],[-3.151284,43.345202],[-3.150898,43.348868],[-3.153536,43.352817],[-3.144175,43.351227],[-3.138595,43.352458],[-3.1312,43.352534],[-3.129234,43.354405],[-3.128203,43.353726],[-3.125568,43.353063],[-3.121694,43.348758],[-3.121632,43.346719],[-3.115773,43.349129],[-3.112415,43.350677],[-3.11378,43.353885],[-3.112444,43.354882],[-3.113146,43.3572],[-3.110831,43.362438],[-3.1087,43.363426],[-3.109306,43.364673],[-3.107688,43.364003],[-3.089456,43.375054],[-3.104524,43.364677],[-3.101568,43.363271],[-3.097089,43.363837],[-3.086173,43.359704],[-3.088886,43.359193],[-3.083072,43.355992],[-3.079993,43.352135],[-3.077528,43.352295],[-3.069191,43.346816],[-3.067935,43.347042],[-3.064162,43.345928],[-3.061369,43.34366],[-3.053993,43.342187],[-3.055343,43.341975],[-3.046865,43.33862],[-3.037874,43.344273],[-3.031764,43.346612],[-3.03426,43.343563],[-3.032194,43.34332],[-3.032318,43.342033],[-3.038385,43.342697],[-3.040944,43.340855],[-3.032796,43.339241],[-3.030882,43.339683],[-3.031359,43.337256],[-3.038351,43.337956],[-3.042326,43.339977],[-3.043548,43.33922],[-3.037396,43.335962],[-3.028868,43.335226],[-3.029221,43.333421],[-3.026626,43.332246],[-3.023703,43.328204],[-3.019411,43.324391],[-3.009981,43.315226],[-3.006664,43.318553],[-3.011088,43.319917],[-3.015333,43.321393],[-3.020817,43.32879],[-3.017426,43.326656],[-3.016219,43.327705],[-3.018374,43.328714],[-3.016868,43.330321],[-3.018154,43.328768],[-3.016699,43.329925],[-3.017595,43.328502],[-3.016154,43.327917],[-3.014895,43.329335],[-3.015972,43.329763],[-3.015155,43.330699],[-3.015531,43.329839],[-3.014648,43.329412],[-3.014349,43.329718],[-3.010065,43.337521],[-3.015223,43.34055],[-3.014067,43.339348],[-3.016206,43.340667],[-3.02781,43.341921],[-3.014642,43.340587],[-3.01239,43.347705],[-3.019378,43.351157],[-3.021251,43.353498],[-3.019947,43.35421],[-3.019384,43.358473],[-3.033426,43.366921],[-3.037398,43.372453],[-3.03963,43.373267],[-3.036971,43.373052],[-3.03522,43.374547],[-3.035914,43.375164],[-3.032283,43.376547],[-3.031025,43.378934],[-3.022203,43.37826],[-3.015636,43.380918],[-3.013915,43.382795],[-3.008601,43.381841],[-3.005569,43.383188],[-3.002928,43.385542],[-3.003476,43.386218],[-2.999282,43.386524],[-2.992589,43.390274],[-2.992453,43.391562],[-2.990755,43.391354],[-2.989301,43.393821],[-2.990583,43.395298],[-2.98966,43.394884],[-2.985989,43.395082],[-2.985641,43.398427],[-2.973662,43.404341],[-2.971222,43.409567],[-2.972135,43.410891],[-2.970679,43.411129],[-2.970461,43.412583],[-2.966688,43.412546],[-2.964607,43.414473],[-2.961812,43.413724],[-2.961388,43.41498],[-2.959255,43.415362],[-2.959581,43.412855],[-2.953242,43.410984],[-2.950824,43.411685],[-2.949841,43.413332],[-2.950507,43.411005],[-2.946839,43.408797],[-2.952304,43.405486],[-2.950319,43.403135],[-2.951062,43.405549],[-2.945345,43.407342],[-2.946067,43.409504],[-2.949304,43.411531],[-2.947187,43.41113],[-2.945179,43.412655],[-2.944271,43.415198],[-2.945947,43.418351],[-2.947729,43.419225],[-2.948931,43.417375],[-2.949443,43.418267],[-2.953014,43.417962],[-2.950532,43.42032],[-2.953478,43.42128],[-2.952129,43.42295],[-2.955449,43.421993],[-2.952653,43.424369],[-2.953788,43.426944],[-2.952925,43.428569],[-2.950845,43.430117],[-2.947312,43.429814],[-2.945837,43.431452],[-2.946888,43.43586],[-2.934923,43.434211],[-2.921566,43.437367],[-2.920614,43.437245],[-2.90347,43.43761],[-2.901887,43.436325],[-2.903556,43.435255],[-2.903057,43.433512],[-2.899198,43.43165],[-2.897794,43.433391],[-2.899965,43.432483],[-2.900608,43.433515],[-2.899749,43.432798],[-2.896651,43.434565],[-2.894272,43.431933],[-2.892442,43.432778],[-2.892643,43.434566],[-2.885263,43.435986],[-2.882572,43.435195],[-2.880729,43.436265],[-2.876866,43.43518],[-2.87525,43.435813],[-2.875627,43.435003],[-2.870449,43.435141],[-2.869411,43.434343],[-2.870058,43.43235],[-2.863651,43.43005],[-2.860434,43.430893],[-2.850582,43.430029],[-2.847512,43.432974],[-2.844258,43.431831],[-2.841049,43.43283],[-2.834669,43.431322],[-2.831184,43.432028],[-2.828703,43.431304],[-2.826588,43.431648],[-2.823824,43.43434],[-2.819509,43.432402],[-2.817267,43.433524],[-2.814703,43.432133],[-2.811168,43.432411],[-2.809757,43.430248],[-2.806079,43.430395],[-2.800089,43.432847],[-2.798462,43.436464],[-2.796203,43.437847],[-2.796331,43.439508],[-2.78466,43.444507],[-2.784815,43.446182],[-2.78696,43.446771],[-2.785906,43.448093],[-2.783246,43.448232],[-2.783949,43.447436],[-2.783726,43.446918],[-2.784426,43.446276],[-2.784333,43.445672],[-2.783648,43.445099],[-2.779786,43.444205],[-2.776579,43.44477],[-2.773728,43.447236],[-2.768232,43.449058],[-2.76568,43.448305],[-2.760297,43.449888],[-2.751934,43.456839],[-2.746825,43.452074],[-2.747863,43.444346],[-2.738953,43.429761],[-2.73592,43.427606],[-2.72964,43.425719],[-2.723301,43.42664],[-2.722139,43.425561],[-2.720941,43.42658],[-2.719599,43.425686],[-2.721304,43.424024],[-2.719775,43.423628],[-2.720262,43.421892],[-2.718887,43.420515],[-2.710889,43.422148],[-2.718421,43.420149],[-2.717994,43.418708],[-2.719656,43.418613],[-2.718873,43.420232],[-2.719832,43.420653],[-2.720862,43.419953],[-2.720095,43.41869],[-2.723546,43.418411],[-2.721976,43.417245],[-2.714325,43.418302],[-2.712359,43.419243],[-2.7127,43.420711],[-2.711886,43.418836],[-2.708978,43.418649],[-2.70037,43.415223],[-2.701292,43.412817],[-2.699669,43.410611],[-2.696934,43.411108],[-2.696941,43.408578],[-2.69898,43.40848],[-2.697699,43.407688],[-2.697306,43.408444],[-2.696224,43.407077],[-2.69616,43.405438],[-2.699155,43.405256],[-2.699523,43.404294],[-2.695789,43.403037],[-2.693612,43.397336],[-2.695023,43.397164],[-2.694604,43.392476],[-2.691527,43.391612],[-2.69113,43.388608],[-2.690523,43.388246],[-2.687617,43.386469],[-2.688396,43.383396],[-2.687018,43.381947],[-2.681186,43.380544],[-2.680173,43.374464],[-2.676796,43.373999],[-2.678342,43.377052],[-2.675754,43.376144],[-2.676456,43.375034],[-2.675259,43.374144],[-2.675056,43.375296],[-2.674163,43.373969],[-2.674427,43.375798],[-2.678375,43.381144],[-2.67848,43.381613],[-2.682915,43.387672],[-2.681942,43.388448],[-2.683095,43.39303],[-2.680484,43.394639],[-2.684851,43.398555],[-2.687688,43.398585],[-2.685257,43.400811],[-2.684739,43.404533],[-2.678567,43.411873],[-2.667934,43.412558],[-2.662073,43.40929],[-2.657872,43.409264],[-2.654966,43.410142],[-2.656105,43.411676],[-2.654807,43.410583],[-2.654852,43.412812],[-2.653547,43.410768],[-2.652342,43.410873],[-2.648841,43.415396],[-2.645867,43.416156],[-2.637688,43.41306],[-2.636088,43.41066],[-2.636341,43.406456],[-2.637971,43.404917],[-2.636558,43.404142],[-2.638051,43.404705],[-2.63816,43.402977],[-2.637435,43.402425],[-2.637141,43.404009],[-2.637393,43.402344],[-2.6312,43.398497],[-2.627993,43.394894],[-2.621792,43.394054],[-2.618567,43.391594],[-2.611656,43.392228],[-2.601476,43.394566],[-2.601044,43.392876],[-2.597566,43.390419],[-2.593395,43.391026],[-2.590163,43.387367],[-2.586663,43.387589],[-2.585268,43.389011],[-2.582695,43.387786],[-2.583795,43.383153],[-2.581819,43.386067],[-2.578041,43.386729],[-2.574273,43.389294],[-2.562784,43.390912],[-2.558679,43.387911],[-2.558198,43.384339],[-2.553335,43.381597],[-2.553944,43.379118],[-2.551825,43.378092],[-2.554373,43.374537],[-2.552187,43.374983],[-2.543367,43.372724],[-2.539213,43.374909],[-2.535487,43.37542],[-2.53421,43.376937],[-2.533375,43.375821],[-2.530928,43.376392],[-2.5282,43.3749],[-2.526631,43.376172],[-2.519895,43.375049],[-2.513323,43.376804],[-2.509327,43.376927],[-2.503771,43.37051],[-2.503498,43.367492],[-2.498846,43.366724],[-2.499993,43.364933],[-2.50159,43.365503],[-2.502601,43.364224],[-2.500632,43.364877],[-2.501766,43.363662],[-2.49929,43.362593],[-2.498424,43.363945],[-2.496443,43.364895],[-2.498653,43.363545],[-2.498844,43.360381],[-2.49785,43.363361],[-2.496005,43.363848],[-2.492126,43.362498],[-2.490386,43.364985],[-2.489122,43.363674],[-2.488216,43.364066],[-2.484421,43.359312],[-2.484479,43.357332],[-2.48139,43.355571],[-2.478641,43.356103],[-2.475425,43.351014],[-2.471243,43.35013],[-2.463995,43.338755],[-2.459897,43.335269],[-2.455915,43.337011],[-2.445037,43.332825],[-2.443413,43.333331],[-2.440649,43.332254],[-2.438494,43.333923],[-2.435197,43.334046],[-2.422931,43.330068],[-2.423368,43.329872],[-2.422761,43.329113],[-2.420892,43.328941],[-2.42066,43.328004],[-2.419664,43.327787],[-2.420038,43.327226],[-2.417482,43.325439],[-2.415545,43.325884],[-2.417212,43.325159],[-2.419956,43.325564],[-2.421517,43.32478],[-2.41889,43.326108],[-2.420906,43.326983],[-2.422754,43.323926],[-2.421664,43.32442],[-2.420484,43.321519],[-2.420004,43.321864],[-2.420746,43.322178],[-2.420136,43.322094],[-2.419385,43.324049],[-2.418264,43.32484],[-2.419273,43.32407],[-2.418052,43.322416],[-2.41167,43.320178],[-2.413254,43.32069],[-2.415495,43.319774],[-2.41996,43.312553],[-2.425238,43.310878],[-2.433938,43.304276],[-2.432639,43.301095],[-2.436509,43.300142],[-2.439139,43.297715],[-2.439906,43.295409],[-2.43853,43.293452],[-2.440298,43.291025],[-2.439884,43.288259],[-2.434459,43.283365],[-2.43212,43.283426],[-2.428552,43.281422],[-2.42467,43.275356],[-2.426786,43.273057],[-2.429235,43.273943],[-2.432857,43.273259],[-2.433111,43.271509],[-2.427949,43.26902],[-2.42308,43.270414],[-2.421215,43.273592],[-2.417896,43.267488],[-2.424582,43.259665],[-2.43553,43.254547],[-2.439191,43.249099],[-2.436654,43.243688],[-2.443338,43.240596],[-2.443932,43.238047],[-2.450068,43.232043],[-2.459543,43.225947],[-2.46254,43.222976],[-2.473926,43.221805],[-2.485304,43.224887],[-2.490554,43.224298],[-2.493872,43.226024],[-2.499597,43.213722],[-2.49875,43.211993],[-2.499501,43.209656],[-2.496409,43.20776],[-2.492232,43.203086],[-2.490093,43.201717],[-2.486817,43.201427],[-2.488042,43.198488],[-2.486333,43.196392],[-2.488989,43.193738],[-2.487677,43.189685],[-2.493149,43.180893],[-2.490084,43.179038],[-2.48479,43.171518],[-2.482773,43.170262],[-2.483354,43.169229],[-2.491472,43.167095],[-2.50176,43.167838],[-2.502599,43.166063],[-2.507608,43.166625],[-2.507428,43.164423],[-2.509737,43.16134],[-2.504735,43.155659],[-2.503297,43.15531],[-2.500649,43.151161],[-2.502629,43.148752],[-2.501779,43.145961],[-2.503982,43.139892],[-2.499074,43.126998],[-2.496479,43.124258],[-2.50093,43.119668],[-2.503437,43.107067],[-2.504543,43.096649],[-2.500341,43.096153],[-2.501283,43.094644],[-2.502722,43.095245],[-2.506217,43.094333],[-2.513543,43.089911],[-2.522531,43.094078],[-2.526507,43.09567],[-2.529763,43.093883],[-2.544886,43.091391],[-2.54631,43.088007],[-2.54712,43.087686],[-2.558442,43.084425],[-2.562128,43.084989],[-2.566491,43.083866],[-2.580531,43.083856],[-2.586212,43.081706],[-2.591866,43.081295],[-2.610271,43.084493],[-2.624079,43.08525],[-2.632547,43.086777],[-2.66124,43.073877],[-2.659819,43.066488],[-2.661103,43.065907],[-2.657282,43.064693],[-2.648256,43.058849],[-2.639211,43.047361],[-2.634884,43.045461],[-2.633346,43.042475],[-2.634785,43.041323],[-2.633635,43.033237],[-2.630121,43.029011],[-2.633652,43.020171],[-2.643218,43.021561],[-2.65256,43.027754],[-2.652481,43.02996],[-2.65621,43.026738],[-2.665935,43.03181],[-2.673722,43.025903],[-2.676116,43.026428],[-2.685234,43.021221],[-2.687537,43.023641],[-2.690476,43.021974],[-2.693077,43.022355],[-2.697803,43.026546],[-2.701963,43.028407],[-2.703524,43.031072],[-2.707352,43.029916],[-2.715236,43.030602],[-2.721408,43.026881],[-2.729849,43.024006],[-2.733598,43.025271],[-2.737987,43.032643],[-2.74074,43.034252],[-2.746103,43.033269],[-2.75103,43.026828],[-2.758425,43.028388],[-2.769462,43.026912],[-2.773819,43.028978],[-2.773698,43.03068],[-2.781755,43.034171],[-2.790586,43.034309],[-2.801086,43.033657],[-2.806993,43.03604],[-2.822092,43.035101],[-2.836544,43.041733],[-2.847901,43.044549],[-2.864134,43.051724],[-2.874186,43.049917],[-2.880161,43.050855],[-2.884228,43.050166],[-2.889363,43.048176],[-2.890205,43.045656],[-2.894035,43.046574],[-2.895619,43.04897],[-2.906516,43.055225],[-2.909605,43.055371],[-2.912609,43.05771],[-2.919066,43.059966],[-2.921688,43.064597],[-2.927319,43.067712],[-2.929368,43.071783],[-2.935352,43.074768],[-2.941239,43.076099],[-2.941247,43.079309],[-2.945896,43.082598],[-2.950381,43.083042],[-2.963019,43.094181],[-2.972907,43.095174],[-2.972951,43.095246],[-2.97499,43.099038],[-2.963947,43.104532],[-2.964702,43.104996],[-2.957623,43.114944],[-2.955611,43.114705],[-2.947922,43.124805],[-2.942486,43.128886],[-2.940921,43.13264],[-2.935432,43.136059],[-2.939248,43.139879],[-2.937798,43.143597],[-2.939555,43.146196],[-2.940788,43.145688],[-2.946168,43.153403],[-2.953757,43.159521],[-2.946283,43.170378],[-2.953906,43.17193],[-2.955921,43.173822],[-2.960632,43.175273],[-2.968681,43.181881],[-2.96984,43.184654],[-2.973015,43.186254],[-2.978084,43.195484],[-2.979299,43.202166],[-2.981201,43.202387],[-2.982386,43.200474],[-2.987829,43.200925],[-3.006529,43.196126],[-3.011746,43.199205],[-3.012978,43.204356],[-3.019915,43.206912],[-3.018067,43.20757],[-3.018998,43.210757],[-3.027092,43.217118],[-3.034202,43.216476],[-3.039785,43.210761],[-3.029252,43.205226],[-3.015789,43.201618],[-3.022098,43.19964],[-3.019133,43.195418],[-3.017928,43.194054],[-3.021645,43.193063],[-3.019576,43.187561],[-3.020824,43.179259],[-3.02788,43.170095],[-3.026769,43.160825],[-3.065762,43.155938]],[[-3.294666,43.24311],[-3.29287,43.240976],[-3.294849,43.232925],[-3.297139,43.230569],[-3.296717,43.221917],[-3.292517,43.219109],[-3.294326,43.211207],[-3.29747,43.208399],[-3.296659,43.206416],[-3.291077,43.203643],[-3.285677,43.197867],[-3.283026,43.200004],[-3.275279,43.201147],[-3.267107,43.203791],[-3.265857,43.206675],[-3.270382,43.212788],[-3.269342,43.214213],[-3.271554,43.218328],[-3.266662,43.222814],[-3.268375,43.224859],[-3.267919,43.226868],[-3.270828,43.230269],[-3.269375,43.233564],[-3.2573,43.239674],[-3.252512,43.246078],[-3.249201,43.259687],[-3.263802,43.265917],[-3.269799,43.266844],[-3.279465,43.261967],[-3.287388,43.262128],[-3.296536,43.260302],[-3.303398,43.256629],[-3.304052,43.254928],[-3.305613,43.252572],[-3.298091,43.247378],[-3.296173,43.243205],[-3.294666,43.24311]]],[[[-2.687737,43.387667],[-2.688786,43.388102],[-2.687434,43.388387],[-2.687737,43.387667]]],[[[-2.689461,43.387946],[-2.689519,43.388248],[-2.689194,43.38786],[-2.689461,43.387946]]],[[[-2.687131,43.390025],[-2.687407,43.389481],[-2.688892,43.390691],[-2.687131,43.390025]]],[[[-2.692015,43.394567],[-2.69395,43.392695],[-2.692405,43.395099],[-2.692015,43.394567]]],[[[-2.494163,43.366528],[-2.496592,43.365269],[-2.496887,43.367044],[-2.493642,43.368318],[-2.494163,43.366528]]]]}}
]
}
