{
"type": "FeatureCollection",
"name": "cod_prov_38",
"crs": { "type": "name", "properties": { "name": "urn:ogc:def:crs:OGC:1.3:CRS84" } },
"xy_coordinate_resolution": 1e-15,
"features": [
{"type":"Feature","properties":{"fid":23,"cod_ccaa":"05","provincia":"Santa Cruz de Tenerife","cod_prov":"38"},"geometry":{"type":"MultiPolygon","coordinates":[[[[-17.970439,27.658311],[-17.971465,27.650651],[-17.970322,27.648411],[-17.974383,27.645104],[-17.975483,27.641442],[-17.977857,27.639529],[-17.981946,27.638514],[-17.979534,27.639465],[-17.980524,27.640842],[-17.986864,27.63774],[-17.995716,27.640898],[-17.996025,27.644728],[-17.998246,27.646596],[-18.009903,27.649807],[-18.010462,27.651877],[-18.019304,27.660475],[-18.020309,27.663161],[-18.019351,27.665444],[-18.020611,27.667192],[-18.025008,27.670909],[-18.026633,27.670386],[-18.028722,27.671863],[-18.027749,27.676981],[-18.02868,27.678749],[-18.031455,27.679349],[-18.038371,27.686662],[-18.042459,27.687717],[-18.05027,27.692669],[-18.071815,27.697043],[-18.085121,27.697286],[-18.099236,27.701199],[-18.107381,27.700642],[-18.124773,27.705294],[-18.133452,27.704428],[-18.137847,27.703194],[-18.147994,27.704786],[-18.149826,27.707678],[-18.157464,27.711245],[-18.160799,27.71635],[-18.159526,27.722745],[-18.160304,27.725553],[-18.158273,27.726095],[-18.159284,27.727362],[-18.158034,27.727621],[-18.159039,27.729273],[-18.153487,27.729531],[-18.151848,27.731997],[-18.151662,27.748092],[-18.155252,27.750369],[-18.153516,27.756955],[-18.150392,27.758366],[-18.151284,27.760111],[-18.146942,27.759578],[-18.144433,27.762754],[-18.143975,27.761707],[-18.14362,27.762937],[-18.140525,27.762766],[-18.139575,27.764414],[-18.140506,27.766068],[-18.138408,27.765906],[-18.137801,27.76718],[-18.136519,27.766517],[-18.132211,27.771326],[-18.130376,27.770294],[-18.130421,27.771163],[-18.128455,27.771131],[-18.122894,27.76865],[-18.12158,27.769323],[-18.120491,27.764093],[-18.113887,27.759394],[-18.105631,27.756605],[-18.098677,27.756615],[-18.091589,27.754595],[-18.090421,27.755526],[-18.082432,27.753145],[-18.070124,27.753153],[-18.06009,27.756025],[-18.055533,27.759048],[-18.052504,27.758782],[-18.045407,27.761466],[-18.036559,27.762026],[-18.032501,27.765863],[-18.032587,27.767176],[-18.028801,27.768547],[-18.028538,27.770224],[-18.026015,27.770263],[-18.018041,27.775579],[-18.014624,27.78306],[-18.006224,27.78868],[-18.001751,27.789395],[-18.001815,27.790905],[-17.997705,27.790832],[-17.996945,27.792585],[-17.995425,27.792629],[-17.996035,27.793527],[-17.995108,27.792997],[-17.992979,27.794719],[-17.992743,27.796632],[-17.991678,27.796228],[-17.992668,27.797596],[-17.991355,27.797049],[-17.98924,27.799429],[-17.986556,27.806],[-17.986475,27.810106],[-17.992016,27.821995],[-17.986086,27.82179],[-17.983397,27.823043],[-17.982659,27.825321],[-17.982059,27.824511],[-17.976686,27.825427],[-17.972102,27.827396],[-17.971644,27.82948],[-17.966376,27.833116],[-17.966493,27.834505],[-17.965436,27.834064],[-17.965547,27.835586],[-17.963556,27.835784],[-17.963176,27.83936],[-17.9602,27.838824],[-17.957893,27.841884],[-17.946063,27.840353],[-17.941459,27.845925],[-17.939661,27.846692],[-17.93797,27.845749],[-17.937023,27.848255],[-17.935914,27.847509],[-17.93357,27.848813],[-17.930117,27.847069],[-17.929326,27.849029],[-17.926423,27.848207],[-17.925102,27.849254],[-17.923536,27.848169],[-17.922765,27.84886],[-17.921544,27.847111],[-17.917228,27.848097],[-17.916774,27.845417],[-17.915576,27.845834],[-17.914574,27.843368],[-17.912818,27.844634],[-17.913127,27.843446],[-17.911414,27.842512],[-17.90972,27.843692],[-17.908088,27.842404],[-17.907248,27.843469],[-17.905936,27.840876],[-17.901743,27.841715],[-17.903845,27.840626],[-17.903136,27.837716],[-17.899734,27.837287],[-17.899365,27.836075],[-17.898678,27.836757],[-17.898568,27.833266],[-17.893987,27.832381],[-17.893895,27.827455],[-17.892468,27.826013],[-17.89578,27.823927],[-17.894052,27.823884],[-17.8935,27.82222],[-17.892498,27.822724],[-17.886841,27.818381],[-17.883495,27.813282],[-17.882926,27.808621],[-17.884289,27.807761],[-17.882805,27.807205],[-17.88325,27.804099],[-17.885548,27.800213],[-17.88868,27.800035],[-17.891997,27.792877],[-17.896734,27.788569],[-17.895768,27.787602],[-17.898078,27.78611],[-17.899617,27.787286],[-17.900722,27.784004],[-17.901079,27.786708],[-17.903047,27.785676],[-17.904923,27.779453],[-17.90707,27.777969],[-17.90912,27.773663],[-17.914381,27.7706],[-17.909615,27.765275],[-17.913694,27.762131],[-17.924112,27.74681],[-17.926796,27.737317],[-17.925099,27.735208],[-17.926654,27.73467],[-17.927373,27.73193],[-17.931655,27.72854],[-17.937167,27.727722],[-17.940106,27.728361],[-17.942459,27.730557],[-17.948801,27.728861],[-17.957133,27.720098],[-17.958275,27.715561],[-17.957452,27.709271],[-17.95965,27.704032],[-17.959562,27.697934],[-17.958213,27.695585],[-17.959591,27.693982],[-17.958967,27.692274],[-17.96079,27.692493],[-17.964586,27.689635],[-17.967139,27.684761],[-17.96653,27.679447],[-17.972391,27.671931],[-17.970439,27.658311]]],[[[-17.332861,28.082081],[-17.331424,28.079962],[-17.337933,28.08457],[-17.337386,28.085669],[-17.339487,28.086468],[-17.34179,28.094464],[-17.344202,28.094698],[-17.348959,28.098943],[-17.347205,28.100976],[-17.346577,28.105281],[-17.347413,28.118134],[-17.346011,28.118645],[-17.345186,28.123904],[-17.34251,28.126458],[-17.341041,28.131301],[-17.34272,28.134363],[-17.342718,28.140571],[-17.346446,28.143608],[-17.345191,28.145274],[-17.346619,28.14814],[-17.344019,28.149765],[-17.346441,28.151865],[-17.342842,28.152474],[-17.342024,28.153709],[-17.342425,28.155973],[-17.339064,28.156913],[-17.339953,28.157807],[-17.338094,28.159036],[-17.338495,28.160157],[-17.334513,28.162975],[-17.337276,28.166097],[-17.336088,28.166404],[-17.336747,28.168373],[-17.335462,28.169854],[-17.335951,28.172451],[-17.337188,28.172561],[-17.336623,28.174743],[-17.332238,28.177919],[-17.33272,28.180221],[-17.330943,28.183461],[-17.328739,28.184516],[-17.328219,28.188551],[-17.324918,28.188492],[-17.321631,28.191808],[-17.32153,28.195216],[-17.323298,28.197202],[-17.320118,28.201526],[-17.318602,28.20123],[-17.318938,28.203849],[-17.316066,28.204512],[-17.313499,28.202595],[-17.308822,28.202498],[-17.305684,28.203564],[-17.299866,28.208406],[-17.297204,28.207052],[-17.292998,28.207291],[-17.287584,28.212663],[-17.285716,28.210348],[-17.283564,28.212324],[-17.281747,28.211139],[-17.281199,28.213712],[-17.278842,28.213488],[-17.278606,28.216869],[-17.276355,28.217941],[-17.275022,28.217734],[-17.274171,28.216505],[-17.275354,28.215804],[-17.273293,28.214275],[-17.271153,28.217245],[-17.265888,28.217869],[-17.265183,28.216918],[-17.260501,28.217866],[-17.260243,28.213192],[-17.257917,28.21275],[-17.256195,28.210547],[-17.254024,28.210937],[-17.252603,28.209104],[-17.254008,28.20754],[-17.25226,28.206971],[-17.253159,28.206056],[-17.251775,28.203228],[-17.248948,28.204515],[-17.248924,28.20309],[-17.24728,28.202589],[-17.247436,28.203949],[-17.245677,28.204688],[-17.245104,28.20098],[-17.243882,28.20073],[-17.239936,28.201864],[-17.239241,28.203544],[-17.235544,28.203925],[-17.235235,28.202683],[-17.233634,28.200471],[-17.229557,28.202875],[-17.225805,28.200102],[-17.222735,28.202097],[-17.220222,28.200595],[-17.217365,28.201755],[-17.21571,28.199682],[-17.211279,28.202197],[-17.209549,28.200901],[-17.208954,28.197745],[-17.207557,28.198341],[-17.20633,28.196906],[-17.201255,28.200705],[-17.19865,28.199389],[-17.196033,28.200094],[-17.196656,28.197975],[-17.193804,28.197863],[-17.192727,28.193292],[-17.185514,28.18781],[-17.184134,28.180713],[-17.176012,28.177395],[-17.168026,28.180809],[-17.167032,28.179737],[-17.166178,28.177644],[-17.164298,28.17858],[-17.166234,28.176204],[-17.165392,28.175078],[-17.166406,28.173494],[-17.164965,28.171811],[-17.16137,28.173222],[-17.158943,28.172326],[-17.155436,28.173367],[-17.156817,28.168897],[-17.154989,28.168278],[-17.155932,28.166939],[-17.153047,28.165827],[-17.153098,28.164547],[-17.151825,28.165907],[-17.149427,28.162647],[-17.138435,28.160374],[-17.137934,28.160104],[-17.132257,28.155015],[-17.129076,28.154774],[-17.125978,28.152243],[-17.121308,28.151955],[-17.120605,28.153443],[-17.118554,28.153446],[-17.116887,28.148357],[-17.118109,28.147517],[-17.117644,28.14562],[-17.114377,28.143478],[-17.112174,28.144453],[-17.110724,28.141565],[-17.11352,28.136972],[-17.11335,28.134367],[-17.109818,28.132497],[-17.109556,28.130752],[-17.103302,28.128365],[-17.106018,28.122742],[-17.104296,28.115132],[-17.103577,28.114098],[-17.101185,28.114284],[-17.105432,28.112288],[-17.105811,28.111001],[-17.103846,28.110072],[-17.104262,28.103609],[-17.101723,28.104],[-17.101602,28.098698],[-17.100604,28.09761],[-17.098939,28.098184],[-17.098477,28.095635],[-17.105126,28.091078],[-17.10567,28.089797],[-17.104386,28.089429],[-17.106315,28.089178],[-17.108866,28.083515],[-17.107458,28.089293],[-17.109512,28.089867],[-17.109903,28.088696],[-17.108209,28.088181],[-17.109991,28.088576],[-17.109915,28.089134],[-17.110762,28.08927],[-17.113228,28.087251],[-17.113653,28.081278],[-17.116875,28.078837],[-17.117948,28.075596],[-17.123975,28.072582],[-17.128506,28.073694],[-17.141839,28.064295],[-17.144659,28.060757],[-17.143906,28.055727],[-17.145281,28.054194],[-17.147483,28.053501],[-17.150007,28.05574],[-17.152593,28.055007],[-17.156995,28.048962],[-17.160805,28.047896],[-17.161001,28.04482],[-17.16254,28.045001],[-17.163917,28.042726],[-17.167787,28.042624],[-17.168549,28.0402],[-17.166994,28.036888],[-17.167927,28.035904],[-17.170593,28.035561],[-17.172794,28.038735],[-17.175287,28.03927],[-17.181146,28.037289],[-17.181379,28.035373],[-17.184026,28.033934],[-17.183047,28.031908],[-17.185236,28.029746],[-17.19508,28.029205],[-17.19833,28.027071],[-17.19818,28.02593],[-17.196475,28.026681],[-17.198559,28.023909],[-17.208447,28.024324],[-17.210615,28.027127],[-17.213406,28.027526],[-17.21919,28.025211],[-17.227645,28.026658],[-17.233919,28.025268],[-17.23462,28.02236],[-17.244345,28.019893],[-17.246459,28.021693],[-17.249014,28.021737],[-17.250223,28.024871],[-17.252888,28.025768],[-17.256357,28.026505],[-17.266093,28.024734],[-17.27103,28.025624],[-17.273584,28.030741],[-17.273187,28.035997],[-17.279412,28.036593],[-17.279605,28.03825],[-17.281088,28.038663],[-17.283599,28.0378],[-17.28653,28.039128],[-17.28928,28.037997],[-17.29046,28.045784],[-17.291753,28.04704],[-17.293698,28.046299],[-17.296126,28.048307],[-17.298254,28.04994],[-17.302184,28.049128],[-17.303623,28.051391],[-17.31028,28.052154],[-17.316965,28.059995],[-17.319449,28.058708],[-17.319014,28.063214],[-17.320884,28.064923],[-17.31853,28.069606],[-17.320239,28.075399],[-17.324563,28.079979],[-17.330411,28.081493],[-17.331369,28.082591],[-17.332861,28.082081]]],[[[-17.805821,28.50682],[-17.808589,28.501975],[-17.814168,28.498678],[-17.814385,28.496892],[-17.817128,28.494573],[-17.817833,28.489924],[-17.821085,28.487493],[-17.821433,28.485636],[-17.820189,28.485234],[-17.821774,28.485029],[-17.822116,28.480864],[-17.825179,28.475219],[-17.824696,28.47337],[-17.831491,28.465631],[-17.832996,28.457057],[-17.842263,28.452667],[-17.844355,28.455961],[-17.84877,28.456331],[-17.8517,28.458985],[-17.854578,28.458618],[-17.856974,28.460008],[-17.858121,28.463965],[-17.860861,28.464728],[-17.862213,28.466959],[-17.863633,28.466573],[-17.863379,28.467773],[-17.86865,28.473368],[-17.867937,28.478078],[-17.870855,28.481117],[-17.868481,28.482337],[-17.869348,28.483203],[-17.868093,28.48396],[-17.872407,28.487705],[-17.872918,28.490373],[-17.874622,28.490723],[-17.873234,28.491632],[-17.874703,28.492117],[-17.874714,28.494027],[-17.876152,28.493967],[-17.874457,28.496418],[-17.87686,28.501141],[-17.876116,28.506971],[-17.877466,28.507635],[-17.8748,28.50913],[-17.874682,28.512339],[-17.87688,28.513515],[-17.874992,28.514669],[-17.876408,28.516989],[-17.875333,28.521776],[-17.878604,28.523108],[-17.878034,28.523949],[-17.880108,28.525646],[-17.877505,28.526272],[-17.878741,28.527797],[-17.879914,28.53997],[-17.881281,28.541687],[-17.883318,28.541578],[-17.882588,28.543562],[-17.883987,28.548476],[-17.887629,28.551607],[-17.888799,28.551386],[-17.893362,28.55666],[-17.893705,28.560561],[-17.898561,28.566914],[-17.899429,28.571964],[-17.905637,28.574037],[-17.908149,28.580811],[-17.91028,28.581821],[-17.911277,28.586549],[-17.918394,28.59204],[-17.925908,28.596235],[-17.926244,28.599687],[-17.924131,28.600727],[-17.924836,28.604505],[-17.923267,28.606827],[-17.92557,28.6152],[-17.937452,28.634054],[-17.938631,28.640715],[-17.943833,28.646683],[-17.943323,28.643673],[-17.94518,28.643089],[-17.945297,28.64908],[-17.949615,28.652405],[-17.955221,28.657435],[-17.958101,28.663952],[-17.964239,28.667913],[-17.962912,28.675381],[-17.967699,28.681254],[-17.965123,28.682699],[-17.966588,28.687601],[-17.967648,28.690121],[-17.969823,28.690631],[-17.968678,28.690762],[-17.96952,28.692229],[-17.968462,28.693071],[-17.97135,28.696268],[-17.971001,28.700362],[-17.974858,28.704104],[-17.973386,28.706797],[-17.973892,28.710473],[-17.980536,28.717763],[-17.979727,28.722349],[-17.981692,28.72864],[-17.985248,28.730293],[-17.986006,28.732588],[-17.989463,28.733098],[-17.990095,28.736347],[-17.991752,28.737165],[-17.991831,28.740234],[-17.994462,28.743937],[-18.000592,28.747098],[-18.001237,28.751672],[-18.004879,28.753142],[-18.007114,28.757893],[-18.004345,28.760379],[-18.003614,28.763092],[-18.006448,28.770105],[-18.006704,28.776045],[-18.004624,28.78353],[-18.005794,28.784551],[-18.00326,28.786452],[-17.99858,28.787489],[-17.996283,28.790208],[-17.99544,28.795609],[-17.993168,28.795118],[-17.988009,28.795661],[-17.986966,28.798778],[-17.984728,28.798536],[-17.978337,28.804793],[-17.977182,28.808539],[-17.979155,28.812433],[-17.974958,28.811242],[-17.971849,28.814215],[-17.972924,28.815247],[-17.970276,28.815952],[-17.970663,28.820081],[-17.968573,28.819631],[-17.966577,28.822424],[-17.968163,28.825032],[-17.966769,28.826235],[-17.967656,28.827305],[-17.962631,28.826685],[-17.95439,28.831231],[-17.949401,28.835999],[-17.948779,28.840437],[-17.946002,28.840031],[-17.946447,28.842432],[-17.942613,28.840725],[-17.941281,28.842639],[-17.939081,28.840955],[-17.92868,28.845139],[-17.928014,28.847082],[-17.926643,28.846273],[-17.926627,28.847824],[-17.925016,28.847634],[-17.923099,28.850142],[-17.925543,28.85294],[-17.922626,28.853479],[-17.922529,28.855801],[-17.920103,28.857313],[-17.916826,28.853223],[-17.914236,28.857311],[-17.910614,28.857448],[-17.909653,28.85474],[-17.907768,28.85438],[-17.906579,28.855549],[-17.904988,28.854604],[-17.905621,28.852421],[-17.903445,28.852299],[-17.904486,28.847602],[-17.900225,28.846063],[-17.895554,28.841947],[-17.888383,28.839846],[-17.885648,28.840701],[-17.885377,28.843439],[-17.882757,28.838643],[-17.868425,28.835246],[-17.862057,28.836042],[-17.862345,28.834274],[-17.858015,28.832698],[-17.848371,28.834904],[-17.843846,28.835286],[-17.843232,28.836377],[-17.842425,28.834734],[-17.837574,28.834936],[-17.826339,28.837472],[-17.822022,28.839966],[-17.814394,28.83912],[-17.809022,28.841927],[-17.809039,28.84528],[-17.807586,28.843159],[-17.803687,28.841889],[-17.800216,28.842045],[-17.799009,28.842814],[-17.799793,28.843961],[-17.798546,28.842648],[-17.797189,28.84328],[-17.795859,28.841039],[-17.79453,28.8418],[-17.795097,28.842913],[-17.79275,28.841525],[-17.788778,28.843917],[-17.787229,28.840239],[-17.783334,28.840863],[-17.782836,28.839771],[-17.782078,28.841054],[-17.780462,28.838942],[-17.777482,28.840251],[-17.778206,28.837505],[-17.777388,28.835201],[-17.775985,28.834912],[-17.776315,28.832547],[-17.774856,28.830901],[-17.773073,28.831826],[-17.774482,28.825388],[-17.772138,28.82391],[-17.770348,28.825708],[-17.769385,28.824744],[-17.770946,28.821357],[-17.770224,28.818429],[-17.7684,28.815866],[-17.76553,28.814851],[-17.765461,28.811199],[-17.762281,28.811334],[-17.763635,28.810953],[-17.761082,28.807647],[-17.76171,28.805616],[-17.760882,28.804816],[-17.759969,28.805595],[-17.760048,28.803959],[-17.759082,28.804141],[-17.758436,28.791787],[-17.757056,28.789384],[-17.757965,28.787214],[-17.754397,28.786245],[-17.755813,28.785312],[-17.75345,28.782527],[-17.752678,28.781296],[-17.753256,28.778352],[-17.750044,28.771986],[-17.744726,28.767837],[-17.741909,28.761122],[-17.73848,28.759017],[-17.736784,28.7601],[-17.73734,28.75916],[-17.735023,28.758408],[-17.733303,28.756093],[-17.73419,28.752975],[-17.731042,28.7506],[-17.729713,28.747662],[-17.730373,28.744947],[-17.727635,28.742422],[-17.72447,28.743126],[-17.725414,28.740363],[-17.724219,28.738524],[-17.727297,28.732163],[-17.731473,28.72933],[-17.730921,28.726734],[-17.73331,28.72388],[-17.731953,28.722415],[-17.732566,28.720183],[-17.738633,28.714819],[-17.741524,28.71474],[-17.743823,28.712407],[-17.746751,28.711646],[-17.752117,28.705295],[-17.759255,28.697125],[-17.75958,28.687198],[-17.765114,28.680579],[-17.763886,28.671177],[-17.766375,28.679335],[-17.767586,28.679132],[-17.768558,28.676291],[-17.768739,28.669849],[-17.76628,28.664539],[-17.763518,28.662146],[-17.761565,28.662497],[-17.762497,28.660176],[-17.76156,28.660632],[-17.760046,28.658399],[-17.760512,28.656256],[-17.762132,28.655477],[-17.760163,28.654407],[-17.761559,28.653855],[-17.75602,28.649481],[-17.756825,28.64697],[-17.755526,28.646597],[-17.756914,28.64654],[-17.756456,28.64516],[-17.757899,28.644528],[-17.756345,28.643107],[-17.757842,28.642216],[-17.756477,28.64073],[-17.757827,28.640784],[-17.757928,28.639374],[-17.756694,28.639278],[-17.756891,28.637749],[-17.754531,28.637576],[-17.753784,28.630364],[-17.75296,28.626594],[-17.751126,28.62646],[-17.750765,28.625297],[-17.751797,28.625249],[-17.749853,28.624397],[-17.751243,28.621104],[-17.750024,28.620628],[-17.752775,28.617094],[-17.751968,28.616346],[-17.75682,28.611782],[-17.755259,28.609293],[-17.756645,28.608013],[-17.755032,28.607056],[-17.755927,28.603993],[-17.754544,28.603714],[-17.756008,28.603227],[-17.756054,28.601852],[-17.754653,28.601482],[-17.756089,28.600807],[-17.754685,28.597483],[-17.756681,28.594433],[-17.754435,28.592398],[-17.757894,28.588442],[-17.757619,28.587056],[-17.755921,28.586754],[-17.756619,28.585078],[-17.759491,28.584102],[-17.760967,28.581383],[-17.760043,28.579864],[-17.760989,28.576203],[-17.759404,28.574264],[-17.760037,28.569941],[-17.766314,28.56522],[-17.767261,28.561439],[-17.770703,28.559131],[-17.771832,28.555761],[-17.775382,28.554304],[-17.780863,28.548031],[-17.783017,28.547639],[-17.786385,28.544228],[-17.789764,28.53719],[-17.790275,28.531194],[-17.792798,28.52937],[-17.793365,28.524913],[-17.796346,28.521769],[-17.796478,28.518537],[-17.800547,28.517984],[-17.800777,28.514547],[-17.80346,28.513046],[-17.804438,28.509765],[-17.806315,28.508519],[-17.805821,28.50682]]],[[[-16.649225,28.007592],[-16.651704,28.008142],[-16.652999,28.006049],[-16.65622,28.005917],[-16.658213,28.007224],[-16.659646,28.006451],[-16.661491,28.006869],[-16.658556,28.007144],[-16.658426,28.007804],[-16.659364,28.008485],[-16.664326,28.008583],[-16.665905,28.007727],[-16.666754,28.00334],[-16.671838,28.004735],[-16.674592,28.000821],[-16.67892,27.998054],[-16.691286,27.998924],[-16.701953,28.004124],[-16.70837,28.011294],[-16.706196,28.015502],[-16.706762,28.021968],[-16.704606,28.026582],[-16.706295,28.030611],[-16.709317,28.0329],[-16.708549,28.034285],[-16.710107,28.035854],[-16.708913,28.040079],[-16.709861,28.042218],[-16.711616,28.04246],[-16.710288,28.043607],[-16.711895,28.044248],[-16.71114,28.046626],[-16.714502,28.049346],[-16.718234,28.050071],[-16.718233,28.048916],[-16.72003,28.048485],[-16.718348,28.048285],[-16.717357,28.045863],[-16.723132,28.049276],[-16.722031,28.050114],[-16.724108,28.051897],[-16.73137,28.050781],[-16.730297,28.051625],[-16.731057,28.052493],[-16.732255,28.052708],[-16.7334,28.052112],[-16.732555,28.050988],[-16.733615,28.051423],[-16.733418,28.052725],[-16.734362,28.052898],[-16.734409,28.053554],[-16.735976,28.053419],[-16.737467,28.055402],[-16.736807,28.059641],[-16.733003,28.063504],[-16.733221,28.066558],[-16.734374,28.066289],[-16.733312,28.06781],[-16.734765,28.069255],[-16.733033,28.069345],[-16.734249,28.072391],[-16.732866,28.072675],[-16.7381,28.077893],[-16.738008,28.080103],[-16.736659,28.077122],[-16.736123,28.078838],[-16.737194,28.079003],[-16.735609,28.079887],[-16.738814,28.087904],[-16.73993,28.088557],[-16.740439,28.087475],[-16.740537,28.089845],[-16.743131,28.089413],[-16.747976,28.093227],[-16.749608,28.093506],[-16.749783,28.092475],[-16.752875,28.098654],[-16.756512,28.098571],[-16.755589,28.100862],[-16.759268,28.10123],[-16.758168,28.105149],[-16.76175,28.104749],[-16.760468,28.108005],[-16.762557,28.10996],[-16.769354,28.109624],[-16.768246,28.113611],[-16.772916,28.11294],[-16.774468,28.118402],[-16.776805,28.117408],[-16.776045,28.119715],[-16.778842,28.119557],[-16.778111,28.121579],[-16.78012,28.121325],[-16.781653,28.127009],[-16.783775,28.126496],[-16.783947,28.128542],[-16.786634,28.130362],[-16.786395,28.133803],[-16.787155,28.133308],[-16.786583,28.134487],[-16.78773,28.134325],[-16.78841,28.1371],[-16.793684,28.140353],[-16.793975,28.142937],[-16.795104,28.142687],[-16.794641,28.144809],[-16.797669,28.146719],[-16.798999,28.149786],[-16.798678,28.15282],[-16.800952,28.15374],[-16.801868,28.156322],[-16.804268,28.157721],[-16.806039,28.16309],[-16.805234,28.167706],[-16.807132,28.168272],[-16.804938,28.168774],[-16.804421,28.170385],[-16.80582,28.172287],[-16.807784,28.172371],[-16.80832,28.173569],[-16.806844,28.174493],[-16.813251,28.179988],[-16.815017,28.180596],[-16.815631,28.179634],[-16.814273,28.17814],[-16.819681,28.180747],[-16.823509,28.190765],[-16.82784,28.193581],[-16.826353,28.19509],[-16.828667,28.198455],[-16.828053,28.199907],[-16.833035,28.201742],[-16.834763,28.206384],[-16.837443,28.207477],[-16.836025,28.210176],[-16.838186,28.212694],[-16.836482,28.21377],[-16.836234,28.217393],[-16.839759,28.221271],[-16.838346,28.22418],[-16.840179,28.226145],[-16.843553,28.227131],[-16.843141,28.228889],[-16.841195,28.229139],[-16.84229,28.230338],[-16.841785,28.233598],[-16.843587,28.235464],[-16.842838,28.237329],[-16.84534,28.237489],[-16.846409,28.23928],[-16.842634,28.240589],[-16.843664,28.241636],[-16.842014,28.242827],[-16.8437,28.244311],[-16.842912,28.246253],[-16.844135,28.24736],[-16.842009,28.248887],[-16.843667,28.247364],[-16.842618,28.246284],[-16.841345,28.247325],[-16.841997,28.248323],[-16.84096,28.247351],[-16.839658,28.248312],[-16.837985,28.257424],[-16.841415,28.262734],[-16.840965,28.264339],[-16.850488,28.268233],[-16.849593,28.272128],[-16.852804,28.273109],[-16.859285,28.27479],[-16.863354,28.283084],[-16.861472,28.28488],[-16.861679,28.287926],[-16.866363,28.289976],[-16.864954,28.29143],[-16.868133,28.293065],[-16.866799,28.293042],[-16.870362,28.29638],[-16.870773,28.299515],[-16.875812,28.299989],[-16.88003,28.302907],[-16.881769,28.308649],[-16.880428,28.312422],[-16.892513,28.320656],[-16.89483,28.323778],[-16.894869,28.326769],[-16.897588,28.328518],[-16.896537,28.332016],[-16.902524,28.334362],[-16.904618,28.338272],[-16.908225,28.339666],[-16.910448,28.338389],[-16.91585,28.342395],[-16.919831,28.342815],[-16.919154,28.341895],[-16.92101,28.340835],[-16.921711,28.341962],[-16.925924,28.341901],[-16.920702,28.342829],[-16.923981,28.348994],[-16.923787,28.353247],[-16.922756,28.355732],[-16.920402,28.356113],[-16.918188,28.358555],[-16.917812,28.360909],[-16.910979,28.361802],[-16.910056,28.363333],[-16.907647,28.362509],[-16.905038,28.365242],[-16.901819,28.363811],[-16.900515,28.365154],[-16.897089,28.362472],[-16.890675,28.363483],[-16.88961,28.365849],[-16.886959,28.364839],[-16.884883,28.366828],[-16.885275,28.368946],[-16.882145,28.367308],[-16.875655,28.370874],[-16.87439,28.369928],[-16.871078,28.371233],[-16.870058,28.375623],[-16.867592,28.374761],[-16.864853,28.376396],[-16.863177,28.375135],[-16.860232,28.375609],[-16.860452,28.378979],[-16.855722,28.380424],[-16.854418,28.384121],[-16.850171,28.385742],[-16.848901,28.388077],[-16.844916,28.388395],[-16.844194,28.386967],[-16.841738,28.387082],[-16.841122,28.39065],[-16.838778,28.390084],[-16.837496,28.391525],[-16.831221,28.392961],[-16.830061,28.392304],[-16.827725,28.39322],[-16.827461,28.392143],[-16.825672,28.392126],[-16.825362,28.387207],[-16.823143,28.388027],[-16.821034,28.384515],[-16.817499,28.383644],[-16.816622,28.381488],[-16.81486,28.38192],[-16.814556,28.379701],[-16.812769,28.379461],[-16.812049,28.377905],[-16.807266,28.376123],[-16.80587,28.378779],[-16.804396,28.379049],[-16.802539,28.376714],[-16.797807,28.377726],[-16.794393,28.37681],[-16.793578,28.374883],[-16.792054,28.373305],[-16.787643,28.37548],[-16.783191,28.374466],[-16.78219,28.375366],[-16.779359,28.373045],[-16.776529,28.374831],[-16.771873,28.374278],[-16.77072,28.372795],[-16.769103,28.373102],[-16.7701,28.371377],[-16.768309,28.370789],[-16.768399,28.372572],[-16.766372,28.372589],[-16.765587,28.375095],[-16.763258,28.375752],[-16.76046,28.374184],[-16.756433,28.374586],[-16.755122,28.372175],[-16.751498,28.37076],[-16.746997,28.37297],[-16.744527,28.375962],[-16.742823,28.375884],[-16.743304,28.377821],[-16.740567,28.378108],[-16.741377,28.379752],[-16.738905,28.380354],[-16.735934,28.379776],[-16.734988,28.381911],[-16.732427,28.382309],[-16.730916,28.377099],[-16.728801,28.377843],[-16.726075,28.376303],[-16.723902,28.378295],[-16.725766,28.379761],[-16.722338,28.381273],[-16.724164,28.383312],[-16.720045,28.383941],[-16.720517,28.387083],[-16.718996,28.38774],[-16.713199,28.38384],[-16.712705,28.38511],[-16.70902,28.383148],[-16.701292,28.383748],[-16.699423,28.386253],[-16.694641,28.387299],[-16.695044,28.394538],[-16.693497,28.395604],[-16.693104,28.392717],[-16.687881,28.39291],[-16.684277,28.391353],[-16.681042,28.390495],[-16.676533,28.393116],[-16.675518,28.394568],[-16.677338,28.397034],[-16.675629,28.396624],[-16.676965,28.39774],[-16.675879,28.399055],[-16.673507,28.397943],[-16.675421,28.400557],[-16.673209,28.400785],[-16.674022,28.401957],[-16.670841,28.398973],[-16.668848,28.40156],[-16.667994,28.399885],[-16.667142,28.401211],[-16.665834,28.399059],[-16.664254,28.400245],[-16.662072,28.398733],[-16.660799,28.401273],[-16.658956,28.400404],[-16.658126,28.401551],[-16.657687,28.399113],[-16.652429,28.395757],[-16.647153,28.396236],[-16.644327,28.398607],[-16.642205,28.397478],[-16.640957,28.397933],[-16.637354,28.394172],[-16.63183,28.396183],[-16.623797,28.395914],[-16.617178,28.394154],[-16.602759,28.39427],[-16.597365,28.400351],[-16.593072,28.397818],[-16.587908,28.398167],[-16.578191,28.405071],[-16.575669,28.405466],[-16.5747,28.40392],[-16.572736,28.404148],[-16.570478,28.408159],[-16.566533,28.410009],[-16.565946,28.412814],[-16.563845,28.410949],[-16.562079,28.411258],[-16.555004,28.418832],[-16.549757,28.41988],[-16.55071,28.417703],[-16.550116,28.418906],[-16.548309,28.418787],[-16.547441,28.417247],[-16.545423,28.417746],[-16.543823,28.42085],[-16.541797,28.420503],[-16.539525,28.4204],[-16.541456,28.41951],[-16.540074,28.416741],[-16.535964,28.417541],[-16.533083,28.416653],[-16.525947,28.418378],[-16.523311,28.417289],[-16.522194,28.418768],[-16.51937,28.41794],[-16.518576,28.419862],[-16.515321,28.418842],[-16.511774,28.419621],[-16.507227,28.422124],[-16.507697,28.423218],[-16.506451,28.422767],[-16.503328,28.424733],[-16.50216,28.429193],[-16.498206,28.431885],[-16.499097,28.433333],[-16.49711,28.438533],[-16.494432,28.438935],[-16.493865,28.440584],[-16.493629,28.439569],[-16.492834,28.440186],[-16.49179,28.438607],[-16.489324,28.439947],[-16.487565,28.437471],[-16.483894,28.440226],[-16.479866,28.440014],[-16.474469,28.442948],[-16.474898,28.445305],[-16.473017,28.444969],[-16.469951,28.448596],[-16.474403,28.453192],[-16.473522,28.454921],[-16.467554,28.455215],[-16.466029,28.4599],[-16.464299,28.458402],[-16.463824,28.459576],[-16.459621,28.457857],[-16.456126,28.459711],[-16.45508,28.465895],[-16.456805,28.467248],[-16.456059,28.469777],[-16.452745,28.470514],[-16.453057,28.471718],[-16.450873,28.471545],[-16.449149,28.473819],[-16.451593,28.475627],[-16.451656,28.477445],[-16.447981,28.474213],[-16.447159,28.475528],[-16.445538,28.474088],[-16.44324,28.476725],[-16.444348,28.480138],[-16.437894,28.48184],[-16.430696,28.487038],[-16.426031,28.495313],[-16.426699,28.500286],[-16.424444,28.500546],[-16.426406,28.502805],[-16.423847,28.5043],[-16.424698,28.505404],[-16.423123,28.504748],[-16.423494,28.507418],[-16.421307,28.507725],[-16.422998,28.509113],[-16.421529,28.509178],[-16.419922,28.512593],[-16.421523,28.517555],[-16.415485,28.521118],[-16.410976,28.526591],[-16.403397,28.530729],[-16.402246,28.533613],[-16.398432,28.533562],[-16.397673,28.538292],[-16.39571,28.538048],[-16.395323,28.540133],[-16.392238,28.541031],[-16.388171,28.544531],[-16.387044,28.543733],[-16.386,28.546307],[-16.384385,28.545296],[-16.383378,28.547062],[-16.380543,28.546344],[-16.380431,28.548026],[-16.377407,28.548186],[-16.372854,28.546251],[-16.371884,28.547395],[-16.369316,28.546663],[-16.367712,28.547503],[-16.368175,28.546729],[-16.365601,28.545207],[-16.363811,28.54796],[-16.362619,28.547044],[-16.359737,28.549681],[-16.357667,28.548046],[-16.356844,28.550338],[-16.354493,28.549677],[-16.353851,28.553418],[-16.349818,28.552865],[-16.344336,28.556755],[-16.336759,28.556241],[-16.334023,28.557603],[-16.333275,28.56264],[-16.331955,28.563727],[-16.332923,28.564631],[-16.331639,28.565533],[-16.33371,28.567207],[-16.332515,28.568284],[-16.333888,28.56904],[-16.332973,28.56968],[-16.334098,28.571725],[-16.332498,28.571382],[-16.332055,28.574459],[-16.331549,28.573467],[-16.330747,28.574784],[-16.329211,28.574638],[-16.329618,28.577103],[-16.320429,28.579234],[-16.318093,28.578452],[-16.315537,28.571143],[-16.310692,28.571448],[-16.307089,28.574445],[-16.30637,28.572367],[-16.303536,28.570799],[-16.300606,28.571317],[-16.299571,28.569655],[-16.298042,28.570585],[-16.297991,28.569413],[-16.296384,28.569126],[-16.293434,28.57187],[-16.291307,28.570194],[-16.288029,28.571134],[-16.285307,28.576494],[-16.277899,28.571336],[-16.27439,28.572012],[-16.272199,28.575239],[-16.273744,28.577524],[-16.272543,28.578059],[-16.267574,28.574114],[-16.261518,28.573374],[-16.25702,28.569338],[-16.251461,28.571497],[-16.248312,28.57052],[-16.243273,28.571762],[-16.233673,28.56677],[-16.222985,28.565493],[-16.217008,28.56797],[-16.206122,28.568534],[-16.204186,28.570097],[-16.20488,28.571235],[-16.199727,28.572695],[-16.192784,28.572095],[-16.19029,28.575188],[-16.185829,28.575602],[-16.180853,28.578335],[-16.179864,28.580577],[-16.17461,28.58185],[-16.172219,28.585188],[-16.16837,28.584009],[-16.159212,28.588398],[-16.156613,28.587704],[-16.151772,28.586548],[-16.15042,28.58741],[-16.147368,28.585051],[-16.136067,28.58288],[-16.136505,28.581891],[-16.134108,28.581055],[-16.135176,28.577143],[-16.134032,28.573874],[-16.131745,28.574782],[-16.128235,28.57269],[-16.125115,28.567529],[-16.126714,28.563738],[-16.124444,28.563256],[-16.125602,28.5621],[-16.122825,28.561611],[-16.12396,28.561159],[-16.122924,28.559692],[-16.119958,28.559302],[-16.120756,28.558474],[-16.119426,28.555597],[-16.120604,28.553827],[-16.119382,28.5536],[-16.120782,28.551264],[-16.126701,28.548004],[-16.12765,28.544878],[-16.126632,28.543461],[-16.129443,28.536761],[-16.12502,28.532763],[-16.127152,28.532129],[-16.131437,28.535331],[-16.137736,28.532621],[-16.139821,28.529004],[-16.138484,28.527125],[-16.143236,28.52493],[-16.143855,28.52115],[-16.151368,28.523298],[-16.156218,28.52281],[-16.160586,28.520022],[-16.167672,28.518321],[-16.175629,28.513656],[-16.177044,28.510203],[-16.180476,28.508158],[-16.179562,28.509533],[-16.181335,28.510138],[-16.186458,28.508392],[-16.189126,28.505343],[-16.188237,28.504365],[-16.192538,28.503134],[-16.195448,28.49945],[-16.210852,28.492784],[-16.211369,28.493614],[-16.201938,28.497886],[-16.202714,28.499068],[-16.213726,28.493501],[-16.214767,28.493963],[-16.214563,28.492977],[-16.218475,28.490496],[-16.21947,28.487725],[-16.22521,28.483756],[-16.228355,28.482875],[-16.219781,28.487803],[-16.219597,28.490463],[-16.225,28.490665],[-16.224773,28.489049],[-16.227193,28.489634],[-16.229988,28.485875],[-16.232301,28.485958],[-16.232202,28.484821],[-16.23401,28.486691],[-16.237033,28.485486],[-16.238786,28.48137],[-16.240462,28.480721],[-16.240505,28.477918],[-16.24075,28.479127],[-16.246246,28.470893],[-16.246076,28.468577],[-16.243157,28.468934],[-16.235603,28.479079],[-16.242423,28.469608],[-16.241925,28.46596],[-16.247016,28.455674],[-16.242241,28.465997],[-16.242761,28.468057],[-16.244864,28.46765],[-16.243886,28.466486],[-16.24488,28.467106],[-16.246204,28.463402],[-16.247432,28.463362],[-16.246405,28.462906],[-16.249013,28.454453],[-16.252528,28.454982],[-16.253973,28.450468],[-16.260347,28.451674],[-16.262893,28.450579],[-16.262369,28.449776],[-16.264413,28.449942],[-16.264544,28.448686],[-16.264763,28.450018],[-16.265793,28.449771],[-16.269774,28.447232],[-16.277104,28.437145],[-16.290687,28.426832],[-16.292316,28.427033],[-16.294009,28.420645],[-16.296423,28.419988],[-16.299475,28.415464],[-16.304957,28.412869],[-16.307487,28.409731],[-16.317435,28.404693],[-16.318378,28.402028],[-16.320917,28.400271],[-16.32408,28.400457],[-16.321174,28.400462],[-16.321796,28.401273],[-16.330425,28.402132],[-16.334036,28.400382],[-16.335459,28.396891],[-16.337383,28.396687],[-16.344167,28.391693],[-16.347171,28.386724],[-16.355336,28.383466],[-16.357145,28.379994],[-16.360606,28.379463],[-16.359999,28.377289],[-16.361604,28.375937],[-16.361715,28.373317],[-16.362687,28.375136],[-16.361451,28.368597],[-16.36423,28.364498],[-16.363603,28.361928],[-16.366892,28.360194],[-16.369726,28.354558],[-16.368107,28.349344],[-16.369141,28.346452],[-16.367004,28.344987],[-16.366216,28.339575],[-16.362193,28.331709],[-16.362956,28.326293],[-16.35929,28.319459],[-16.359496,28.313559],[-16.362005,28.308461],[-16.361658,28.304442],[-16.365112,28.301291],[-16.369804,28.299753],[-16.372544,28.294301],[-16.373845,28.295508],[-16.379517,28.28687],[-16.380343,28.286302],[-16.37937,28.288562],[-16.383605,28.284938],[-16.384141,28.278865],[-16.382854,28.277288],[-16.384257,28.275879],[-16.384006,28.272339],[-16.387153,28.268742],[-16.387333,28.264561],[-16.392894,28.258458],[-16.394796,28.257971],[-16.394123,28.256401],[-16.395794,28.255057],[-16.39711,28.250073],[-16.402182,28.244486],[-16.401708,28.241091],[-16.405361,28.238081],[-16.407324,28.23363],[-16.409329,28.224351],[-16.411334,28.221907],[-16.412875,28.221862],[-16.415476,28.216395],[-16.417459,28.215447],[-16.420003,28.210021],[-16.42141,28.209697],[-16.422466,28.206054],[-16.424678,28.204551],[-16.425063,28.20197],[-16.420965,28.19851],[-16.422051,28.193508],[-16.423095,28.193567],[-16.427563,28.188514],[-16.427348,28.183139],[-16.425596,28.182568],[-16.428551,28.178713],[-16.428691,28.174783],[-16.430297,28.173668],[-16.425109,28.167797],[-16.427062,28.164177],[-16.431491,28.164578],[-16.432367,28.159345],[-16.433677,28.159225],[-16.434387,28.156842],[-16.432417,28.152848],[-16.42928,28.154165],[-16.428705,28.152325],[-16.426309,28.151883],[-16.425465,28.150459],[-16.426711,28.147515],[-16.430082,28.145271],[-16.431443,28.142529],[-16.433029,28.143031],[-16.433611,28.140997],[-16.436233,28.141132],[-16.436726,28.142695],[-16.439779,28.142299],[-16.443156,28.136937],[-16.441835,28.135001],[-16.445249,28.133932],[-16.446016,28.135239],[-16.448895,28.13462],[-16.448799,28.12946],[-16.452941,28.125524],[-16.45616,28.125219],[-16.461825,28.120238],[-16.463046,28.120541],[-16.463928,28.118286],[-16.462042,28.113927],[-16.463903,28.113232],[-16.463949,28.111512],[-16.468412,28.110964],[-16.469999,28.107781],[-16.469606,28.109114],[-16.472213,28.108301],[-16.472724,28.104263],[-16.480236,28.099525],[-16.481796,28.095267],[-16.490082,28.09001],[-16.491124,28.08748],[-16.489238,28.084877],[-16.49137,28.086085],[-16.490082,28.084926],[-16.492645,28.078797],[-16.495581,28.079243],[-16.503026,28.076897],[-16.506025,28.072769],[-16.506618,28.067678],[-16.509516,28.064998],[-16.514543,28.06387],[-16.513639,28.063217],[-16.515918,28.061768],[-16.515446,28.059291],[-16.517752,28.060261],[-16.520725,28.059296],[-16.522407,28.05527],[-16.521332,28.054034],[-16.525456,28.051331],[-16.525282,28.050157],[-16.531723,28.04939],[-16.533987,28.042698],[-16.535516,28.042107],[-16.534927,28.042865],[-16.536659,28.044022],[-16.541147,28.042171],[-16.542967,28.036399],[-16.539531,28.033046],[-16.541216,28.028923],[-16.546442,28.024875],[-16.550988,28.026053],[-16.551852,28.029609],[-16.557635,28.031414],[-16.566628,28.028929],[-16.572004,28.031178],[-16.577447,28.029261],[-16.586961,28.029535],[-16.591747,28.027525],[-16.595485,28.029199],[-16.59704,28.027938],[-16.60417,28.025197],[-16.60411,28.024108],[-16.607432,28.022573],[-16.610195,28.022599],[-16.610245,28.02076],[-16.611897,28.019788],[-16.610387,28.020988],[-16.610955,28.022112],[-16.613259,28.020575],[-16.616509,28.020684],[-16.619353,28.018331],[-16.625488,28.018577],[-16.626476,28.015952],[-16.631826,28.012608],[-16.630873,28.00979],[-16.633344,28.008641],[-16.638581,28.009145],[-16.638334,28.00633],[-16.645083,28.003594],[-16.649225,28.007592]]]]}}
]
}
