{
"type": "FeatureCollection",
"name": "cod_prov_09",
"crs": { "type": "name", "properties": { "name": "urn:ogc:def:crs:OGC:1.3:CRS84" } },
"xy_coordinate_resolution": 1e-15,
"features": [
{"type":"Feature","properties":{"fid":8,"cod_ccaa":"07","provincia":"Burgos","cod_prov":"09"},"geometry":{"type":"MultiPolygon","coordinates":[[[[-3.980667,41.583371],[-3.98355,41.585968],[-3.984614,41.588877],[-3.984408,41.597489],[-3.985948,41.598539],[-3.990086,41.598396],[-3.992445,41.600438],[-3.992859,41.608658],[-4.008734,41.610033],[-4.008476,41.611963],[-4.004927,41.613732],[-4.003317,41.615962],[-4.00312,41.617197],[-4.005926,41.619362],[-4.00854,41.617636],[-4.012566,41.617151],[-4.01779,41.620365],[-4.022607,41.616044],[-4.028714,41.614405],[-4.032166,41.61713],[-4.035283,41.620623],[-4.034883,41.625644],[-4.030362,41.630494],[-4.028951,41.644431],[-4.027231,41.657119],[-4.025864,41.659545],[-4.024071,41.66692],[-4.024326,41.675465],[-4.02626,41.683005],[-4.026036,41.692383],[-4.0391,41.706685],[-4.042056,41.71109],[-4.049372,41.715302],[-4.05294,41.719565],[-4.060297,41.721722],[-4.068119,41.72655],[-4.076359,41.726085],[-4.074609,41.729317],[-4.076348,41.73484],[-4.069094,41.741167],[-4.063084,41.739143],[-4.055786,41.740687],[-4.052737,41.759485],[-4.049583,41.768205],[-4.044481,41.767432],[-4.040875,41.768356],[-4.0389,41.772706],[-4.039543,41.781266],[-4.037997,41.789854],[-4.042988,41.791124],[-4.048882,41.802779],[-4.056724,41.80531],[-4.058714,41.804833],[-4.090068,41.830866],[-4.090815,41.838722],[-4.088049,41.844666],[-4.07932,41.84845],[-4.080946,41.86208],[-4.084974,41.864438],[-4.088827,41.870652],[-4.079655,41.874125],[-4.072654,41.874154],[-4.069961,41.876008],[-4.066329,41.876483],[-4.062047,41.876955],[-4.059987,41.874785],[-4.047425,41.873747],[-4.041474,41.873918],[-4.037576,41.872774],[-4.035218,41.873795],[-4.017388,41.879466],[-4.007113,41.885158],[-3.998234,41.892414],[-3.987881,41.896395],[-3.9807,41.900617],[-3.983137,41.913305],[-3.984584,41.918021],[-3.983817,41.926971],[-3.981341,41.930703],[-3.952184,41.935308],[-3.947156,41.939493],[-3.944419,41.944487],[-3.945882,41.946402],[-3.936603,41.956989],[-3.922861,41.960451],[-3.920169,41.959545],[-3.914795,41.958453],[-3.913087,41.956296],[-3.910982,41.955898],[-3.905568,41.956175],[-3.902353,41.957479],[-3.892399,41.957566],[-3.891064,41.961296],[-3.893938,41.971812],[-3.889625,41.987994],[-3.892112,41.994973],[-3.891471,41.996644],[-3.910202,41.996966],[-3.914852,41.992012],[-3.924547,41.990304],[-3.950849,41.979497],[-3.956231,41.98102],[-3.972586,41.968967],[-3.973237,41.966547],[-3.978543,41.964737],[-3.982897,41.965312],[-3.990703,41.959751],[-4.005048,41.959599],[-4.015627,41.957795],[-4.019605,41.958363],[-4.024219,41.954116],[-4.032979,41.954083],[-4.031809,41.96609],[-4.027396,41.973137],[-4.027493,41.975397],[-4.029093,41.976562],[-4.021716,41.984752],[-4.014777,41.998585],[-3.994779,42.005407],[-3.985289,42.02352],[-3.983228,42.02379],[-3.979901,42.02108],[-3.9735,42.031447],[-3.971074,42.033215],[-3.976242,42.040953],[-3.980177,42.043045],[-3.982104,42.051279],[-3.988741,42.046727],[-3.996314,42.044969],[-3.999626,42.048921],[-4.010905,42.051515],[-4.031694,42.049484],[-4.039249,42.053351],[-4.045878,42.050814],[-4.047743,42.047393],[-4.047884,42.039052],[-4.056982,42.039743],[-4.061354,42.043287],[-4.06368,42.043644],[-4.067822,42.042813],[-4.079888,42.036783],[-4.084418,42.038901],[-4.088856,42.043354],[-4.092211,42.049518],[-4.097433,42.051693],[-4.100961,42.059378],[-4.104106,42.061626],[-4.103036,42.087044],[-4.094629,42.086818],[-4.077486,42.082675],[-4.066504,42.086047],[-4.066144,42.089121],[-4.060376,42.091282],[-4.060521,42.093452],[-4.056207,42.100913],[-4.063093,42.101182],[-4.063874,42.102301],[-4.076395,42.105381],[-4.085659,42.103214],[-4.092486,42.107832],[-4.103779,42.109687],[-4.107591,42.113938],[-4.108393,42.119001],[-4.115208,42.124789],[-4.121526,42.12833],[-4.123187,42.127188],[-4.123915,42.123893],[-4.126021,42.122531],[-4.132459,42.123368],[-4.137706,42.11975],[-4.139666,42.12046],[-4.142083,42.119625],[-4.141586,42.123602],[-4.144058,42.129215],[-4.147889,42.13033],[-4.154146,42.131744],[-4.168118,42.129603],[-4.176772,42.125858],[-4.178315,42.13076],[-4.186897,42.126421],[-4.200554,42.132034],[-4.203067,42.132503],[-4.205418,42.134612],[-4.203544,42.139117],[-4.204482,42.142638],[-4.203435,42.146774],[-4.200777,42.150251],[-4.206101,42.153987],[-4.200263,42.157002],[-4.197206,42.15725],[-4.19148,42.16302],[-4.188643,42.176378],[-4.191341,42.179484],[-4.190958,42.18101],[-4.199496,42.188757],[-4.205839,42.192446],[-4.205758,42.197103],[-4.212068,42.200864],[-4.215284,42.206891],[-4.220696,42.20859],[-4.228106,42.209051],[-4.228806,42.20763],[-4.231438,42.208448],[-4.230486,42.211791],[-4.232071,42.217322],[-4.227547,42.225845],[-4.226929,42.229562],[-4.228066,42.231972],[-4.234219,42.233059],[-4.237399,42.235763],[-4.237028,42.237235],[-4.229301,42.241875],[-4.228613,42.249537],[-4.231432,42.256099],[-4.240053,42.259249],[-4.244105,42.259403],[-4.242519,42.261348],[-4.241048,42.269811],[-4.241907,42.272179],[-4.246213,42.274078],[-4.246421,42.278489],[-4.249248,42.280394],[-4.24651,42.284855],[-4.252749,42.290587],[-4.249675,42.29524],[-4.25248,42.305188],[-4.251884,42.310004],[-4.261888,42.309687],[-4.263152,42.312258],[-4.264924,42.318326],[-4.2613,42.319771],[-4.263572,42.31989],[-4.263327,42.321586],[-4.265122,42.32334],[-4.262207,42.325678],[-4.25891,42.324661],[-4.25866,42.322493],[-4.256774,42.322847],[-4.256881,42.324539],[-4.263346,42.328619],[-4.267358,42.335618],[-4.267153,42.338079],[-4.268163,42.337599],[-4.269701,42.33923],[-4.270037,42.34327],[-4.266377,42.34721],[-4.266629,42.349495],[-4.26454,42.351256],[-4.26482,42.352514],[-4.269466,42.357127],[-4.273238,42.357527],[-4.274243,42.358578],[-4.280257,42.362924],[-4.278823,42.36584],[-4.2765,42.365064],[-4.276639,42.368341],[-4.280846,42.37159],[-4.280339,42.377702],[-4.27689,42.377128],[-4.273776,42.375136],[-4.271656,42.377807],[-4.271392,42.380962],[-4.272727,42.38572],[-4.277591,42.386585],[-4.27595,42.391925],[-4.28182,42.389041],[-4.293452,42.388127],[-4.305444,42.383461],[-4.321586,42.379899],[-4.330954,42.390949],[-4.328486,42.395472],[-4.330072,42.404432],[-4.328347,42.40963],[-4.330393,42.414978],[-4.333291,42.416426],[-4.335018,42.419909],[-4.333276,42.423145],[-4.335342,42.430613],[-4.323089,42.444534],[-4.317092,42.458931],[-4.307027,42.453354],[-4.306723,42.455105],[-4.289174,42.454511],[-4.284775,42.453489],[-4.282366,42.455236],[-4.277151,42.45533],[-4.268844,42.453495],[-4.253316,42.456664],[-4.242593,42.456241],[-4.243704,42.458921],[-4.245765,42.458584],[-4.247198,42.459703],[-4.245621,42.463602],[-4.247467,42.467139],[-4.252237,42.465979],[-4.254392,42.467919],[-4.252648,42.470757],[-4.244853,42.472111],[-4.250325,42.478725],[-4.250904,42.481492],[-4.246107,42.492396],[-4.247042,42.494718],[-4.25006,42.497811],[-4.252286,42.503217],[-4.262646,42.511839],[-4.273073,42.510399],[-4.28388,42.510855],[-4.286203,42.511973],[-4.27665,42.514502],[-4.273682,42.51639],[-4.274,42.518278],[-4.272148,42.519983],[-4.275358,42.528754],[-4.277511,42.529838],[-4.279613,42.533822],[-4.277417,42.535414],[-4.278943,42.542763],[-4.277691,42.544686],[-4.299788,42.552507],[-4.303006,42.554956],[-4.303103,42.559061],[-4.301148,42.558768],[-4.297637,42.560375],[-4.305346,42.570806],[-4.299306,42.570361],[-4.293793,42.574233],[-4.282568,42.57589],[-4.27575,42.580352],[-4.270812,42.581388],[-4.275076,42.583133],[-4.281315,42.581344],[-4.285435,42.581982],[-4.28606,42.58392],[-4.282436,42.586689],[-4.286146,42.589304],[-4.285311,42.591358],[-4.287935,42.593292],[-4.288747,42.598416],[-4.29446,42.602935],[-4.292597,42.605964],[-4.286181,42.607594],[-4.284898,42.609815],[-4.28247,42.609725],[-4.273925,42.616953],[-4.263873,42.617956],[-4.270506,42.623331],[-4.26752,42.631811],[-4.269917,42.633352],[-4.270795,42.63572],[-4.274268,42.63678],[-4.277194,42.643267],[-4.273285,42.6454],[-4.274251,42.652702],[-4.277304,42.652227],[-4.271752,42.656998],[-4.274059,42.660026],[-4.272941,42.662028],[-4.275834,42.66685],[-4.276034,42.673071],[-4.282365,42.674108],[-4.289396,42.678316],[-4.290174,42.682882],[-4.288069,42.6844],[-4.287032,42.683223],[-4.285965,42.683568],[-4.286754,42.686901],[-4.293172,42.690899],[-4.284065,42.695648],[-4.280504,42.699975],[-4.269235,42.704756],[-4.266694,42.705298],[-4.267642,42.694273],[-4.263917,42.694242],[-4.257043,42.688113],[-4.247679,42.69415],[-4.248923,42.698378],[-4.246102,42.697094],[-4.237067,42.69767],[-4.234639,42.699596],[-4.230096,42.700194],[-4.226966,42.703038],[-4.218573,42.704685],[-4.215187,42.708864],[-4.216553,42.711281],[-4.215141,42.713998],[-4.201435,42.7176],[-4.201086,42.721026],[-4.195714,42.724297],[-4.193205,42.728493],[-4.191006,42.729759],[-4.185387,42.736184],[-4.180509,42.737901],[-4.175061,42.737912],[-4.173896,42.737077],[-4.166817,42.74194],[-4.167096,42.743793],[-4.164644,42.745979],[-4.158616,42.747697],[-4.151422,42.747878],[-4.146137,42.752136],[-4.139939,42.753333],[-4.125949,42.752075],[-4.124781,42.751655],[-4.125953,42.74823],[-4.120271,42.746205],[-4.120007,42.745109],[-4.123988,42.736173],[-4.109556,42.733882],[-4.08882,42.751723],[-4.08526,42.764085],[-4.08134,42.761465],[-4.07173,42.760538],[-4.054687,42.763029],[-4.045911,42.766612],[-4.040862,42.767306],[-4.034579,42.765823],[-4.030433,42.76641],[-4.018525,42.763941],[-4.009375,42.765688],[-4.003091,42.763356],[-4.002526,42.768467],[-3.99965,42.768979],[-3.994559,42.768609],[-3.990661,42.770984],[-3.985245,42.769401],[-3.981586,42.768306],[-3.978882,42.758081],[-3.965692,42.758598],[-3.956545,42.762214],[-3.95397,42.76165],[-3.94658,42.761909],[-3.948791,42.767502],[-3.944019,42.770342],[-3.938393,42.770937],[-3.930586,42.774486],[-3.926475,42.770125],[-3.910951,42.768385],[-3.908803,42.777029],[-3.909662,42.786442],[-3.907801,42.787943],[-3.900472,42.789279],[-3.897384,42.799786],[-3.894444,42.804537],[-3.88605,42.798244],[-3.876638,42.794174],[-3.868672,42.788534],[-3.863373,42.786458],[-3.854243,42.787562],[-3.829046,42.798724],[-3.82221,42.799638],[-3.820573,42.806278],[-3.816031,42.810561],[-3.815788,42.812607],[-3.816231,42.819286],[-3.819671,42.827843],[-3.816693,42.830251],[-3.816511,42.835926],[-3.833774,42.852173],[-3.834128,42.85571],[-3.825352,42.868633],[-3.836789,42.87878],[-3.851829,42.883469],[-3.85423,42.885315],[-3.860723,42.887248],[-3.863734,42.88981],[-3.868053,42.885977],[-3.874047,42.875116],[-3.870975,42.874338],[-3.873573,42.870185],[-3.873867,42.863194],[-3.8685,42.856697],[-3.873722,42.852902],[-3.880187,42.851385],[-3.885709,42.85408],[-3.887792,42.856829],[-3.896439,42.856302],[-3.899233,42.859936],[-3.912771,42.859082],[-3.91483,42.860083],[-3.915784,42.862507],[-3.914747,42.866054],[-3.912794,42.868096],[-3.908533,42.868923],[-3.903544,42.871862],[-3.90243,42.875238],[-3.900941,42.874674],[-3.897471,42.880284],[-3.90251,42.884918],[-3.908625,42.886869],[-3.922186,42.888004],[-3.924347,42.88922],[-3.920278,42.890658],[-3.91651,42.889256],[-3.910328,42.891962],[-3.909254,42.889701],[-3.902775,42.886267],[-3.892932,42.887362],[-3.895583,42.891105],[-3.89322,42.889467],[-3.898642,42.903644],[-3.907042,42.907558],[-3.910582,42.910925],[-3.908005,42.912269],[-3.907817,42.914522],[-3.902745,42.909474],[-3.891366,42.902809],[-3.885036,42.903029],[-3.883266,42.904286],[-3.879022,42.901301],[-3.868603,42.899075],[-3.866378,42.899326],[-3.858979,42.903678],[-3.860351,42.904559],[-3.857415,42.907561],[-3.855899,42.913957],[-3.852084,42.918948],[-3.847225,42.919371],[-3.843982,42.916946],[-3.838312,42.916231],[-3.833545,42.917985],[-3.831147,42.920966],[-3.829926,42.927692],[-3.837342,42.93423],[-3.839538,42.939779],[-3.854233,42.948577],[-3.867093,42.954829],[-3.870135,42.9497],[-3.877721,42.947787],[-3.887382,42.948766],[-3.886861,42.942314],[-3.888021,42.936893],[-3.889687,42.935142],[-3.888827,42.929862],[-3.890612,42.928714],[-3.891567,42.925248],[-3.907501,42.924718],[-3.911489,42.92339],[-3.911998,42.921342],[-3.918209,42.916294],[-3.923419,42.915667],[-3.92635,42.904432],[-3.928661,42.904098],[-3.933542,42.899601],[-3.935341,42.900325],[-3.937601,42.904809],[-3.936366,42.90816],[-3.92964,42.914698],[-3.93453,42.913128],[-3.937788,42.910643],[-3.945781,42.909406],[-3.953957,42.911293],[-3.972854,42.911692],[-3.974616,42.912353],[-3.977577,42.918316],[-3.987793,42.925838],[-3.990978,42.931087],[-3.989574,42.93372],[-3.987248,42.93619],[-3.98717,42.94054],[-3.98383,42.945539],[-3.974031,42.968595],[-3.971665,42.97491],[-3.968679,42.977627],[-3.960815,42.992453],[-3.956292,42.997461],[-3.945464,43.005773],[-3.924699,43.010354],[-3.909261,43.016097],[-3.893061,43.035585],[-3.892819,43.039171],[-3.89105,43.041661],[-3.87844,43.041569],[-3.878084,43.042427],[-3.871634,43.043854],[-3.866919,43.043827],[-3.864908,43.042239],[-3.861511,43.043408],[-3.855807,43.039327],[-3.851114,43.039092],[-3.849153,43.041105],[-3.849757,43.048395],[-3.845593,43.050938],[-3.842687,43.051301],[-3.834503,43.058061],[-3.833991,43.062909],[-3.831768,43.063826],[-3.838944,43.066763],[-3.840747,43.069254],[-3.846015,43.070998],[-3.850717,43.07705],[-3.850783,43.08004],[-3.846961,43.084399],[-3.844391,43.082455],[-3.835753,43.080555],[-3.82326,43.080582],[-3.818596,43.081841],[-3.815329,43.085601],[-3.810207,43.086655],[-3.806308,43.083449],[-3.802021,43.082588],[-3.801108,43.083207],[-3.790281,43.078131],[-3.780426,43.079873],[-3.775804,43.082534],[-3.767594,43.080302],[-3.760558,43.083519],[-3.757014,43.085066],[-3.759816,43.092114],[-3.756249,43.096847],[-3.755982,43.099109],[-3.752054,43.101503],[-3.738463,43.102546],[-3.729121,43.104443],[-3.719249,43.10835],[-3.714275,43.113982],[-3.704677,43.116275],[-3.702927,43.118086],[-3.703886,43.123411],[-3.695863,43.126045],[-3.683781,43.136257],[-3.685611,43.137183],[-3.684949,43.140644],[-3.681719,43.146643],[-3.676505,43.151131],[-3.676623,43.155084],[-3.667954,43.15762],[-3.666756,43.162841],[-3.662243,43.165262],[-3.660964,43.168763],[-3.656101,43.170727],[-3.655163,43.17157],[-3.658156,43.177649],[-3.651018,43.18104],[-3.648756,43.180089],[-3.647984,43.179148],[-3.645045,43.179345],[-3.641024,43.176071],[-3.633612,43.175563],[-3.631999,43.173078],[-3.622865,43.173875],[-3.61245,43.169519],[-3.607344,43.162045],[-3.607343,43.158227],[-3.604922,43.155961],[-3.603544,43.149638],[-3.599606,43.151928],[-3.585585,43.154504],[-3.572815,43.152866],[-3.561296,43.14951],[-3.543709,43.148163],[-3.530738,43.142902],[-3.50844,43.136583],[-3.504804,43.135599],[-3.502107,43.136655],[-3.496755,43.134698],[-3.486968,43.133263],[-3.480339,43.1361],[-3.460346,43.136254],[-3.451135,43.134472],[-3.444757,43.131534],[-3.442308,43.13285],[-3.434565,43.131655],[-3.429674,43.133672],[-3.421906,43.13235],[-3.417647,43.133428],[-3.417647,43.133429],[-3.410338,43.134535],[-3.405246,43.137948],[-3.400017,43.137562],[-3.39418,43.140031],[-3.388868,43.140004],[-3.380121,43.145409],[-3.371951,43.148777],[-3.37102,43.151446],[-3.359942,43.152084],[-3.350632,43.154355],[-3.341969,43.166844],[-3.338578,43.167538],[-3.333696,43.165689],[-3.320222,43.169707],[-3.319578,43.171258],[-3.309299,43.172502],[-3.306932,43.173994],[-3.305741,43.177014],[-3.300522,43.179107],[-3.297438,43.182618],[-3.278089,43.189591],[-3.278111,43.194427],[-3.276877,43.194331],[-3.267907,43.194208],[-3.263689,43.194947],[-3.262451,43.196274],[-3.257117,43.195115],[-3.254634,43.195796],[-3.25304,43.198271],[-3.249182,43.195997],[-3.244136,43.189957],[-3.237735,43.186188],[-3.236069,43.181725],[-3.233425,43.179002],[-3.231136,43.178881],[-3.230118,43.176406],[-3.227817,43.176339],[-3.223495,43.17225],[-3.224091,43.170133],[-3.218474,43.175159],[-3.213129,43.173792],[-3.210953,43.177857],[-3.208128,43.179411],[-3.204777,43.174455],[-3.197112,43.170479],[-3.185642,43.169229],[-3.179565,43.174286],[-3.178893,43.175246],[-3.175523,43.175503],[-3.174056,43.177369],[-3.168038,43.178585],[-3.162977,43.176917],[-3.157972,43.178032],[-3.148417,43.174006],[-3.141172,43.165411],[-3.141349,43.161539],[-3.149256,43.160925],[-3.161847,43.154263],[-3.166771,43.146944],[-3.161473,43.143187],[-3.172319,43.129746],[-3.181784,43.120879],[-3.180431,43.116316],[-3.175874,43.11309],[-3.169657,43.109588],[-3.162502,43.108923],[-3.152056,43.104119],[-3.147974,43.108258],[-3.14149,43.110643],[-3.134078,43.097091],[-3.142104,43.089112],[-3.1476,43.085728],[-3.149469,43.08116],[-3.158186,43.074017],[-3.155834,43.071967],[-3.149048,43.069328],[-3.141038,43.068699],[-3.14031,43.067151],[-3.140624,43.059317],[-3.14356,43.054378],[-3.141767,43.049014],[-3.145071,43.049334],[-3.144382,43.038087],[-3.147676,43.034499],[-3.142353,43.031444],[-3.142298,43.028743],[-3.143461,43.0274],[-3.15285,43.026973],[-3.155504,43.028068],[-3.161136,43.027601],[-3.170248,43.029074],[-3.171874,43.026838],[-3.170962,43.025534],[-3.17675,43.023598],[-3.176465,43.0225],[-3.177801,43.021985],[-3.171458,43.018257],[-3.168872,43.014929],[-3.163617,43.014108],[-3.144788,43.00684],[-3.135907,43.008012],[-3.124385,43.007764],[-3.11951,43.005725],[-3.10611,43.005405],[-3.089417,43.00175],[-3.088989,43.001637],[-3.0793,43.004805],[-3.077096,43.008526],[-3.071767,43.005611],[-3.060256,43.003511],[-3.060835,42.998724],[-3.052912,42.99441],[-3.046431,42.98919],[-3.041164,42.982321],[-3.036957,42.982232],[-3.039407,42.977315],[-3.044886,42.973387],[-3.040616,42.969435],[-3.037796,42.969409],[-3.038163,42.968688],[-3.029247,42.965341],[-3.027002,42.962865],[-3.02038,42.960984],[-3.020171,42.958445],[-3.021507,42.957499],[-3.01963,42.955023],[-3.017201,42.953658],[-3.006941,42.95217],[-3.002234,42.953503],[-2.99608,42.952872],[-2.990711,42.946929],[-2.984816,42.944226],[-2.981357,42.938976],[-2.984953,42.935546],[-2.991363,42.934547],[-2.997638,42.926244],[-3.002699,42.927892],[-3.005322,42.926731],[-3.014388,42.918958],[-3.016446,42.914888],[-3.016226,42.910552],[-3.018907,42.908512],[-3.031707,42.905979],[-3.06005,42.901717],[-3.06897,42.903919],[-3.075177,42.901006],[-3.089518,42.898997],[-3.093781,42.899245],[-3.092975,42.900741],[-3.104664,42.910159],[-3.108418,42.906158],[-3.117568,42.905888],[-3.126531,42.904059],[-3.132848,42.91348],[-3.141595,42.913236],[-3.149273,42.917062],[-3.150834,42.919194],[-3.14783,42.928672],[-3.147962,42.932337],[-3.144732,42.934682],[-3.169393,42.940205],[-3.180755,42.944528],[-3.191102,42.944988],[-3.196537,42.946429],[-3.200397,42.946242],[-3.202587,42.944969],[-3.206492,42.946943],[-3.209727,42.946739],[-3.209794,42.944568],[-3.211619,42.944304],[-3.213746,42.946038],[-3.216649,42.945555],[-3.217825,42.948741],[-3.22473,42.949691],[-3.235557,42.943861],[-3.235369,42.933073],[-3.239947,42.931551],[-3.245725,42.923839],[-3.248793,42.915845],[-3.248546,42.912144],[-3.27724,42.901578],[-3.276404,42.887019],[-3.286768,42.885147],[-3.28261,42.875513],[-3.269129,42.864091],[-3.225841,42.830117],[-3.216971,42.826514],[-3.205534,42.8274],[-3.222176,42.838635],[-3.209445,42.844224],[-3.206996,42.851351],[-3.200472,42.855064],[-3.190688,42.869462],[-3.184679,42.866203],[-3.173061,42.857207],[-3.160316,42.856343],[-3.157955,42.856887],[-3.154585,42.85998],[-3.149887,42.861319],[-3.144738,42.868692],[-3.138721,42.871293],[-3.138083,42.876166],[-3.125697,42.891318],[-3.118961,42.891271],[-3.114941,42.889249],[-3.112572,42.886729],[-3.113323,42.881866],[-3.105054,42.879586],[-3.108247,42.871181],[-3.113744,42.864062],[-3.113151,42.861064],[-3.11596,42.857702],[-3.120839,42.854996],[-3.123066,42.848707],[-3.127915,42.849576],[-3.131393,42.844655],[-3.129919,42.842162],[-3.132113,42.837945],[-3.14142,42.835692],[-3.141986,42.831639],[-3.148981,42.820166],[-3.148915,42.812916],[-3.15923,42.804591],[-3.141172,42.796419],[-3.131388,42.789803],[-3.123302,42.789327],[-3.128234,42.784295],[-3.136642,42.765482],[-3.142038,42.7629],[-3.147914,42.756697],[-3.13505,42.758541],[-3.131212,42.758086],[-3.127303,42.759126],[-3.114801,42.759454],[-3.109724,42.763475],[-3.100649,42.767167],[-3.091014,42.764212],[-3.088612,42.759513],[-3.084441,42.757094],[-3.081172,42.762409],[-3.082326,42.766164],[-3.081435,42.767254],[-3.079496,42.766852],[-3.075858,42.763656],[-3.068583,42.760986],[-3.064194,42.760087],[-3.060444,42.761999],[-3.057561,42.763572],[-3.049655,42.765606],[-3.048567,42.764769],[-3.0475,42.760879],[-3.050393,42.755943],[-3.048762,42.748631],[-3.043065,42.743761],[-3.042818,42.740627],[-3.040764,42.738494],[-3.040765,42.738493],[-3.033059,42.737073],[-3.017825,42.741228],[-3.016335,42.74049],[-3.016688,42.738247],[-3.015563,42.733321],[-3.006218,42.733088],[-3.006658,42.730548],[-3.011238,42.727819],[-3.007463,42.723218],[-2.994321,42.721543],[-2.989375,42.719273],[-2.987008,42.708853],[-2.980635,42.703818],[-2.973991,42.70868],[-2.963453,42.708019],[-2.956369,42.710385],[-2.946438,42.709576],[-2.930581,42.70822],[-2.928033,42.70476],[-2.930322,42.699664],[-2.92166,42.70119],[-2.917635,42.69753],[-2.907395,42.695649],[-2.906909,42.69419],[-2.905156,42.693954],[-2.902502,42.693601],[-2.903783,42.686424],[-2.901397,42.682577],[-2.898041,42.682304],[-2.895191,42.67946],[-2.897094,42.676949],[-2.899899,42.672949],[-2.897294,42.669398],[-2.900701,42.667807],[-2.89572,42.654636],[-2.890455,42.651479],[-2.888727,42.64892],[-2.876428,42.644071],[-2.870216,42.639381],[-2.859144,42.638855],[-2.856386,42.637463],[-2.858094,42.638204],[-2.864082,42.633258],[-2.876295,42.631003],[-2.883528,42.624428],[-2.880277,42.618837],[-2.883669,42.620799],[-2.893996,42.621331],[-2.890476,42.625732],[-2.891778,42.627273],[-2.894631,42.627672],[-2.904463,42.626492],[-2.905394,42.6238],[-2.904436,42.620161],[-2.916009,42.619521],[-2.920495,42.620461],[-2.9242,42.621734],[-2.933868,42.634735],[-2.946451,42.639317],[-2.952636,42.638563],[-2.970394,42.6411],[-2.975884,42.639156],[-2.97791,42.636608],[-2.98057,42.635221],[-2.98596,42.63633],[-2.989948,42.642328],[-2.99723,42.64214],[-3.004756,42.644265],[-3.00872,42.640852],[-3.010733,42.641653],[-3.01477,42.640176],[-3.017172,42.634781],[-3.016306,42.633529],[-3.018013,42.632178],[-3.029431,42.63821],[-3.034042,42.638037],[-3.040788,42.640053],[-3.064976,42.639681],[-3.069354,42.638778],[-3.084152,42.640687],[-3.084743,42.635346],[-3.081067,42.631314],[-3.086404,42.627717],[-3.079523,42.626092],[-3.078191,42.623733],[-3.070457,42.621415],[-3.065638,42.607044],[-3.060416,42.602562],[-3.060402,42.600599],[-3.064617,42.598282],[-3.065186,42.594175],[-3.063538,42.591312],[-3.059831,42.589189],[-3.068106,42.588914],[-3.079312,42.583674],[-3.086196,42.582211],[-3.082358,42.574018],[-3.088283,42.567106],[-3.102428,42.559431],[-3.104239,42.55679],[-3.103745,42.553107],[-3.10544,42.553925],[-3.114912,42.551278],[-3.126334,42.543809],[-3.134271,42.542053],[-3.132525,42.539956],[-3.131022,42.537211],[-3.125327,42.533111],[-3.117398,42.532264],[-3.107456,42.52877],[-3.099918,42.536171],[-3.096786,42.534579],[-3.089302,42.538278],[-3.084159,42.535319],[-3.082696,42.533708],[-3.08407,42.532185],[-3.08128,42.531178],[-3.076472,42.532226],[-3.071901,42.528104],[-3.076092,42.520194],[-3.073981,42.515665],[-3.075139,42.507091],[-3.079292,42.499091],[-3.093252,42.491525],[-3.094695,42.488074],[-3.093987,42.486301],[-3.091432,42.486267],[-3.090422,42.477883],[-3.089304,42.478874],[-3.082779,42.475943],[-3.082303,42.474485],[-3.073315,42.476481],[-3.064209,42.470948],[-3.060989,42.461988],[-3.055267,42.455804],[-3.050277,42.451592],[-3.046004,42.445154],[-3.057691,42.433909],[-3.063299,42.424909],[-3.057397,42.417158],[-3.058921,42.409908],[-3.06402,42.404276],[-3.061033,42.394605],[-3.059185,42.393111],[-3.056007,42.385142],[-3.053143,42.373418],[-3.057694,42.370119],[-3.064414,42.37334],[-3.067858,42.380021],[-3.073513,42.385646],[-3.075015,42.391643],[-3.078684,42.391407],[-3.082652,42.397384],[-3.078606,42.407509],[-3.078179,42.41575],[-3.080088,42.416785],[-3.090355,42.42237],[-3.090546,42.419911],[-3.09431,42.417666],[-3.101346,42.416777],[-3.09889,42.408503],[-3.095738,42.405182],[-3.096992,42.398607],[-3.103418,42.390324],[-3.10527,42.386369],[-3.104397,42.38541],[-3.094904,42.383739],[-3.084811,42.385386],[-3.07081,42.369473],[-3.063286,42.362849],[-3.063704,42.356085],[-3.087571,42.352179],[-3.092575,42.352886],[-3.109256,42.351881],[-3.109538,42.346198],[-3.11069,42.338578],[-3.105646,42.335034],[-3.103929,42.331379],[-3.100671,42.328572],[-3.095863,42.32691],[-3.095774,42.32446],[-3.098064,42.322315],[-3.100698,42.322412],[-3.10339,42.320779],[-3.106591,42.311878],[-3.102618,42.308946],[-3.103572,42.305901],[-3.10103,42.302157],[-3.09938,42.29444],[-3.095852,42.287454],[-3.096166,42.279024],[-3.089621,42.273049],[-3.097719,42.263091],[-3.088589,42.245725],[-3.092345,42.244732],[-3.093928,42.241155],[-3.096653,42.239594],[-3.102483,42.232231],[-3.0992,42.224975],[-3.101466,42.217147],[-3.106012,42.211766],[-3.11335,42.209516],[-3.116856,42.205469],[-3.127944,42.201594],[-3.129394,42.199458],[-3.128576,42.19663],[-3.125118,42.193239],[-3.115323,42.188269],[-3.114263,42.184829],[-3.114967,42.178803],[-3.112892,42.176005],[-3.109102,42.176269],[-3.10544,42.173013],[-3.102073,42.172079],[-3.101464,42.169738],[-3.096572,42.169454],[-3.099802,42.167389],[-3.089815,42.159345],[-3.089097,42.156977],[-3.090671,42.148591],[-3.086576,42.135922],[-3.083814,42.133456],[-3.073653,42.13585],[-3.066172,42.133324],[-3.058955,42.126969],[-3.049254,42.112798],[-3.034374,42.085963],[-3.023457,42.089272],[-3.014678,42.088426],[-3.009587,42.084986],[-3.003905,42.083329],[-2.999189,42.086058],[-2.993192,42.087526],[-2.97768,42.08394],[-2.960874,42.084286],[-2.958648,42.085906],[-2.954006,42.08558],[-2.941512,42.089132],[-2.935333,42.089408],[-2.931177,42.086776],[-2.931456,42.085785],[-2.931947,42.079255],[-2.928011,42.074074],[-2.926373,42.069165],[-2.92692,42.066517],[-2.922926,42.061182],[-2.92345,42.057922],[-2.919808,42.05121],[-2.920427,42.049211],[-2.915233,42.039029],[-2.915484,42.032311],[-2.913624,42.022852],[-2.932171,42.017974],[-2.937471,42.007971],[-2.94598,42.000202],[-2.950525,41.993899],[-2.951809,41.9881],[-2.955337,41.984615],[-2.960342,41.973575],[-2.965802,41.966038],[-2.967616,41.958013],[-2.964674,41.954184],[-2.96003,41.951913],[-2.96008,41.950121],[-2.963123,41.945258],[-2.964515,41.936837],[-2.970791,41.929273],[-2.982467,41.928203],[-2.983829,41.930005],[-2.987616,41.931519],[-2.998484,41.9326],[-3.008072,41.922224],[-3.011062,41.915288],[-3.010217,41.911028],[-3.007733,41.908794],[-3.014917,41.901588],[-3.016508,41.898426],[-3.015001,41.896184],[-3.01677,41.886906],[-3.034164,41.889064],[-3.038139,41.885766],[-3.044685,41.887322],[-3.045241,41.889483],[-3.058634,41.891324],[-3.063617,41.883368],[-3.069702,41.882554],[-3.075452,41.883117],[-3.078752,41.881467],[-3.07934,41.879944],[-3.082137,41.880176],[-3.087735,41.876344],[-3.091808,41.8759],[-3.095552,41.881589],[-3.097167,41.881056],[-3.101234,41.877342],[-3.101164,41.871307],[-3.096806,41.86588],[-3.097161,41.861385],[-3.100863,41.856329],[-3.107667,41.85453],[-3.112599,41.850688],[-3.113593,41.847255],[-3.127292,41.830578],[-3.135322,41.818166],[-3.136947,41.817794],[-3.134089,41.815951],[-3.136602,41.814057],[-3.1362,41.811941],[-3.138717,41.812271],[-3.158224,41.799338],[-3.171352,41.793015],[-3.174093,41.796406],[-3.178943,41.796074],[-3.181683,41.798844],[-3.188588,41.801661],[-3.198218,41.81721],[-3.194497,41.828925],[-3.20182,41.833272],[-3.206789,41.831597],[-3.224354,41.8404],[-3.224471,41.839301],[-3.234388,41.840641],[-3.239538,41.845792],[-3.242603,41.847227],[-3.246806,41.856324],[-3.243341,41.863996],[-3.246577,41.865692],[-3.256827,41.870641],[-3.263045,41.867844],[-3.265979,41.869251],[-3.269498,41.869288],[-3.271032,41.87876],[-3.274747,41.882138],[-3.279647,41.883783],[-3.283757,41.883809],[-3.28957,41.876409],[-3.284227,41.870027],[-3.279036,41.867914],[-3.284846,41.85212],[-3.283472,41.84653],[-3.285303,41.843841],[-3.289007,41.842463],[-3.28874,41.828565],[-3.284652,41.82726],[-3.28114,41.822901],[-3.284873,41.814596],[-3.282992,41.811205],[-3.28671,41.80535],[-3.281626,41.807272],[-3.278336,41.814855],[-3.275383,41.794326],[-3.285863,41.788247],[-3.283569,41.778246],[-3.281815,41.776224],[-3.281119,41.776721],[-3.279478,41.772672],[-3.275454,41.768673],[-3.278805,41.767305],[-3.283811,41.762222],[-3.287062,41.760133],[-3.296165,41.761993],[-3.307224,41.760153],[-3.309313,41.756752],[-3.309682,41.751004],[-3.313909,41.74948],[-3.321677,41.749188],[-3.322899,41.740934],[-3.328214,41.74091],[-3.330419,41.739255],[-3.335625,41.741366],[-3.339807,41.740732],[-3.344869,41.738321],[-3.35069,41.738511],[-3.354387,41.737257],[-3.355126,41.733768],[-3.352467,41.729147],[-3.360661,41.721583],[-3.35986,41.713668],[-3.361812,41.710302],[-3.360922,41.699451],[-3.358401,41.693425],[-3.359682,41.692547],[-3.36329,41.693004],[-3.369628,41.691768],[-3.374129,41.693005],[-3.381851,41.692025],[-3.385149,41.692978],[-3.393402,41.690617],[-3.394759,41.684461],[-3.396214,41.6846],[-3.407343,41.67559],[-3.406992,41.673186],[-3.410044,41.671356],[-3.41146,41.667406],[-3.414651,41.664837],[-3.417731,41.656242],[-3.416608,41.647887],[-3.419069,41.644104],[-3.421496,41.646059],[-3.429759,41.646281],[-3.432596,41.643181],[-3.433006,41.639766],[-3.435236,41.639379],[-3.436552,41.63859],[-3.436594,41.63415],[-3.440476,41.62946],[-3.439086,41.624557],[-3.43536,41.622031],[-3.440953,41.61838],[-3.442636,41.611645],[-3.449796,41.605772],[-3.452251,41.59979],[-3.456514,41.595171],[-3.459163,41.58963],[-3.465429,41.588479],[-3.465555,41.589271],[-3.46848,41.588971],[-3.468264,41.592224],[-3.470744,41.595033],[-3.473781,41.595273],[-3.475365,41.59695],[-3.47956,41.594573],[-3.481396,41.594701],[-3.481633,41.597447],[-3.499603,41.596875],[-3.505138,41.597275],[-3.505937,41.598145],[-3.507845,41.596668],[-3.510009,41.597181],[-3.511481,41.598237],[-3.510453,41.60026],[-3.516527,41.603502],[-3.516816,41.605122],[-3.523431,41.60992],[-3.529154,41.612623],[-3.532164,41.610862],[-3.541443,41.608162],[-3.539686,41.607594],[-3.540684,41.597762],[-3.545671,41.598541],[-3.550442,41.596581],[-3.536139,41.586462],[-3.536378,41.584821],[-3.540026,41.582048],[-3.541572,41.5776],[-3.546427,41.580082],[-3.552959,41.580735],[-3.562935,41.577426],[-3.566519,41.579949],[-3.570972,41.577423],[-3.574527,41.572461],[-3.571207,41.568685],[-3.572629,41.56539],[-3.600729,41.570472],[-3.604701,41.56557],[-3.608808,41.566115],[-3.616841,41.577152],[-3.626128,41.570004],[-3.645256,41.572097],[-3.658855,41.565895],[-3.661052,41.566072],[-3.669451,41.560673],[-3.671727,41.560426],[-3.675515,41.554441],[-3.681401,41.552029],[-3.689182,41.540589],[-3.691551,41.534531],[-3.699372,41.533917],[-3.706921,41.530241],[-3.706897,41.525854],[-3.709735,41.524504],[-3.717506,41.52378],[-3.728308,41.517633],[-3.724891,41.507846],[-3.728189,41.502772],[-3.728506,41.498951],[-3.726561,41.495405],[-3.728004,41.486173],[-3.72891,41.483654],[-3.723721,41.479201],[-3.732408,41.469887],[-3.729097,41.457622],[-3.739484,41.450783],[-3.744139,41.461057],[-3.750037,41.460541],[-3.757724,41.461518],[-3.763742,41.460145],[-3.769754,41.46015],[-3.771638,41.471658],[-3.770256,41.482386],[-3.770443,41.490086],[-3.768546,41.493747],[-3.770831,41.499604],[-3.76701,41.505772],[-3.769781,41.511077],[-3.770757,41.516592],[-3.769695,41.517941],[-3.771533,41.522343],[-3.766191,41.537924],[-3.773672,41.534893],[-3.780921,41.533574],[-3.784094,41.527311],[-3.792467,41.524957],[-3.796213,41.522472],[-3.799115,41.521623],[-3.80379,41.524572],[-3.804061,41.523246],[-3.800619,41.521145],[-3.799061,41.51821],[-3.804038,41.515572],[-3.805017,41.516286],[-3.804935,41.514485],[-3.802214,41.512487],[-3.796832,41.502625],[-3.800437,41.498583],[-3.798222,41.491924],[-3.794293,41.49096],[-3.787643,41.485863],[-3.795256,41.484468],[-3.800197,41.485866],[-3.816137,41.483674],[-3.823879,41.481133],[-3.828237,41.491325],[-3.834154,41.499641],[-3.835809,41.499773],[-3.842278,41.500618],[-3.85275,41.512557],[-3.863706,41.528967],[-3.867948,41.532475],[-3.875135,41.534745],[-3.882858,41.534028],[-3.885783,41.532303],[-3.886846,41.536457],[-3.891897,41.544569],[-3.894035,41.551794],[-3.905559,41.556965],[-3.9145,41.563451],[-3.924527,41.567713],[-3.933175,41.569381],[-3.942239,41.569136],[-3.953049,41.573434],[-3.960493,41.577975],[-3.963828,41.58608],[-3.972933,41.583617],[-3.979948,41.584188],[-3.980667,41.583371]],[[-4.062137,42.131578],[-4.059795,42.136202],[-4.063869,42.138893],[-4.06453,42.142976],[-4.072776,42.151797],[-4.074483,42.156122],[-4.069952,42.155931],[-4.067563,42.157052],[-4.067102,42.162027],[-4.065637,42.1635],[-4.068984,42.163127],[-4.076292,42.167859],[-4.094228,42.157719],[-4.101134,42.158761],[-4.107779,42.158022],[-4.1093,42.159214],[-4.111843,42.158577],[-4.110037,42.143185],[-4.102733,42.137239],[-4.099459,42.137549],[-4.095922,42.140141],[-4.09006,42.141989],[-4.083477,42.141268],[-4.073044,42.136872],[-4.070041,42.136773],[-4.067753,42.133093],[-4.062137,42.131578]],[[-3.283377,42.127109],[-3.282701,42.127987],[-3.288546,42.120398],[-3.283377,42.127109]]],[[[-4.26315,42.730481],[-4.262267,42.7333],[-4.260633,42.738893],[-4.24781,42.736043],[-4.24506,42.735974],[-4.251333,42.726549],[-4.26315,42.730481]]],[[[-2.922629,42.60083],[-2.927657,42.596141],[-2.934887,42.594408],[-2.936265,42.594102],[-2.939604,42.594455],[-2.943123,42.598519],[-2.944971,42.603572],[-2.945215,42.603887],[-2.940262,42.60728],[-2.9345,42.614076],[-2.929736,42.611219],[-2.929559,42.606247],[-2.922629,42.60083]]],[[[-2.999378,42.600947],[-2.997867,42.605432],[-2.994087,42.610448],[-2.994525,42.615491],[-2.985222,42.614221],[-2.982858,42.610798],[-2.985772,42.609853],[-2.986248,42.607052],[-2.991942,42.604558],[-2.999378,42.600947]]],[[[-2.639762,42.766131],[-2.634204,42.764924],[-2.623583,42.770423],[-2.620695,42.769407],[-2.617862,42.770877],[-2.614315,42.768402],[-2.609056,42.770762],[-2.602672,42.770082],[-2.602725,42.766683],[-2.597782,42.761951],[-2.591507,42.758255],[-2.589365,42.750322],[-2.577329,42.753925],[-2.567296,42.75861],[-2.563912,42.762709],[-2.558352,42.762638],[-2.557618,42.761005],[-2.558793,42.753243],[-2.563955,42.747085],[-2.562543,42.741347],[-2.564329,42.736865],[-2.566707,42.737054],[-2.569129,42.733776],[-2.572622,42.724779],[-2.589676,42.710586],[-2.592599,42.710601],[-2.598244,42.713296],[-2.598502,42.71508],[-2.599604,42.714886],[-2.603382,42.71009],[-2.602985,42.708324],[-2.607986,42.706814],[-2.608978,42.695961],[-2.603816,42.695619],[-2.594134,42.690038],[-2.578117,42.673986],[-2.579243,42.668834],[-2.577766,42.668212],[-2.573252,42.668069],[-2.567646,42.670488],[-2.548376,42.668802],[-2.547346,42.672868],[-2.539397,42.686579],[-2.535484,42.687518],[-2.523058,42.684246],[-2.524321,42.665825],[-2.517606,42.651695],[-2.517395,42.646332],[-2.538047,42.638452],[-2.546752,42.638365],[-2.551504,42.639874],[-2.552036,42.641466],[-2.548123,42.644886],[-2.55198,42.649258],[-2.558079,42.649167],[-2.564979,42.644438],[-2.571347,42.647596],[-2.584845,42.651559],[-2.599881,42.650703],[-2.60118,42.647826],[-2.603938,42.649592],[-2.613337,42.646796],[-2.618222,42.648371],[-2.626605,42.649596],[-2.631817,42.649199],[-2.634851,42.647795],[-2.642923,42.652701],[-2.647588,42.658236],[-2.651721,42.660987],[-2.653553,42.669777],[-2.657432,42.672293],[-2.6604,42.67223],[-2.665648,42.666229],[-2.67018,42.669975],[-2.678129,42.669363],[-2.679614,42.671358],[-2.683924,42.671352],[-2.687517,42.673226],[-2.695677,42.673514],[-2.699205,42.674838],[-2.703394,42.67429],[-2.714753,42.669573],[-2.714595,42.664319],[-2.716935,42.662374],[-2.72045,42.661969],[-2.726519,42.663676],[-2.735045,42.662094],[-2.748199,42.665645],[-2.767913,42.666026],[-2.7706,42.6687],[-2.775919,42.670552],[-2.770792,42.672699],[-2.770509,42.676634],[-2.778361,42.685727],[-2.784504,42.698941],[-2.795495,42.697953],[-2.800246,42.699805],[-2.811011,42.706742],[-2.825303,42.708935],[-2.827662,42.712712],[-2.828988,42.719009],[-2.838894,42.721617],[-2.851511,42.725606],[-2.854138,42.728977],[-2.847354,42.731243],[-2.854215,42.736398],[-2.856949,42.737581],[-2.864955,42.737162],[-2.868192,42.740594],[-2.861557,42.746039],[-2.853045,42.747662],[-2.855828,42.752358],[-2.854886,42.753091],[-2.85257,42.75184],[-2.851039,42.75268],[-2.852079,42.7572],[-2.852333,42.762151],[-2.848371,42.76329],[-2.853521,42.766187],[-2.853761,42.768232],[-2.84529,42.778055],[-2.841848,42.776195],[-2.839342,42.780838],[-2.835566,42.795901],[-2.831031,42.79311],[-2.826266,42.785317],[-2.817067,42.790008],[-2.806777,42.791918],[-2.800627,42.792894],[-2.797313,42.791605],[-2.793318,42.792511],[-2.790157,42.791051],[-2.781453,42.792815],[-2.778449,42.793015],[-2.773862,42.794285],[-2.767322,42.792727],[-2.758212,42.793897],[-2.743668,42.79219],[-2.735293,42.792855],[-2.731552,42.794454],[-2.728112,42.790781],[-2.718715,42.788709],[-2.71078,42.783646],[-2.702926,42.784626],[-2.695126,42.782101],[-2.693186,42.778827],[-2.680035,42.779936],[-2.675928,42.778374],[-2.675168,42.776283],[-2.668088,42.771602],[-2.666424,42.774682],[-2.653809,42.772411],[-2.65111,42.766932],[-2.645839,42.767037],[-2.642697,42.764573],[-2.639762,42.766131]]]]}}
]
}
