{
"type": "FeatureCollection",
"name": "cod_prov_47",
"crs": { "type": "name", "properties": { "name": "urn:ogc:def:crs:OGC:1.3:CRS84" } },
"xy_coordinate_resolution": 1e-15,
"features": [
{"type":"Feature","properties":{"fid":51,"cod_ccaa":"07","provincia":"Valladolid","cod_prov":"47"},"geometry":{"type":"MultiPolygon","coordinates":[[[[-5.112988,41.136388],[-5.124043,41.135599],[-5.124929,41.132043],[-5.12855,41.132381],[-5.128292,41.133638],[-5.132352,41.136121],[-5.131804,41.136852],[-5.136447,41.14117],[-5.13617,41.144004],[-5.142209,41.147233],[-5.145082,41.14763],[-5.145616,41.149016],[-5.148577,41.149934],[-5.148679,41.151247],[-5.160089,41.157212],[-5.161634,41.156724],[-5.166089,41.160261],[-5.174513,41.161291],[-5.174557,41.163335],[-5.177911,41.163137],[-5.178603,41.164592],[-5.176646,41.16525],[-5.179658,41.167292],[-5.181642,41.166002],[-5.185063,41.166721],[-5.191262,41.162109],[-5.196374,41.163155],[-5.200501,41.166454],[-5.207137,41.164931],[-5.207928,41.166834],[-5.21822,41.159584],[-5.222406,41.162152],[-5.217344,41.167554],[-5.222273,41.170558],[-5.224597,41.176529],[-5.223617,41.178215],[-5.225711,41.178444],[-5.22449,41.179342],[-5.224943,41.181459],[-5.228367,41.183275],[-5.227613,41.186712],[-5.229623,41.188321],[-5.229257,41.189842],[-5.234606,41.192161],[-5.234747,41.193149],[-5.238827,41.193889],[-5.242503,41.197141],[-5.244364,41.196114],[-5.248658,41.196157],[-5.247796,41.198146],[-5.252968,41.199774],[-5.255613,41.197633],[-5.264174,41.197258],[-5.268619,41.199251],[-5.27189,41.197961],[-5.269668,41.19578],[-5.270599,41.195465],[-5.273974,41.19719],[-5.278167,41.195676],[-5.278919,41.196723],[-5.282557,41.195048],[-5.282846,41.196159],[-5.288467,41.195615],[-5.291898,41.187315],[-5.290415,41.186489],[-5.291588,41.183889],[-5.288744,41.181991],[-5.296977,41.18117],[-5.30174,41.185434],[-5.307387,41.183268],[-5.308442,41.184453],[-5.326978,41.177622],[-5.33135,41.178543],[-5.332508,41.178267],[-5.32781,41.181595],[-5.329636,41.184351],[-5.338579,41.188385],[-5.336168,41.189992],[-5.340297,41.194105],[-5.32985,41.204152],[-5.315383,41.211911],[-5.311215,41.216507],[-5.310077,41.219745],[-5.311531,41.2214],[-5.308382,41.222094],[-5.307618,41.224794],[-5.304709,41.226545],[-5.302714,41.22409],[-5.293652,41.226253],[-5.298011,41.226049],[-5.295453,41.229324],[-5.297773,41.229809],[-5.298509,41.231758],[-5.296904,41.235996],[-5.294695,41.236292],[-5.29523,41.237606],[-5.296798,41.237412],[-5.294965,41.24061],[-5.297277,41.24359],[-5.299203,41.254594],[-5.302208,41.259272],[-5.30152,41.262816],[-5.291741,41.26919],[-5.296569,41.270715],[-5.294954,41.282537],[-5.297268,41.292344],[-5.303676,41.300331],[-5.303242,41.308374],[-5.306474,41.311596],[-5.30351,41.315979],[-5.305488,41.318209],[-5.312976,41.319464],[-5.317997,41.32193],[-5.32212,41.326332],[-5.324425,41.340417],[-5.333128,41.358209],[-5.333494,41.364785],[-5.334625,41.370644],[-5.333041,41.381538],[-5.322299,41.394184],[-5.320488,41.401453],[-5.311126,41.408667],[-5.307537,41.414053],[-5.318355,41.420852],[-5.339238,41.425599],[-5.333277,41.436239],[-5.332841,41.444129],[-5.32723,41.447215],[-5.332221,41.450203],[-5.324791,41.455343],[-5.329237,41.459477],[-5.333871,41.459482],[-5.337492,41.461291],[-5.344736,41.479256],[-5.342139,41.481281],[-5.336153,41.475702],[-5.332499,41.47565],[-5.332186,41.477944],[-5.328634,41.478079],[-5.320873,41.481767],[-5.310972,41.490297],[-5.303917,41.49741],[-5.299177,41.500225],[-5.292971,41.501565],[-5.289598,41.501055],[-5.277156,41.506355],[-5.270199,41.504403],[-5.268868,41.50542],[-5.261883,41.503685],[-5.253932,41.509695],[-5.247247,41.51387],[-5.241675,41.519788],[-5.233839,41.517725],[-5.231528,41.52022],[-5.228873,41.528431],[-5.233149,41.530789],[-5.233697,41.534165],[-5.239478,41.54051],[-5.247102,41.544658],[-5.247786,41.54677],[-5.257425,41.547094],[-5.256909,41.548113],[-5.26401,41.551648],[-5.270245,41.5513],[-5.272651,41.550181],[-5.274178,41.552681],[-5.272005,41.557047],[-5.272619,41.559188],[-5.280506,41.562148],[-5.279344,41.564252],[-5.28294,41.566927],[-5.283204,41.568624],[-5.287702,41.570354],[-5.293074,41.574372],[-5.280914,41.584674],[-5.267955,41.590047],[-5.266422,41.592878],[-5.270718,41.593937],[-5.271861,41.596085],[-5.27013,41.598713],[-5.270539,41.601137],[-5.277469,41.605079],[-5.292484,41.608897],[-5.29437,41.608283],[-5.297473,41.6095],[-5.305736,41.608334],[-5.30858,41.611691],[-5.316117,41.610368],[-5.317571,41.611411],[-5.320215,41.610853],[-5.328894,41.615919],[-5.324208,41.625129],[-5.325264,41.630142],[-5.323416,41.634169],[-5.321775,41.634265],[-5.321693,41.636014],[-5.319512,41.63677],[-5.324756,41.643392],[-5.323617,41.649134],[-5.324086,41.650475],[-5.324284,41.657649],[-5.322359,41.66257],[-5.323912,41.665682],[-5.324024,41.671461],[-5.32818,41.681798],[-5.332044,41.683007],[-5.331986,41.684711],[-5.338417,41.686795],[-5.341322,41.696013],[-5.340822,41.699112],[-5.345699,41.70203],[-5.358136,41.699694],[-5.357986,41.702156],[-5.356162,41.717054],[-5.358659,41.719921],[-5.360161,41.727131],[-5.361691,41.728847],[-5.365559,41.729416],[-5.370027,41.727009],[-5.371478,41.721341],[-5.375195,41.719787],[-5.375559,41.728038],[-5.377107,41.728934],[-5.378024,41.733256],[-5.384384,41.741365],[-5.390692,41.752572],[-5.390743,41.757507],[-5.391383,41.76051],[-5.382104,41.768836],[-5.371479,41.775306],[-5.370177,41.777846],[-5.365059,41.779347],[-5.349497,41.780874],[-5.345718,41.786129],[-5.341544,41.789169],[-5.335319,41.788404],[-5.33356,41.78934],[-5.329141,41.788953],[-5.326309,41.789839],[-5.322652,41.78821],[-5.320394,41.790328],[-5.316362,41.790985],[-5.314009,41.793807],[-5.279623,41.813452],[-5.277127,41.818437],[-5.276816,41.822892],[-5.287148,41.827686],[-5.290541,41.826258],[-5.294934,41.827557],[-5.298401,41.825515],[-5.299929,41.826467],[-5.302533,41.825568],[-5.306407,41.826796],[-5.30774,41.825715],[-5.315843,41.827029],[-5.326537,41.829073],[-5.32955,41.831138],[-5.330429,41.831795],[-5.327162,41.835347],[-5.32,41.83977],[-5.321784,41.840805],[-5.306474,41.857838],[-5.309451,41.863911],[-5.305336,41.867092],[-5.309881,41.875845],[-5.311477,41.882684],[-5.310452,41.893359],[-5.307603,41.898928],[-5.301349,41.904709],[-5.300517,41.907049],[-5.295914,41.911167],[-5.293733,41.919938],[-5.298838,41.922087],[-5.309336,41.930603],[-5.30989,41.932258],[-5.320875,41.937512],[-5.335215,41.937473],[-5.334757,41.940121],[-5.331457,41.942584],[-5.312394,41.94949],[-5.305664,41.953552],[-5.299646,41.961318],[-5.288446,41.968],[-5.288824,41.971486],[-5.28531,41.974114],[-5.269431,41.981013],[-5.261506,41.981836],[-5.254609,41.980332],[-5.254679,41.981646],[-5.260505,41.984611],[-5.28065,41.9788],[-5.301777,41.991328],[-5.303229,41.991101],[-5.30224,41.992787],[-5.309472,42.002827],[-5.313329,42.002623],[-5.317845,42.006621],[-5.323314,42.018866],[-5.32552,42.020398],[-5.332045,42.020166],[-5.348946,42.022586],[-5.371457,42.035487],[-5.376396,42.039645],[-5.376294,42.041466],[-5.374438,42.043198],[-5.375635,42.046775],[-5.371192,42.051433],[-5.374437,42.068135],[-5.37976,42.077291],[-5.389685,42.087288],[-5.390118,42.08981],[-5.386851,42.091346],[-5.381601,42.096453],[-5.376395,42.099515],[-5.377234,42.10319],[-5.379713,42.103841],[-5.380723,42.107215],[-5.380001,42.112805],[-5.377597,42.112891],[-5.377961,42.114216],[-5.372731,42.118296],[-5.375255,42.121414],[-5.375187,42.12672],[-5.372392,42.128011],[-5.371525,42.130064],[-5.376198,42.137911],[-5.374609,42.138448],[-5.375891,42.141979],[-5.38024,42.146635],[-5.381154,42.150677],[-5.381456,42.159352],[-5.379596,42.163335],[-5.38667,42.16861],[-5.388876,42.172544],[-5.388889,42.175462],[-5.387114,42.189422],[-5.380227,42.197886],[-5.388512,42.205288],[-5.388989,42.21794],[-5.388103,42.221443],[-5.380825,42.225404],[-5.374096,42.222374],[-5.368298,42.222854],[-5.361235,42.225152],[-5.352958,42.219243],[-5.349163,42.220465],[-5.345756,42.219751],[-5.340578,42.217326],[-5.340541,42.216337],[-5.33565,42.216752],[-5.337407,42.213474],[-5.332116,42.208628],[-5.326804,42.2068],[-5.324335,42.208183],[-5.317337,42.205299],[-5.312084,42.199776],[-5.307463,42.199266],[-5.306507,42.199636],[-5.308094,42.200622],[-5.30821,42.202475],[-5.305831,42.205999],[-5.306072,42.208291],[-5.29979,42.215441],[-5.299851,42.219781],[-5.301875,42.222154],[-5.299337,42.222646],[-5.296988,42.225359],[-5.286926,42.229928],[-5.276697,42.216398],[-5.274965,42.215415],[-5.273612,42.21618],[-5.265645,42.210898],[-5.257148,42.21076],[-5.253166,42.212909],[-5.249202,42.213167],[-5.24572,42.214731],[-5.244406,42.213901],[-5.241484,42.214516],[-5.234045,42.218948],[-5.232714,42.219361],[-5.231022,42.223942],[-5.226775,42.225151],[-5.225995,42.226724],[-5.227766,42.229895],[-5.229525,42.23132],[-5.235658,42.230327],[-5.242555,42.231741],[-5.244811,42.233525],[-5.244701,42.235184],[-5.251604,42.236076],[-5.254002,42.239775],[-5.249845,42.245593],[-5.248495,42.245449],[-5.246042,42.250801],[-5.244688,42.263868],[-5.23872,42.266182],[-5.235385,42.271308],[-5.2365,42.273349],[-5.2303,42.275649],[-5.231614,42.264429],[-5.228453,42.262465],[-5.222553,42.275349],[-5.220315,42.277923],[-5.216679,42.277993],[-5.213145,42.276126],[-5.207026,42.2693],[-5.200306,42.26471],[-5.201046,42.264021],[-5.197906,42.260542],[-5.182721,42.264209],[-5.183484,42.268049],[-5.178157,42.271104],[-5.166189,42.271827],[-5.164236,42.27108],[-5.156135,42.273907],[-5.156108,42.277717],[-5.144317,42.28155],[-5.129577,42.296531],[-5.129645,42.297817],[-5.126246,42.301005],[-5.123338,42.301825],[-5.123385,42.303598],[-5.11958,42.307694],[-5.113787,42.30971],[-5.112002,42.311841],[-5.109587,42.311832],[-5.108784,42.310649],[-5.093754,42.309294],[-5.087055,42.297484],[-5.086165,42.292232],[-5.082406,42.293723],[-5.077897,42.291608],[-5.078976,42.28976],[-5.075424,42.285015],[-5.076431,42.2828],[-5.07515,42.278888],[-5.071877,42.277812],[-5.070708,42.279157],[-5.066112,42.276196],[-5.06219,42.277888],[-5.066256,42.266503],[-5.065375,42.265889],[-5.068192,42.261191],[-5.054809,42.257523],[-5.045916,42.26142],[-5.041604,42.267557],[-5.042337,42.271471],[-5.038934,42.27725],[-5.036952,42.289119],[-5.041535,42.292829],[-5.03835,42.297127],[-5.030938,42.295611],[-5.026312,42.295107],[-5.020047,42.292642],[-5.005281,42.290605],[-5.002141,42.289129],[-5.005926,42.281129],[-5.006202,42.275297],[-5.009914,42.266569],[-5.00866,42.261457],[-5.016546,42.258968],[-5.018808,42.253858],[-5.015505,42.248351],[-5.008972,42.242252],[-5.010341,42.228115],[-5.024667,42.219893],[-5.024899,42.217295],[-5.020383,42.205613],[-5.012948,42.194631],[-5.014556,42.193414],[-5.012393,42.18976],[-5.019504,42.17881],[-5.031894,42.173628],[-5.026037,42.1646],[-5.026966,42.153912],[-5.015027,42.156797],[-5.015294,42.153775],[-5.008536,42.148652],[-5.005805,42.149565],[-5.002402,42.149093],[-4.999187,42.146555],[-4.995112,42.147797],[-4.994307,42.144902],[-4.990184,42.145406],[-4.988482,42.144382],[-4.981249,42.146849],[-4.982267,42.148821],[-4.979903,42.151033],[-4.966398,42.155759],[-4.965638,42.151548],[-4.963706,42.151293],[-4.962443,42.149604],[-4.960942,42.151556],[-4.94424,42.152741],[-4.938588,42.151162],[-4.927497,42.150214],[-4.929796,42.14461],[-4.928993,42.130511],[-4.925077,42.120688],[-4.928707,42.118313],[-4.924262,42.110552],[-4.920197,42.096499],[-4.912132,42.091293],[-4.917824,42.090793],[-4.904177,42.078393],[-4.916759,42.07831],[-4.927747,42.073497],[-4.947625,42.054311],[-4.9497,42.051016],[-4.938131,42.019879],[-4.936007,42.017916],[-4.951009,42.012069],[-4.96554,42.007056],[-4.969764,41.997591],[-4.970263,41.998519],[-4.975495,41.993547],[-4.971491,41.988996],[-4.974403,41.977382],[-4.976109,41.973615],[-4.983019,41.969911],[-4.983269,41.966683],[-4.994074,41.962569],[-4.995379,41.957989],[-5.000146,41.951061],[-5.002462,41.947968],[-5.005105,41.947228],[-5.001505,41.943211],[-5.0019,41.940826],[-5.00485,41.937947],[-4.997342,41.928891],[-4.990039,41.925569],[-4.987099,41.921774],[-4.986925,41.913446],[-4.983684,41.910026],[-4.983091,41.911892],[-4.976451,41.9136],[-4.975767,41.91798],[-4.977399,41.918528],[-4.973289,41.920166],[-4.971915,41.919379],[-4.967037,41.924669],[-4.957197,41.928277],[-4.95544,41.931153],[-4.949587,41.933829],[-4.943067,41.93121],[-4.942069,41.929732],[-4.932448,41.926652],[-4.928069,41.918999],[-4.930028,41.917975],[-4.929605,41.916352],[-4.927937,41.915029],[-4.916638,41.917839],[-4.915782,41.916232],[-4.911798,41.915659],[-4.899848,41.928241],[-4.889779,41.932785],[-4.873961,41.933044],[-4.869086,41.931728],[-4.86932,41.923213],[-4.867697,41.917601],[-4.863026,41.918281],[-4.860567,41.917474],[-4.859159,41.91511],[-4.855942,41.915594],[-4.857908,41.913104],[-4.856101,41.913187],[-4.838269,41.898533],[-4.832461,41.886809],[-4.832386,41.880398],[-4.828828,41.874402],[-4.822895,41.867444],[-4.813828,41.862995],[-4.809738,41.856386],[-4.80716,41.848248],[-4.801868,41.84127],[-4.799198,41.834098],[-4.795484,41.830022],[-4.793394,41.822048],[-4.788928,41.819497],[-4.789249,41.818024],[-4.770089,41.823121],[-4.769237,41.825854],[-4.758421,41.825786],[-4.755364,41.832435],[-4.748058,41.840553],[-4.72644,41.854516],[-4.732298,41.861777],[-4.731443,41.865366],[-4.728247,41.868827],[-4.717296,41.874305],[-4.701094,41.887282],[-4.685105,41.891606],[-4.677907,41.898007],[-4.678378,41.899865],[-4.669679,41.900505],[-4.658431,41.896813],[-4.658217,41.894592],[-4.651508,41.891509],[-4.643895,41.891249],[-4.639995,41.889576],[-4.639502,41.888223],[-4.637305,41.88811],[-4.63472,41.882689],[-4.636498,41.879124],[-4.633713,41.875768],[-4.635002,41.87103],[-4.633574,41.870816],[-4.631966,41.868227],[-4.629533,41.868271],[-4.632801,41.863163],[-4.626411,41.858246],[-4.626975,41.857193],[-4.624063,41.853983],[-4.618078,41.85123],[-4.615248,41.849352],[-4.611061,41.846204],[-4.60888,41.842326],[-4.60379,41.838641],[-4.59105,41.83681],[-4.583809,41.823995],[-4.566083,41.812574],[-4.567292,41.816232],[-4.564647,41.818376],[-4.553314,41.816269],[-4.54807,41.818988],[-4.545496,41.82612],[-4.550149,41.828822],[-4.549155,41.831015],[-4.54573,41.830827],[-4.54384,41.829357],[-4.529472,41.827766],[-4.520958,41.823178],[-4.512123,41.823303],[-4.509665,41.824263],[-4.509074,41.826262],[-4.505583,41.82683],[-4.505308,41.829986],[-4.50859,41.832311],[-4.503671,41.83207],[-4.499434,41.833206],[-4.491884,41.838411],[-4.484686,41.839135],[-4.479377,41.838194],[-4.478411,41.843332],[-4.475323,41.843101],[-4.475591,41.842188],[-4.473297,41.843028],[-4.471807,41.840552],[-4.471962,41.836785],[-4.474138,41.83347],[-4.473335,41.832048],[-4.478313,41.828589],[-4.461147,41.82036],[-4.467042,41.81961],[-4.468546,41.820635],[-4.474012,41.818539],[-4.479148,41.818302],[-4.483662,41.820342],[-4.487341,41.820096],[-4.493655,41.780358],[-4.4924,41.778654],[-4.501183,41.771406],[-4.497029,41.770208],[-4.484633,41.769532],[-4.454238,41.759166],[-4.446843,41.758215],[-4.442185,41.758652],[-4.421416,41.768133],[-4.403962,41.783173],[-4.394957,41.785192],[-4.389297,41.787774],[-4.383194,41.787163],[-4.380327,41.786459],[-4.382615,41.783711],[-4.37909,41.781502],[-4.353927,41.773983],[-4.344294,41.772457],[-4.341609,41.772975],[-4.337922,41.771541],[-4.333856,41.772146],[-4.329457,41.768856],[-4.31764,41.763444],[-4.317991,41.767646],[-4.315543,41.769728],[-4.313444,41.769464],[-4.30679,41.775925],[-4.304022,41.776488],[-4.291686,41.774565],[-4.286579,41.774883],[-4.278741,41.788598],[-4.269678,41.7934],[-4.260234,41.805258],[-4.256235,41.806374],[-4.24744,41.80293],[-4.236337,41.811444],[-4.236024,41.813969],[-4.232927,41.808121],[-4.213947,41.799407],[-4.194413,41.804034],[-4.191228,41.801725],[-4.186004,41.802401],[-4.178827,41.80352],[-4.170268,41.800194],[-4.16351,41.801244],[-4.153863,41.796216],[-4.150732,41.798869],[-4.135716,41.80326],[-4.123195,41.80731],[-4.117897,41.800274],[-4.110356,41.794366],[-4.108624,41.78534],[-4.104152,41.781357],[-4.099532,41.774394],[-4.096616,41.774809],[-4.089093,41.779628],[-4.083792,41.778561],[-4.071628,41.770623],[-4.064077,41.770198],[-4.063952,41.772135],[-4.061457,41.774734],[-4.055403,41.773925],[-4.048203,41.76992],[-4.040875,41.768356],[-4.044481,41.767432],[-4.049583,41.768205],[-4.052737,41.759485],[-4.055786,41.740687],[-4.063084,41.739143],[-4.069094,41.741167],[-4.076348,41.73484],[-4.074609,41.729317],[-4.076359,41.726085],[-4.068119,41.72655],[-4.060297,41.721722],[-4.05294,41.719565],[-4.049372,41.715302],[-4.042056,41.71109],[-4.0391,41.706685],[-4.026036,41.692383],[-4.02626,41.683005],[-4.024326,41.675465],[-4.024071,41.66692],[-4.025864,41.659545],[-4.027231,41.657119],[-4.028951,41.644431],[-4.030362,41.630494],[-4.034883,41.625644],[-4.035283,41.620623],[-4.032166,41.61713],[-4.028714,41.614405],[-4.022607,41.616044],[-4.01779,41.620365],[-4.012566,41.617151],[-4.00854,41.617636],[-4.005926,41.619362],[-4.00312,41.617197],[-4.003317,41.615962],[-4.004927,41.613732],[-4.008476,41.611963],[-4.008734,41.610033],[-3.992859,41.608658],[-3.992445,41.600438],[-3.990086,41.598396],[-3.985948,41.598539],[-3.984408,41.597489],[-3.984614,41.588877],[-3.98355,41.585968],[-3.980667,41.583371],[-3.980713,41.574526],[-3.982978,41.571976],[-3.985462,41.564947],[-3.993864,41.556012],[-3.993659,41.539449],[-3.993709,41.530973],[-3.994342,41.530832],[-3.995788,41.521146],[-3.999905,41.516102],[-4.005496,41.515711],[-4.006645,41.51716],[-4.010339,41.515813],[-4.011445,41.51756],[-4.018318,41.518697],[-4.0274,41.517797],[-4.036431,41.509951],[-4.042683,41.50976],[-4.048548,41.507878],[-4.051659,41.503157],[-4.056471,41.5006],[-4.058035,41.497316],[-4.065277,41.494745],[-4.074577,41.494973],[-4.081543,41.494584],[-4.100233,41.486858],[-4.108701,41.483273],[-4.122797,41.480371],[-4.136501,41.477003],[-4.142485,41.469935],[-4.144906,41.471443],[-4.158317,41.482099],[-4.168019,41.476065],[-4.178342,41.475392],[-4.197462,41.471096],[-4.227838,41.459967],[-4.233494,41.455736],[-4.234599,41.45658],[-4.24317,41.460892],[-4.248234,41.462089],[-4.258381,41.457376],[-4.260994,41.455023],[-4.2611,41.45059],[-4.265031,41.457014],[-4.270131,41.461273],[-4.274148,41.457896],[-4.283266,41.458821],[-4.287805,41.458248],[-4.290986,41.455024],[-4.294146,41.454979],[-4.30063,41.457716],[-4.319219,41.453316],[-4.320425,41.448429],[-4.327697,41.445751],[-4.327857,41.444786],[-4.33168,41.444976],[-4.337448,41.448971],[-4.346684,41.44808],[-4.348446,41.450509],[-4.357889,41.4492],[-4.362393,41.44993],[-4.36135,41.444664],[-4.364928,41.438884],[-4.364915,41.436002],[-4.367903,41.439218],[-4.372896,41.438699],[-4.376814,41.441733],[-4.379145,41.44157],[-4.381066,41.438439],[-4.388578,41.440492],[-4.388548,41.439052],[-4.390927,41.437816],[-4.393789,41.437853],[-4.39402,41.439688],[-4.401556,41.441146],[-4.407484,41.441848],[-4.415342,41.440445],[-4.417786,41.438866],[-4.418896,41.439834],[-4.425601,41.432789],[-4.430149,41.433876],[-4.431404,41.432699],[-4.431882,41.431044],[-4.434839,41.430521],[-4.43058,41.428971],[-4.431184,41.428144],[-4.436354,41.427034],[-4.440771,41.427637],[-4.443127,41.427013],[-4.443395,41.42564],[-4.44943,41.424699],[-4.450248,41.423266],[-4.453023,41.423753],[-4.453473,41.421397],[-4.454572,41.421869],[-4.455557,41.420398],[-4.457155,41.421774],[-4.458737,41.421357],[-4.459382,41.420223],[-4.463665,41.419133],[-4.462549,41.41685],[-4.465943,41.416636],[-4.465822,41.41444],[-4.46816,41.413077],[-4.473373,41.413442],[-4.474416,41.411943],[-4.477244,41.411627],[-4.482768,41.41198],[-4.484717,41.410369],[-4.483672,41.409113],[-4.484968,41.408754],[-4.489895,41.410248],[-4.495321,41.410007],[-4.495152,41.411504],[-4.498024,41.412025],[-4.500042,41.413935],[-4.501801,41.410859],[-4.514622,41.409619],[-4.516499,41.408522],[-4.514335,41.405984],[-4.515963,41.401414],[-4.515279,41.394091],[-4.484002,41.366801],[-4.484,41.365657],[-4.495904,41.363927],[-4.497288,41.360126],[-4.500052,41.357631],[-4.49944,41.35336],[-4.496991,41.351843],[-4.496688,41.349613],[-4.499429,41.347154],[-4.49981,41.350194],[-4.504474,41.347197],[-4.502303,41.346874],[-4.502245,41.342803],[-4.497437,41.335327],[-4.493911,41.32641],[-4.482279,41.326165],[-4.478179,41.323461],[-4.473887,41.322264],[-4.470255,41.31751],[-4.467787,41.295887],[-4.471464,41.291562],[-4.48168,41.294953],[-4.482642,41.297354],[-4.485881,41.298669],[-4.490289,41.301183],[-4.49341,41.300818],[-4.496182,41.302403],[-4.500065,41.300912],[-4.50538,41.311291],[-4.511239,41.31306],[-4.524281,41.320085],[-4.52863,41.321099],[-4.534023,41.319289],[-4.538819,41.313388],[-4.543585,41.31237],[-4.557498,41.302653],[-4.565266,41.30279],[-4.57678,41.308227],[-4.586694,41.317089],[-4.596851,41.320587],[-4.599771,41.316376],[-4.605151,41.31314],[-4.600966,41.307605],[-4.60198,41.302654],[-4.593395,41.296397],[-4.590205,41.291946],[-4.580537,41.288215],[-4.576528,41.284865],[-4.575292,41.279667],[-4.576626,41.277028],[-4.573883,41.275201],[-4.576391,41.273239],[-4.585514,41.27033],[-4.587882,41.270496],[-4.598675,41.264167],[-4.604011,41.255896],[-4.603298,41.254051],[-4.61253,41.244113],[-4.615172,41.241365],[-4.623936,41.234342],[-4.629114,41.232881],[-4.637256,41.227352],[-4.647817,41.224112],[-4.650863,41.22142],[-4.649189,41.219841],[-4.650154,41.218837],[-4.64846,41.216933],[-4.646502,41.208305],[-4.650625,41.200103],[-4.645378,41.19726],[-4.642661,41.194002],[-4.640435,41.193683],[-4.638362,41.189902],[-4.636352,41.190606],[-4.631928,41.184832],[-4.632043,41.182732],[-4.628423,41.176685],[-4.627753,41.170794],[-4.634186,41.168235],[-4.643695,41.1681],[-4.652713,41.172168],[-4.665914,41.180328],[-4.680561,41.185736],[-4.683009,41.184466],[-4.684438,41.18068],[-4.70234,41.174508],[-4.70895,41.166916],[-4.721336,41.156967],[-4.722101,41.149318],[-4.729003,41.150772],[-4.737395,41.150412],[-4.739156,41.148962],[-4.748925,41.149742],[-4.767078,41.142358],[-4.771394,41.144219],[-4.778755,41.144998],[-4.786187,41.143559],[-4.789007,41.139894],[-4.796127,41.135793],[-4.805843,41.135163],[-4.813523,41.129377],[-4.812273,41.126361],[-4.813392,41.12202],[-4.817047,41.116765],[-4.817543,41.109714],[-4.8189,41.107954],[-4.814965,41.103449],[-4.827957,41.099154],[-4.846558,41.10047],[-4.853206,41.099778],[-4.855555,41.100731],[-4.863677,41.094015],[-4.872109,41.097887],[-4.872658,41.099166],[-4.870248,41.100268],[-4.871763,41.100351],[-4.874566,41.103459],[-4.878941,41.105306],[-4.880942,41.104471],[-4.889775,41.109344],[-4.894111,41.113137],[-4.90188,41.114495],[-4.905016,41.118731],[-4.909019,41.118764],[-4.911847,41.119762],[-4.923826,41.124138],[-4.931017,41.129269],[-4.940812,41.132581],[-4.945142,41.137624],[-4.95081,41.140708],[-4.957992,41.13901],[-4.959817,41.13869],[-4.962969,41.140114],[-4.964687,41.149749],[-4.967611,41.152303],[-4.97735,41.151208],[-4.984543,41.152237],[-4.982574,41.154892],[-4.987719,41.155984],[-4.989736,41.160804],[-5.004446,41.158927],[-5.007058,41.160161],[-5.007494,41.161955],[-5.010939,41.161967],[-5.013858,41.164249],[-5.01437,41.163861],[-5.013914,41.162203],[-5.015587,41.162336],[-5.023914,41.156785],[-5.021788,41.15357],[-5.049682,41.142306],[-5.059862,41.13862],[-5.067991,41.138348],[-5.075995,41.139402],[-5.083539,41.142851],[-5.100129,41.147098],[-5.102312,41.142681],[-5.111443,41.135011],[-5.112988,41.136388]]],[[[-5.488407,41.995537],[-5.4841,41.996234],[-5.479087,41.99926],[-5.478454,42.004425],[-5.471728,42.00629],[-5.472808,42.01358],[-5.48767,42.025857],[-5.488265,42.029969],[-5.492708,42.033295],[-5.486508,42.038806],[-5.495846,42.045573],[-5.496218,42.049194],[-5.507746,42.057507],[-5.502869,42.062549],[-5.501587,42.066521],[-5.507642,42.075413],[-5.518393,42.084696],[-5.51795,42.090623],[-5.520893,42.097141],[-5.516732,42.09345],[-5.510413,42.092949],[-5.510221,42.091161],[-5.498465,42.083673],[-5.490925,42.075129],[-5.485162,42.06623],[-5.483365,42.059821],[-5.477095,42.056462],[-5.480926,42.052426],[-5.464212,42.043646],[-5.454638,42.040681],[-5.438677,42.031502],[-5.430494,42.035161],[-5.424774,42.035642],[-5.421589,42.030676],[-5.447438,42.013655],[-5.447809,42.01073],[-5.443098,42.011956],[-5.436381,42.009028],[-5.431456,42.004323],[-5.433467,41.99341],[-5.433519,41.983071],[-5.43828,41.96739],[-5.447034,41.972886],[-5.456159,41.975735],[-5.460803,41.974717],[-5.463124,41.975459],[-5.462787,41.977655],[-5.466982,41.978159],[-5.484805,41.984565],[-5.488407,41.995537]]],[[[-5.316763,42.249555],[-5.316443,42.241123],[-5.327299,42.238733],[-5.332837,42.23872],[-5.336257,42.233535],[-5.3356,42.230828],[-5.337114,42.230825],[-5.341318,42.232747],[-5.340574,42.246703],[-5.346043,42.25104],[-5.347172,42.25923],[-5.345409,42.262697],[-5.345343,42.267769],[-5.337193,42.269682],[-5.328506,42.274146],[-5.322061,42.267729],[-5.32032,42.267188],[-5.306439,42.271584],[-5.301758,42.269238],[-5.300684,42.26536],[-5.303929,42.256928],[-5.303325,42.251996],[-5.306093,42.249464],[-5.307231,42.249405],[-5.30905,42.252097],[-5.316763,42.249555]]]]}}
]
}
