{
"type": "FeatureCollection",
"name": "cod_prov_44",
"crs": { "type": "name", "properties": { "name": "urn:ogc:def:crs:OGC:1.3:CRS84" } },
"xy_coordinate_resolution": 1e-15,
"features": [
{"type":"Feature","properties":{"fid":1,"cod_ccaa":"02","provincia":"Teruel","cod_prov":"44"},"geometry":{"type":"MultiPolygon","coordinates":[[[[-1.431856,40.139266],[-1.448855,40.145342],[-1.442365,40.157597],[-1.442518,40.16532],[-1.439208,40.197014],[-1.474416,40.185042],[-1.507699,40.201899],[-1.510902,40.203715],[-1.5125,40.202664],[-1.522561,40.201928],[-1.531532,40.192907],[-1.540482,40.190804],[-1.567221,40.21248],[-1.571474,40.213668],[-1.579182,40.221574],[-1.582285,40.22663],[-1.584996,40.227951],[-1.592594,40.236251],[-1.60167,40.240749],[-1.603776,40.242972],[-1.608682,40.24277],[-1.617816,40.248627],[-1.629328,40.25962],[-1.63914,40.265853],[-1.645543,40.273253],[-1.658954,40.28203],[-1.665613,40.294549],[-1.679869,40.300784],[-1.688122,40.307815],[-1.691413,40.309861],[-1.700398,40.307071],[-1.71058,40.292059],[-1.710032,40.280675],[-1.71427,40.276794],[-1.717438,40.277847],[-1.719275,40.277102],[-1.723785,40.281845],[-1.726923,40.288249],[-1.729355,40.296591],[-1.72946,40.302907],[-1.723569,40.311419],[-1.720569,40.313251],[-1.720152,40.318507],[-1.70684,40.313602],[-1.697239,40.316558],[-1.697678,40.321292],[-1.702749,40.323223],[-1.703578,40.324782],[-1.70752,40.326682],[-1.720388,40.340897],[-1.730794,40.34475],[-1.7369,40.349439],[-1.741582,40.349679],[-1.74229,40.352777],[-1.744165,40.353239],[-1.744027,40.354345],[-1.749449,40.358539],[-1.750382,40.360963],[-1.753072,40.360668],[-1.753159,40.363642],[-1.75963,40.37236],[-1.764485,40.37543],[-1.767742,40.380933],[-1.767572,40.38313],[-1.773679,40.388077],[-1.775831,40.387686],[-1.77777,40.391877],[-1.783904,40.392762],[-1.786674,40.391368],[-1.789551,40.391902],[-1.789982,40.394853],[-1.788706,40.396344],[-1.790099,40.39753],[-1.795722,40.397408],[-1.802883,40.39887],[-1.806359,40.39823],[-1.803853,40.400682],[-1.804513,40.403986],[-1.802301,40.407107],[-1.800643,40.414216],[-1.796403,40.416712],[-1.796726,40.417742],[-1.7934,40.417852],[-1.785434,40.413183],[-1.783075,40.419789],[-1.777001,40.42976],[-1.769658,40.434835],[-1.77046,40.435492],[-1.765247,40.443329],[-1.759794,40.448081],[-1.758207,40.451046],[-1.7486,40.462897],[-1.735042,40.472028],[-1.709344,40.481545],[-1.700501,40.483103],[-1.692512,40.486824],[-1.695175,40.493701],[-1.695518,40.511334],[-1.696928,40.514098],[-1.697111,40.52291],[-1.699955,40.527834],[-1.701892,40.538216],[-1.701624,40.541096],[-1.689639,40.566491],[-1.693285,40.577648],[-1.685821,40.579906],[-1.6781,40.590952],[-1.67433,40.59217],[-1.66646,40.582044],[-1.653713,40.581959],[-1.63425,40.579794],[-1.629706,40.576064],[-1.602311,40.564565],[-1.598749,40.562054],[-1.587184,40.569408],[-1.582895,40.569455],[-1.555687,40.58599],[-1.54966,40.593113],[-1.545515,40.595195],[-1.553041,40.602398],[-1.555384,40.607183],[-1.564856,40.614742],[-1.556125,40.627146],[-1.551961,40.643093],[-1.538991,40.658091],[-1.540341,40.68134],[-1.538611,40.684732],[-1.535638,40.687019],[-1.538356,40.689359],[-1.543474,40.697216],[-1.551413,40.70555],[-1.553335,40.70588],[-1.552606,40.708961],[-1.554132,40.715583],[-1.558871,40.719264],[-1.560679,40.738105],[-1.562017,40.739752],[-1.555303,40.750081],[-1.539908,40.760733],[-1.540219,40.763836],[-1.542986,40.768429],[-1.542132,40.77712],[-1.539326,40.780823],[-1.540975,40.785042],[-1.539244,40.792641],[-1.542334,40.811219],[-1.544679,40.816194],[-1.553354,40.823482],[-1.553961,40.826661],[-1.556761,40.828804],[-1.559268,40.830763],[-1.562834,40.831519],[-1.569589,40.830072],[-1.573316,40.831586],[-1.588781,40.845027],[-1.592225,40.849862],[-1.593683,40.853258],[-1.596376,40.853849],[-1.603428,40.859817],[-1.607733,40.86558],[-1.611239,40.867586],[-1.620307,40.879486],[-1.625974,40.898678],[-1.615638,40.908139],[-1.611782,40.914263],[-1.607903,40.92762],[-1.611852,40.937558],[-1.617449,40.943733],[-1.589561,40.936216],[-1.583573,40.941826],[-1.575956,40.93858],[-1.571884,40.939601],[-1.562867,40.938552],[-1.557932,40.939329],[-1.524574,40.952211],[-1.515216,40.954649],[-1.508071,40.960646],[-1.505342,40.964124],[-1.472993,40.948801],[-1.47145,40.958004],[-1.456675,40.970446],[-1.446918,40.976539],[-1.447538,40.988104],[-1.459347,41.006765],[-1.464566,41.01041],[-1.470676,41.009474],[-1.471677,41.010415],[-1.476401,41.014936],[-1.457935,41.018357],[-1.440042,41.026169],[-1.433667,41.025659],[-1.422307,41.027161],[-1.414806,41.032463],[-1.41115,41.035097],[-1.413055,41.040978],[-1.416795,41.043768],[-1.404827,41.050629],[-1.410018,41.057906],[-1.405221,41.066307],[-1.397315,41.065945],[-1.389721,41.067956],[-1.382265,41.07204],[-1.378145,41.073072],[-1.371878,41.077172],[-1.360719,41.087931],[-1.355799,41.088528],[-1.355363,41.085477],[-1.352351,41.081669],[-1.3579,41.08019],[-1.359592,41.077701],[-1.360125,41.071592],[-1.355317,41.069659],[-1.35757,41.065683],[-1.356892,41.06379],[-1.353142,41.062368],[-1.355507,41.05869],[-1.354168,41.057527],[-1.345113,41.056056],[-1.343359,41.058606],[-1.341965,41.058686],[-1.339279,41.056629],[-1.339607,41.05449],[-1.334448,41.051443],[-1.329108,41.054645],[-1.324752,41.05514],[-1.322867,41.053905],[-1.322103,41.051192],[-1.319105,41.049797],[-1.310371,41.049822],[-1.303442,41.05227],[-1.299072,41.052376],[-1.296695,41.051819],[-1.292548,41.047938],[-1.287431,41.048862],[-1.2815,41.055926],[-1.270928,41.054777],[-1.263802,41.061488],[-1.253303,41.077327],[-1.256852,41.086703],[-1.270808,41.101092],[-1.27137,41.10328],[-1.267024,41.10552],[-1.2547,41.122575],[-1.249318,41.125618],[-1.23935,41.126836],[-1.22712,41.130224],[-1.215284,41.137517],[-1.209982,41.138804],[-1.199882,41.130828],[-1.192458,41.12701],[-1.177015,41.128054],[-1.173991,41.123692],[-1.166923,41.126408],[-1.154759,41.127709],[-1.156331,41.129031],[-1.121603,41.134928],[-1.121265,41.138859],[-1.113122,41.142761],[-1.117645,41.150851],[-1.11706,41.15548],[-1.108631,41.164683],[-1.105004,41.167704],[-1.100501,41.163918],[-1.096423,41.162734],[-1.093272,41.162457],[-1.086203,41.164132],[-1.059845,41.150981],[-1.044512,41.140832],[-1.039309,41.134718],[-1.034705,41.137269],[-1.026289,41.138215],[-1.012516,41.134673],[-1.000861,41.134011],[-0.985789,41.143756],[-0.980719,41.145117],[-0.972419,41.153456],[-0.984264,41.139081],[-0.986629,41.133457],[-0.991324,41.128351],[-0.992143,41.124141],[-1.000577,41.114704],[-0.998597,41.095232],[-0.995046,41.092567],[-0.989589,41.091139],[-0.981807,41.092164],[-0.963763,41.082749],[-0.960694,41.078056],[-0.957259,41.076347],[-0.944936,41.075317],[-0.937719,41.08343],[-0.912547,41.09301],[-0.915306,41.105157],[-0.901684,41.111854],[-0.900486,41.119173],[-0.89732,41.12171],[-0.8934,41.122485],[-0.890548,41.12563],[-0.890422,41.127681],[-0.893616,41.132496],[-0.891495,41.145148],[-0.889555,41.147283],[-0.885481,41.147244],[-0.883264,41.148762],[-0.886081,41.140833],[-0.883444,41.13538],[-0.883661,41.130115],[-0.876788,41.12199],[-0.871191,41.119365],[-0.871355,41.116504],[-0.859887,41.108013],[-0.828533,41.09642],[-0.817844,41.100253],[-0.811767,41.100768],[-0.81143,41.102302],[-0.808576,41.101473],[-0.799001,41.10329],[-0.78851,41.107907],[-0.791581,41.111506],[-0.783436,41.118204],[-0.783855,41.123427],[-0.782399,41.126002],[-0.784852,41.136273],[-0.783442,41.137461],[-0.779505,41.137989],[-0.781691,41.143823],[-0.780857,41.146995],[-0.776356,41.152556],[-0.769143,41.155451],[-0.764996,41.158614],[-0.76499,41.164045],[-0.761414,41.169659],[-0.750711,41.165433],[-0.749091,41.162978],[-0.746497,41.16182],[-0.745378,41.15724],[-0.73812,41.151018],[-0.735997,41.150733],[-0.734636,41.146644],[-0.731371,41.14494],[-0.727748,41.143905],[-0.72582,41.138004],[-0.722303,41.137718],[-0.72239,41.133495],[-0.71887,41.131588],[-0.715626,41.126885],[-0.713799,41.126318],[-0.715536,41.124668],[-0.708171,41.119648],[-0.704922,41.119557],[-0.696598,41.115436],[-0.693969,41.112295],[-0.680367,41.120803],[-0.675882,41.125378],[-0.67137,41.131024],[-0.672092,41.134182],[-0.670808,41.136804],[-0.668462,41.138135],[-0.665003,41.145955],[-0.646513,41.163196],[-0.640823,41.170969],[-0.630343,41.177644],[-0.624112,41.179858],[-0.621877,41.184288],[-0.609901,41.191677],[-0.611361,41.194815],[-0.612119,41.194282],[-0.622481,41.199216],[-0.628756,41.204434],[-0.639456,41.217633],[-0.660557,41.229683],[-0.668865,41.236264],[-0.668286,41.237407],[-0.663146,41.239408],[-0.651003,41.237964],[-0.642779,41.238362],[-0.625457,41.248175],[-0.628746,41.259816],[-0.627004,41.270355],[-0.627264,41.279997],[-0.629819,41.286248],[-0.631967,41.301801],[-0.62972,41.31176],[-0.605517,41.32221],[-0.605261,41.323314],[-0.574941,41.295199],[-0.54849,41.267744],[-0.542261,41.247003],[-0.538897,41.239015],[-0.531575,41.227806],[-0.514137,41.234627],[-0.509691,41.238278],[-0.506804,41.247069],[-0.506181,41.250253],[-0.508154,41.255816],[-0.527149,41.288218],[-0.535143,41.294722],[-0.54479,41.298927],[-0.544847,41.300594],[-0.552481,41.30309],[-0.566106,41.303487],[-0.578605,41.315595],[-0.58236,41.323897],[-0.581787,41.348121],[-0.581787,41.348123],[-0.56773,41.353914],[-0.558918,41.354304],[-0.553594,41.347092],[-0.550666,41.345499],[-0.546254,41.346821],[-0.546053,41.348049],[-0.545013,41.347396],[-0.543412,41.348967],[-0.539112,41.349224],[-0.535754,41.347927],[-0.530244,41.349197],[-0.522543,41.348372],[-0.521447,41.350465],[-0.510147,41.35406],[-0.50745,41.353298],[-0.50647,41.354222],[-0.502446,41.354118],[-0.502991,41.353319],[-0.50143,41.35304],[-0.492975,41.351108],[-0.479931,41.345934],[-0.477071,41.329308],[-0.474716,41.324077],[-0.470163,41.318249],[-0.459773,41.315993],[-0.45926,41.318432],[-0.456507,41.317038],[-0.443344,41.313008],[-0.42427,41.313528],[-0.424228,41.312176],[-0.420757,41.311738],[-0.423546,41.309171],[-0.426595,41.308473],[-0.424722,41.30509],[-0.426983,41.302871],[-0.425725,41.297799],[-0.42875,41.294066],[-0.419939,41.284934],[-0.41131,41.279084],[-0.405858,41.272359],[-0.400943,41.270762],[-0.398139,41.269519],[-0.385851,41.265439],[-0.381632,41.264677],[-0.377937,41.265457],[-0.37233,41.262997],[-0.358076,41.252969],[-0.339969,41.244212],[-0.339132,41.242175],[-0.337208,41.241385],[-0.330555,41.244453],[-0.323076,41.24556],[-0.322531,41.249842],[-0.32456,41.253644],[-0.323753,41.255283],[-0.318084,41.257611],[-0.313308,41.255633],[-0.278617,41.226799],[-0.272626,41.217975],[-0.268669,41.21501],[-0.246411,41.211921],[-0.243161,41.209789],[-0.230867,41.194472],[-0.225285,41.190005],[-0.222472,41.188856],[-0.216533,41.190307],[-0.216533,41.190308],[-0.205468,41.192011],[-0.19104,41.189312],[-0.180953,41.188144],[-0.150475,41.174244],[-0.132603,41.161498],[-0.1224,41.156641],[-0.1035,41.149619],[-0.094997,41.148981],[-0.083742,41.151272],[-0.078436,41.150552],[-0.070948,41.143706],[-0.053292,41.138644],[-0.043341,41.133958],[-0.038273,41.129045],[-0.025786,41.128084],[-0.012229,41.120249],[-0.007929,41.102178],[-0.000655,41.090406],[0.011357,41.078952],[0.013124,41.074655],[0.018995,41.068223],[0.024695,41.065363],[0.026135,41.061479],[0.036919,41.046569],[0.041027,41.048181],[0.046161,41.053223],[0.049614,41.053024],[0.051827,41.054821],[0.051015,41.059129],[0.055702,41.066291],[0.054671,41.068435],[0.057536,41.075051],[0.060796,41.076819],[0.072451,41.079427],[0.078635,41.080342],[0.093229,41.080104],[0.116989,41.077139],[0.126767,41.071759],[0.142276,41.065824],[0.145214,41.065294],[0.145856,41.063043],[0.168034,41.070918],[0.174714,41.070743],[0.18214,41.069025],[0.193928,41.069167],[0.196905,41.067968],[0.218248,41.072011],[0.220699,41.071429],[0.218937,41.069551],[0.217871,41.063799],[0.218802,41.061413],[0.222275,41.0592],[0.228773,41.058738],[0.230427,41.054621],[0.229008,41.052598],[0.21999,41.049194],[0.217771,41.046627],[0.217745,41.043655],[0.220744,41.041734],[0.226982,41.046693],[0.233105,41.047116],[0.234889,41.045408],[0.230487,41.040534],[0.230027,41.038187],[0.231059,41.035951],[0.234228,41.034583],[0.234251,41.034583],[0.242354,41.034886],[0.243519,41.040203],[0.245197,41.041426],[0.248101,41.039759],[0.251756,41.035008],[0.253977,41.032054],[0.262512,41.02667],[0.272575,41.025493],[0.280258,41.019795],[0.276394,41.018107],[0.272254,41.019261],[0.261958,41.019292],[0.259456,41.017264],[0.25866,41.01463],[0.262256,41.011132],[0.27059,41.009428],[0.274787,41.00631],[0.274578,41.004739],[0.269396,41.001888],[0.268388,40.998809],[0.271871,40.995936],[0.272834,40.992811],[0.281112,40.987162],[0.28235,40.982164],[0.281091,40.974896],[0.282923,40.972881],[0.290256,40.974103],[0.293405,40.970041],[0.28425,40.964656],[0.285358,40.960418],[0.283001,40.957694],[0.281184,40.951468],[0.275505,40.950729],[0.275903,40.947728],[0.27137,40.944227],[0.271849,40.941881],[0.274031,40.940621],[0.27462,40.936623],[0.267317,40.928995],[0.260535,40.928476],[0.253843,40.91965],[0.254238,40.911975],[0.250251,40.911529],[0.248545,40.909659],[0.249841,40.907272],[0.253471,40.906251],[0.249585,40.901569],[0.250023,40.895973],[0.245998,40.892547],[0.246009,40.887197],[0.241266,40.886781],[0.238909,40.884704],[0.24322,40.881367],[0.250413,40.879462],[0.25173,40.876561],[0.255404,40.87453],[0.253484,40.870216],[0.254266,40.866322],[0.251632,40.862676],[0.253384,40.859943],[0.250807,40.856251],[0.255765,40.853094],[0.255124,40.850906],[0.257616,40.848512],[0.255409,40.846314],[0.258895,40.846053],[0.259039,40.843194],[0.260454,40.842307],[0.259967,40.839142],[0.262316,40.838922],[0.261665,40.837257],[0.266319,40.833991],[0.266619,40.831154],[0.278226,40.821035],[0.272926,40.819826],[0.27227,40.818736],[0.272541,40.817251],[0.264951,40.813324],[0.258924,40.804524],[0.258103,40.799616],[0.250181,40.798521],[0.244747,40.792091],[0.233917,40.786992],[0.233157,40.779394],[0.234621,40.776165],[0.23084,40.773686],[0.229405,40.771222],[0.229968,40.767433],[0.223444,40.765553],[0.21199,40.767521],[0.208545,40.76315],[0.201514,40.7576],[0.196209,40.758603],[0.194669,40.754656],[0.190127,40.750323],[0.185,40.753086],[0.184091,40.755624],[0.183172,40.75374],[0.181264,40.753225],[0.177022,40.755171],[0.175223,40.754941],[0.176231,40.751004],[0.174002,40.748949],[0.176324,40.743256],[0.175358,40.741131],[0.16741,40.745069],[0.164551,40.748705],[0.159182,40.750609],[0.164815,40.743285],[0.164905,40.742445],[0.163142,40.742223],[0.164487,40.740115],[0.167498,40.739456],[0.167512,40.737249],[0.170724,40.732837],[0.168363,40.729489],[0.164657,40.727744],[0.164485,40.724372],[0.161844,40.722598],[0.143917,40.718252],[0.141347,40.718466],[0.123794,40.720798],[0.116525,40.725084],[0.111878,40.724705],[0.112501,40.727138],[0.072687,40.714308],[0.042175,40.691006],[0.036689,40.693448],[0.026438,40.694951],[0.025448,40.697138],[0.026837,40.700371],[0.025977,40.702276],[0.024205,40.702341],[0.024499,40.707269],[0.028365,40.713184],[0.024347,40.717243],[0.018736,40.719597],[0.016096,40.72326],[0.017918,40.725851],[0.016082,40.728187],[-0.002867,40.730689],[-0.009224,40.729936],[-0.01631,40.730588],[-0.017716,40.7312],[-0.022638,40.730211],[-0.02571,40.727165],[-0.028661,40.726286],[-0.031414,40.72243],[-0.043665,40.726203],[-0.053714,40.727884],[-0.055907,40.726733],[-0.064698,40.727407],[-0.079853,40.73334],[-0.086473,40.7382],[-0.092929,40.739227],[-0.095362,40.741549],[-0.100769,40.74301],[-0.102038,40.742708],[-0.107479,40.743394],[-0.110342,40.744826],[-0.112903,40.748313],[-0.12684,40.753317],[-0.133143,40.75796],[-0.138025,40.765899],[-0.142238,40.767111],[-0.143841,40.768691],[-0.147179,40.775124],[-0.145524,40.777803],[-0.144532,40.785443],[-0.164956,40.788631],[-0.166785,40.785749],[-0.170496,40.786272],[-0.197176,40.784456],[-0.19413,40.782202],[-0.201743,40.779532],[-0.200788,40.777176],[-0.202241,40.775014],[-0.205569,40.773356],[-0.205883,40.770941],[-0.210452,40.767377],[-0.210878,40.761992],[-0.212791,40.761282],[-0.212834,40.758274],[-0.216992,40.755727],[-0.224033,40.754158],[-0.227037,40.747997],[-0.226715,40.744063],[-0.230509,40.738542],[-0.229231,40.735683],[-0.231671,40.732806],[-0.23128,40.729103],[-0.233167,40.725852],[-0.237422,40.723441],[-0.239256,40.718045],[-0.236383,40.709654],[-0.233564,40.70855],[-0.23753,40.697936],[-0.23599,40.691108],[-0.250441,40.690768],[-0.257735,40.687763],[-0.260992,40.685093],[-0.267673,40.684044],[-0.278978,40.680132],[-0.288866,40.672322],[-0.293626,40.673965],[-0.299075,40.667643],[-0.306541,40.663783],[-0.306997,40.659497],[-0.316921,40.663619],[-0.320433,40.668366],[-0.322105,40.677719],[-0.326555,40.678263],[-0.328817,40.680279],[-0.336953,40.679197],[-0.344591,40.679617],[-0.356167,40.677694],[-0.359008,40.675561],[-0.370506,40.672284],[-0.369622,40.670102],[-0.371078,40.670973],[-0.372976,40.670242],[-0.370496,40.669248],[-0.371272,40.667852],[-0.377956,40.667536],[-0.381126,40.66423],[-0.381513,40.661582],[-0.379408,40.657039],[-0.370796,40.650772],[-0.37272,40.647546],[-0.37164,40.641919],[-0.376411,40.636353],[-0.376919,40.630636],[-0.378479,40.629429],[-0.379544,40.624886],[-0.37758,40.618888],[-0.370482,40.613592],[-0.364806,40.614867],[-0.362842,40.614318],[-0.360253,40.615511],[-0.344006,40.611202],[-0.343294,40.60652],[-0.33484,40.607496],[-0.334414,40.606315],[-0.3291,40.605616],[-0.324849,40.603157],[-0.322085,40.602841],[-0.317691,40.608098],[-0.312056,40.611282],[-0.302401,40.611534],[-0.299131,40.612917],[-0.294469,40.612168],[-0.293285,40.611041],[-0.294011,40.609455],[-0.29231,40.60474],[-0.295015,40.600084],[-0.293333,40.596379],[-0.295412,40.595238],[-0.293503,40.591879],[-0.295344,40.586383],[-0.294308,40.583953],[-0.295291,40.580959],[-0.299867,40.577328],[-0.298457,40.575088],[-0.299146,40.573231],[-0.29495,40.570385],[-0.295449,40.566191],[-0.29619,40.564524],[-0.296057,40.560485],[-0.292504,40.556646],[-0.294005,40.55397],[-0.290285,40.55309],[-0.292553,40.546649],[-0.290111,40.543953],[-0.292195,40.542047],[-0.292928,40.536759],[-0.29748,40.53129],[-0.301862,40.515963],[-0.300119,40.513805],[-0.297692,40.505768],[-0.290633,40.507584],[-0.287603,40.509558],[-0.281369,40.505538],[-0.277637,40.501532],[-0.274546,40.496577],[-0.274797,40.493881],[-0.27958,40.488211],[-0.27871,40.484939],[-0.279737,40.48345],[-0.274123,40.481678],[-0.271433,40.478498],[-0.272808,40.473676],[-0.276954,40.475863],[-0.278714,40.475211],[-0.279251,40.47272],[-0.281978,40.47382],[-0.285775,40.470063],[-0.287379,40.472397],[-0.290376,40.470612],[-0.290853,40.471344],[-0.295408,40.470415],[-0.293418,40.465928],[-0.297175,40.466934],[-0.297727,40.465524],[-0.300637,40.466772],[-0.309147,40.465728],[-0.320063,40.460811],[-0.332609,40.459048],[-0.338431,40.454976],[-0.338882,40.448924],[-0.342853,40.446593],[-0.342667,40.443526],[-0.3452,40.443566],[-0.345812,40.444805],[-0.347355,40.44394],[-0.34118,40.438195],[-0.332827,40.425536],[-0.328709,40.422081],[-0.314676,40.415757],[-0.307219,40.409188],[-0.301526,40.397733],[-0.295906,40.395385],[-0.285389,40.386492],[-0.283335,40.383399],[-0.282956,40.378472],[-0.280737,40.376834],[-0.280345,40.373988],[-0.281687,40.373398],[-0.280055,40.369495],[-0.28226,40.370285],[-0.283878,40.369008],[-0.283387,40.366853],[-0.281756,40.36613],[-0.282387,40.365091],[-0.285451,40.366496],[-0.289156,40.365439],[-0.289737,40.367966],[-0.298066,40.361703],[-0.304597,40.362693],[-0.308697,40.357627],[-0.311883,40.358935],[-0.313993,40.358579],[-0.31888,40.354999],[-0.320836,40.350505],[-0.323976,40.34792],[-0.327673,40.347303],[-0.328466,40.345421],[-0.331609,40.344818],[-0.332422,40.341522],[-0.336833,40.341011],[-0.337614,40.339399],[-0.340616,40.33999],[-0.342425,40.337708],[-0.341092,40.336281],[-0.343076,40.3343],[-0.341094,40.329021],[-0.34367,40.32727],[-0.343155,40.325411],[-0.346592,40.325085],[-0.34751,40.328097],[-0.349799,40.327951],[-0.348814,40.324235],[-0.349874,40.322728],[-0.348544,40.320635],[-0.353545,40.318227],[-0.35204,40.31758],[-0.352982,40.313368],[-0.354542,40.313494],[-0.353749,40.314512],[-0.35487,40.314727],[-0.359484,40.313193],[-0.363177,40.316565],[-0.364665,40.313707],[-0.368988,40.311779],[-0.369931,40.309612],[-0.367045,40.308186],[-0.366272,40.305052],[-0.370047,40.306615],[-0.369922,40.304693],[-0.372794,40.304047],[-0.373612,40.305101],[-0.371823,40.306646],[-0.372908,40.308707],[-0.376463,40.304995],[-0.379241,40.310129],[-0.384951,40.305494],[-0.387316,40.306097],[-0.387728,40.307295],[-0.39011,40.305637],[-0.389999,40.303329],[-0.391491,40.302471],[-0.389967,40.299878],[-0.392509,40.298647],[-0.394665,40.300389],[-0.395386,40.298775],[-0.393779,40.297739],[-0.397217,40.297366],[-0.400407,40.294853],[-0.390354,40.287997],[-0.382812,40.278323],[-0.385151,40.273458],[-0.38342,40.265302],[-0.388548,40.261608],[-0.428071,40.243803],[-0.434672,40.242382],[-0.451805,40.23532],[-0.463813,40.233864],[-0.463096,40.234506],[-0.46661,40.235763],[-0.469974,40.240133],[-0.477301,40.235276],[-0.488728,40.233281],[-0.494514,40.228732],[-0.501566,40.23319],[-0.510586,40.231781],[-0.527063,40.237936],[-0.544186,40.251659],[-0.547898,40.244262],[-0.559071,40.210105],[-0.557888,40.200838],[-0.560961,40.197363],[-0.56374,40.188647],[-0.57216,40.181474],[-0.570487,40.180304],[-0.571506,40.179721],[-0.571268,40.175852],[-0.574015,40.172604],[-0.573467,40.169178],[-0.569654,40.162846],[-0.570766,40.159987],[-0.569257,40.159163],[-0.570542,40.155406],[-0.573323,40.154438],[-0.575477,40.151654],[-0.574749,40.148694],[-0.579566,40.147263],[-0.579891,40.139748],[-0.578484,40.138061],[-0.580133,40.137231],[-0.586237,40.131575],[-0.590856,40.133707],[-0.596831,40.132345],[-0.598559,40.128588],[-0.604022,40.126747],[-0.606538,40.128285],[-0.609293,40.125703],[-0.628702,40.102095],[-0.613588,40.070013],[-0.615503,40.07025],[-0.618723,40.068353],[-0.623036,40.069414],[-0.623115,40.075235],[-0.627221,40.076202],[-0.629078,40.074709],[-0.63114,40.073769],[-0.631607,40.070428],[-0.63318,40.070388],[-0.634532,40.07264],[-0.635697,40.072187],[-0.635918,40.067507],[-0.637978,40.06963],[-0.638752,40.068285],[-0.640835,40.068733],[-0.641639,40.067533],[-0.64589,40.067683],[-0.664115,40.051441],[-0.679878,40.045677],[-0.683643,40.044203],[-0.702867,40.046603],[-0.713305,40.042225],[-0.715155,40.041937],[-0.715949,40.040268],[-0.718896,40.038713],[-0.724595,40.039312],[-0.726159,40.04127],[-0.730774,40.042442],[-0.745387,40.039304],[-0.747579,40.037878],[-0.753621,40.046608],[-0.758734,40.042248],[-0.762271,40.041262],[-0.762853,40.030274],[-0.765392,40.026818],[-0.764829,40.022168],[-0.766237,40.020664],[-0.767287,40.010027],[-0.774587,40.004231],[-0.777645,39.998407],[-0.789621,39.989916],[-0.800069,39.991331],[-0.808469,39.987977],[-0.809633,39.985629],[-0.816329,39.982414],[-0.82234,39.981545],[-0.824282,39.982347],[-0.834811,39.979337],[-0.837795,39.976808],[-0.838091,39.972264],[-0.841473,39.968958],[-0.838569,39.966742],[-0.835738,39.959995],[-0.839227,39.95552],[-0.844179,39.954018],[-0.846297,39.947697],[-0.839826,39.942072],[-0.836801,39.933332],[-0.836407,39.928361],[-0.840423,39.92495],[-0.837646,39.923583],[-0.833219,39.917428],[-0.832895,39.910999],[-0.829986,39.906783],[-0.824407,39.903066],[-0.817875,39.898826],[-0.812916,39.898084],[-0.804956,39.89242],[-0.801893,39.885084],[-0.797578,39.883245],[-0.797694,39.881067],[-0.808172,39.877392],[-0.814983,39.873512],[-0.821014,39.873193],[-0.828737,39.871149],[-0.838793,39.862545],[-0.844331,39.860405],[-0.848688,39.857161],[-0.856454,39.855503],[-0.857838,39.853853],[-0.857158,39.851679],[-0.85846,39.852261],[-0.858047,39.850515],[-0.863555,39.84741],[-0.86742,39.846778],[-0.870196,39.848829],[-0.874033,39.848341],[-0.879288,39.852284],[-0.888574,39.852111],[-0.889979,39.854316],[-0.895058,39.856778],[-0.908707,39.86652],[-0.912788,39.873052],[-0.908552,39.880489],[-0.908149,39.886031],[-0.903708,39.88787],[-0.900242,39.891834],[-0.902959,39.89709],[-0.909615,39.898607],[-0.907609,39.900733],[-0.912071,39.910146],[-0.911679,39.914202],[-0.913821,39.918006],[-0.912045,39.92256],[-0.90761,39.927957],[-0.905707,39.926301],[-0.903487,39.92618],[-0.902659,39.931849],[-0.904371,39.934781],[-0.904926,39.940367],[-0.906756,39.942563],[-0.906034,39.943955],[-0.910542,39.948135],[-0.911641,39.950849],[-0.917184,39.954885],[-0.915969,39.958656],[-0.920454,39.964403],[-0.924889,39.959068],[-0.931886,39.956077],[-0.93525,39.960199],[-0.944549,39.962833],[-0.949204,39.967267],[-0.953242,39.967311],[-0.96845,39.974471],[-0.976293,39.975743],[-0.984363,39.97846],[-0.987142,39.980725],[-0.991313,39.981833],[-0.999091,39.980148],[-1.00252,39.981829],[-1.025693,39.974596],[-1.056466,39.980359],[-1.071546,39.979657],[-1.085937,39.976328],[-1.086937,39.973218],[-1.084551,39.971854],[-1.0876,39.970427],[-1.092146,39.9678],[-1.100539,39.97337],[-1.105015,39.974975],[-1.107818,39.97184],[-1.107363,39.970085],[-1.109816,39.968999],[-1.112723,39.973137],[-1.114654,39.972763],[-1.116728,39.97185],[-1.119171,39.968178],[-1.123831,39.96602],[-1.121748,39.960851],[-1.128436,39.962887],[-1.131008,39.970739],[-1.133752,39.970621],[-1.136991,39.97207],[-1.142395,39.971841],[-1.147352,39.988596],[-1.163319,39.999823],[-1.165188,40.010096],[-1.15967,40.012261],[-1.153439,40.012621],[-1.146274,40.01675],[-1.139044,40.016346],[-1.136196,40.015093],[-1.134081,40.015752],[-1.116684,40.023759],[-1.107274,40.026299],[-1.097898,40.032677],[-1.084228,40.036208],[-1.076588,40.047838],[-1.071699,40.051594],[-1.072129,40.060484],[-1.07946,40.067038],[-1.078097,40.06879],[-1.082683,40.071254],[-1.105939,40.08851],[-1.11186,40.092805],[-1.117852,40.092866],[-1.12276,40.095694],[-1.133446,40.097407],[-1.135644,40.104118],[-1.14397,40.108585],[-1.147594,40.114264],[-1.149799,40.114732],[-1.157809,40.115301],[-1.160405,40.113874],[-1.165577,40.114857],[-1.174651,40.112955],[-1.186137,40.11255],[-1.191454,40.110724],[-1.201302,40.111003],[-1.208464,40.110385],[-1.216568,40.112771],[-1.221679,40.115651],[-1.233862,40.114613],[-1.236311,40.113389],[-1.24497,40.116142],[-1.250559,40.123325],[-1.250614,40.123921],[-1.24586,40.128065],[-1.248847,40.135606],[-1.246154,40.138556],[-1.247263,40.140149],[-1.244296,40.145969],[-1.245735,40.147081],[-1.252417,40.143299],[-1.276543,40.162219],[-1.276685,40.167275],[-1.282117,40.171193],[-1.284341,40.171497],[-1.287004,40.181896],[-1.296741,40.199229],[-1.293083,40.206922],[-1.298227,40.211683],[-1.297106,40.209522],[-1.300769,40.206387],[-1.310958,40.203906],[-1.314992,40.20137],[-1.322989,40.184856],[-1.322563,40.171634],[-1.317288,40.164116],[-1.317064,40.160815],[-1.31948,40.156184],[-1.316589,40.149656],[-1.319721,40.146395],[-1.33606,40.142153],[-1.339897,40.138875],[-1.347373,40.135523],[-1.354596,40.129473],[-1.357099,40.128887],[-1.36174,40.129637],[-1.363882,40.131839],[-1.363661,40.13861],[-1.371254,40.138645],[-1.376838,40.140282],[-1.384917,40.138197],[-1.389222,40.135329],[-1.393564,40.134363],[-1.400578,40.136595],[-1.404579,40.139173],[-1.411736,40.140803],[-1.422394,40.142345],[-1.431856,40.139266]]]]}}
]
}
