{
"type": "FeatureCollection",
"name": "cod_prov_40",
"crs": { "type": "name", "properties": { "name": "urn:ogc:def:crs:OGC:1.3:CRS84" } },
"xy_coordinate_resolution": 1e-15,
"features": [
{"type":"Feature","properties":{"fid":7,"cod_ccaa":"07","provincia":"Segovia","cod_prov":"40"},"geometry":{"type":"MultiPolygon","coordinates":[[[[-4.080594,40.77689],[-4.096249,40.765185],[-4.093987,40.758963],[-4.096961,40.747658],[-4.104112,40.746987],[-4.110649,40.743907],[-4.120783,40.735673],[-4.125536,40.729022],[-4.125733,40.724391],[-4.129827,40.723633],[-4.136117,40.717619],[-4.145192,40.697906],[-4.144765,40.695454],[-4.15068,40.692738],[-4.1571,40.69213],[-4.160277,40.689865],[-4.164669,40.693231],[-4.172267,40.692533],[-4.17706,40.693889],[-4.180203,40.696253],[-4.183702,40.698028],[-4.187617,40.695853],[-4.215485,40.692969],[-4.232336,40.688313],[-4.237253,40.688008],[-4.240503,40.689667],[-4.245419,40.689902],[-4.251414,40.68836],[-4.252903,40.689533],[-4.25854,40.68594],[-4.263304,40.68569],[-4.272217,40.68207],[-4.275011,40.676523],[-4.284401,40.682216],[-4.288125,40.683172],[-4.294298,40.676528],[-4.317407,40.666934],[-4.318605,40.661704],[-4.324773,40.657724],[-4.32341,40.652244],[-4.31971,40.647512],[-4.328138,40.647262],[-4.334961,40.639481],[-4.332632,40.63713],[-4.353361,40.637123],[-4.359426,40.638214],[-4.364709,40.637494],[-4.369459,40.636141],[-4.384861,40.63639],[-4.388591,40.634948],[-4.393972,40.633244],[-4.405135,40.634442],[-4.414601,40.633011],[-4.419623,40.633427],[-4.419251,40.654962],[-4.422107,40.675258],[-4.423428,40.675647],[-4.431906,40.704126],[-4.434684,40.706172],[-4.433864,40.709858],[-4.435662,40.71588],[-4.432329,40.717237],[-4.430219,40.728172],[-4.426887,40.729618],[-4.430521,40.736221],[-4.431127,40.742384],[-4.438724,40.749767],[-4.454452,40.754533],[-4.459888,40.758824],[-4.467069,40.769129],[-4.473838,40.774655],[-4.474633,40.77686],[-4.472654,40.782777],[-4.481155,40.78665],[-4.481395,40.791592],[-4.479959,40.795259],[-4.473178,40.800048],[-4.476831,40.803325],[-4.476889,40.807576],[-4.48611,40.81434],[-4.486833,40.820204],[-4.493218,40.830472],[-4.493772,40.833518],[-4.498694,40.833509],[-4.501596,40.830201],[-4.506587,40.831172],[-4.507971,40.829956],[-4.50882,40.831323],[-4.524621,40.825773],[-4.534639,40.828757],[-4.546388,40.825547],[-4.550839,40.82927],[-4.556708,40.836335],[-4.556621,40.838191],[-4.558919,40.839593],[-4.553643,40.849311],[-4.549858,40.853353],[-4.540172,40.854654],[-4.539742,40.855587],[-4.535932,40.855008],[-4.531567,40.858642],[-4.533592,40.864119],[-4.535604,40.865461],[-4.535313,40.872374],[-4.538589,40.87497],[-4.540854,40.874877],[-4.550895,40.879516],[-4.551917,40.882115],[-4.559565,40.885849],[-4.555308,40.893644],[-4.555177,40.901231],[-4.5564,40.903277],[-4.55245,40.907465],[-4.553162,40.908996],[-4.558639,40.912165],[-4.559276,40.916516],[-4.559466,40.938772],[-4.558358,40.940147],[-4.561894,40.940496],[-4.566822,40.945446],[-4.567761,40.945433],[-4.567888,40.950827],[-4.565062,40.952379],[-4.566352,40.956199],[-4.572356,40.955874],[-4.575583,40.960649],[-4.592951,40.965905],[-4.595955,40.965801],[-4.606748,40.970803],[-4.608861,40.973647],[-4.613485,40.988302],[-4.618237,40.99745],[-4.618039,41.000173],[-4.617248,41.003652],[-4.623594,41.006923],[-4.622786,41.009384],[-4.627232,41.016546],[-4.639531,41.030054],[-4.638289,41.031306],[-4.645081,41.031308],[-4.652779,41.034243],[-4.659645,41.040367],[-4.659589,41.04149],[-4.665644,41.04529],[-4.671656,41.046861],[-4.680112,41.050917],[-4.688021,41.052171],[-4.699255,41.051781],[-4.702046,41.052946],[-4.703223,41.052434],[-4.705411,41.054248],[-4.712719,41.062102],[-4.716512,41.071585],[-4.714979,41.07304],[-4.713465,41.083025],[-4.709061,41.085369],[-4.707149,41.088775],[-4.707346,41.089484],[-4.717149,41.089185],[-4.717884,41.090003],[-4.713344,41.091665],[-4.710029,41.099272],[-4.716064,41.104244],[-4.715716,41.10733],[-4.715123,41.110644],[-4.721445,41.116495],[-4.724652,41.123428],[-4.72381,41.128557],[-4.716721,41.132644],[-4.719949,41.134893],[-4.719653,41.140905],[-4.722101,41.149318],[-4.721336,41.156967],[-4.70895,41.166916],[-4.70234,41.174508],[-4.684438,41.18068],[-4.683009,41.184466],[-4.680561,41.185736],[-4.665914,41.180328],[-4.652713,41.172168],[-4.643695,41.1681],[-4.634186,41.168235],[-4.627753,41.170794],[-4.628423,41.176685],[-4.632043,41.182732],[-4.631928,41.184832],[-4.636352,41.190606],[-4.638362,41.189902],[-4.640435,41.193683],[-4.642661,41.194002],[-4.645378,41.19726],[-4.650625,41.200103],[-4.646502,41.208305],[-4.64846,41.216933],[-4.650154,41.218837],[-4.649189,41.219841],[-4.650863,41.22142],[-4.647817,41.224112],[-4.637256,41.227352],[-4.629114,41.232881],[-4.623936,41.234342],[-4.615172,41.241365],[-4.61253,41.244113],[-4.603298,41.254051],[-4.604011,41.255896],[-4.598675,41.264167],[-4.587882,41.270496],[-4.585514,41.27033],[-4.576391,41.273239],[-4.573883,41.275201],[-4.576626,41.277028],[-4.575292,41.279667],[-4.576528,41.284865],[-4.580537,41.288215],[-4.590205,41.291946],[-4.593395,41.296397],[-4.60198,41.302654],[-4.600966,41.307605],[-4.605151,41.31314],[-4.599771,41.316376],[-4.596851,41.320587],[-4.586694,41.317089],[-4.57678,41.308227],[-4.565266,41.30279],[-4.557498,41.302653],[-4.543585,41.31237],[-4.538819,41.313388],[-4.534023,41.319289],[-4.52863,41.321099],[-4.524281,41.320085],[-4.511239,41.31306],[-4.50538,41.311291],[-4.500065,41.300912],[-4.496182,41.302403],[-4.49341,41.300818],[-4.490289,41.301183],[-4.485881,41.298669],[-4.482642,41.297354],[-4.48168,41.294953],[-4.471464,41.291562],[-4.467787,41.295887],[-4.470255,41.31751],[-4.473887,41.322264],[-4.478179,41.323461],[-4.482279,41.326165],[-4.493911,41.32641],[-4.497437,41.335327],[-4.502245,41.342803],[-4.502303,41.346874],[-4.504474,41.347197],[-4.49981,41.350194],[-4.499429,41.347154],[-4.496688,41.349613],[-4.496991,41.351843],[-4.49944,41.35336],[-4.500052,41.357631],[-4.497288,41.360126],[-4.495904,41.363927],[-4.484,41.365657],[-4.484002,41.366801],[-4.515279,41.394091],[-4.515963,41.401414],[-4.514335,41.405984],[-4.516499,41.408522],[-4.514622,41.409619],[-4.501801,41.410859],[-4.500042,41.413935],[-4.498024,41.412025],[-4.495152,41.411504],[-4.495321,41.410007],[-4.489895,41.410248],[-4.484968,41.408754],[-4.483672,41.409113],[-4.484717,41.410369],[-4.482768,41.41198],[-4.477244,41.411627],[-4.474416,41.411943],[-4.473373,41.413442],[-4.46816,41.413077],[-4.465822,41.41444],[-4.465943,41.416636],[-4.462549,41.41685],[-4.463665,41.419133],[-4.459382,41.420223],[-4.458737,41.421357],[-4.457155,41.421774],[-4.455557,41.420398],[-4.454572,41.421869],[-4.453473,41.421397],[-4.453023,41.423753],[-4.450248,41.423266],[-4.44943,41.424699],[-4.443395,41.42564],[-4.443127,41.427013],[-4.440771,41.427637],[-4.436354,41.427034],[-4.431184,41.428144],[-4.43058,41.428971],[-4.434839,41.430521],[-4.431882,41.431044],[-4.431404,41.432699],[-4.430149,41.433876],[-4.425601,41.432789],[-4.418896,41.439834],[-4.417786,41.438866],[-4.415342,41.440445],[-4.407484,41.441848],[-4.401556,41.441146],[-4.39402,41.439688],[-4.393789,41.437853],[-4.390927,41.437816],[-4.388548,41.439052],[-4.388578,41.440492],[-4.381066,41.438439],[-4.379145,41.44157],[-4.376814,41.441733],[-4.372896,41.438699],[-4.367903,41.439218],[-4.364915,41.436002],[-4.364928,41.438884],[-4.36135,41.444664],[-4.362393,41.44993],[-4.357889,41.4492],[-4.348446,41.450509],[-4.346684,41.44808],[-4.337448,41.448971],[-4.33168,41.444976],[-4.327857,41.444786],[-4.327697,41.445751],[-4.320425,41.448429],[-4.319219,41.453316],[-4.30063,41.457716],[-4.294146,41.454979],[-4.290986,41.455024],[-4.287805,41.458248],[-4.283266,41.458821],[-4.274148,41.457896],[-4.270131,41.461273],[-4.265031,41.457014],[-4.2611,41.45059],[-4.260994,41.455023],[-4.258381,41.457376],[-4.248234,41.462089],[-4.24317,41.460892],[-4.234599,41.45658],[-4.233494,41.455736],[-4.227838,41.459967],[-4.197462,41.471096],[-4.178342,41.475392],[-4.168019,41.476065],[-4.158317,41.482099],[-4.144906,41.471443],[-4.142485,41.469935],[-4.136501,41.477003],[-4.122797,41.480371],[-4.108701,41.483273],[-4.100233,41.486858],[-4.081543,41.494584],[-4.074577,41.494973],[-4.065277,41.494745],[-4.058035,41.497316],[-4.056471,41.5006],[-4.051659,41.503157],[-4.048548,41.507878],[-4.042683,41.50976],[-4.036431,41.509951],[-4.0274,41.517797],[-4.018318,41.518697],[-4.011445,41.51756],[-4.010339,41.515813],[-4.006645,41.51716],[-4.005496,41.515711],[-3.999905,41.516102],[-3.995788,41.521146],[-3.994342,41.530832],[-3.993709,41.530973],[-3.993659,41.539449],[-3.993864,41.556012],[-3.985462,41.564947],[-3.982978,41.571976],[-3.980713,41.574526],[-3.980667,41.583371],[-3.979948,41.584188],[-3.972933,41.583617],[-3.963828,41.58608],[-3.960493,41.577975],[-3.953049,41.573434],[-3.942239,41.569136],[-3.933175,41.569381],[-3.924527,41.567713],[-3.9145,41.563451],[-3.905559,41.556965],[-3.894035,41.551794],[-3.891897,41.544569],[-3.886846,41.536457],[-3.885783,41.532303],[-3.882858,41.534028],[-3.875135,41.534745],[-3.867948,41.532475],[-3.863706,41.528967],[-3.85275,41.512557],[-3.842278,41.500618],[-3.835809,41.499773],[-3.834154,41.499641],[-3.828237,41.491325],[-3.823879,41.481133],[-3.816137,41.483674],[-3.800197,41.485866],[-3.795256,41.484468],[-3.787643,41.485863],[-3.794293,41.49096],[-3.798222,41.491924],[-3.800437,41.498583],[-3.796832,41.502625],[-3.802214,41.512487],[-3.804935,41.514485],[-3.805017,41.516286],[-3.804038,41.515572],[-3.799061,41.51821],[-3.800619,41.521145],[-3.804061,41.523246],[-3.80379,41.524572],[-3.799115,41.521623],[-3.796213,41.522472],[-3.792467,41.524957],[-3.784094,41.527311],[-3.780921,41.533574],[-3.773672,41.534893],[-3.766191,41.537924],[-3.771533,41.522343],[-3.769695,41.517941],[-3.770757,41.516592],[-3.769781,41.511077],[-3.76701,41.505772],[-3.770831,41.499604],[-3.768546,41.493747],[-3.770443,41.490086],[-3.770256,41.482386],[-3.771638,41.471658],[-3.769754,41.46015],[-3.763742,41.460145],[-3.757724,41.461518],[-3.750037,41.460541],[-3.744139,41.461057],[-3.739484,41.450783],[-3.729097,41.457622],[-3.732408,41.469887],[-3.723721,41.479201],[-3.72891,41.483654],[-3.728004,41.486173],[-3.726561,41.495405],[-3.728506,41.498951],[-3.728189,41.502772],[-3.724891,41.507846],[-3.728308,41.517633],[-3.717506,41.52378],[-3.709735,41.524504],[-3.706897,41.525854],[-3.706921,41.530241],[-3.699372,41.533917],[-3.691551,41.534531],[-3.689182,41.540589],[-3.681401,41.552029],[-3.675515,41.554441],[-3.671727,41.560426],[-3.669451,41.560673],[-3.661052,41.566072],[-3.658855,41.565895],[-3.645256,41.572097],[-3.626128,41.570004],[-3.616841,41.577152],[-3.608808,41.566115],[-3.604701,41.56557],[-3.600729,41.570472],[-3.572629,41.56539],[-3.571207,41.568685],[-3.574527,41.572461],[-3.570972,41.577423],[-3.566519,41.579949],[-3.562935,41.577426],[-3.552959,41.580735],[-3.546427,41.580082],[-3.541572,41.5776],[-3.543913,41.572068],[-3.536636,41.559483],[-3.536246,41.55726],[-3.538903,41.553816],[-3.538337,41.552008],[-3.534916,41.548656],[-3.524887,41.545099],[-3.51811,41.53877],[-3.507663,41.533493],[-3.501948,41.529177],[-3.48514,41.52406],[-3.479687,41.520903],[-3.464359,41.527784],[-3.45807,41.536844],[-3.456017,41.534708],[-3.451528,41.533852],[-3.451819,41.532518],[-3.440847,41.523283],[-3.432307,41.518712],[-3.424456,41.516715],[-3.420667,41.512693],[-3.422233,41.504635],[-3.426477,41.497783],[-3.424043,41.482723],[-3.413317,41.476114],[-3.403399,41.475978],[-3.390913,41.471031],[-3.384115,41.465658],[-3.381104,41.464795],[-3.367538,41.465064],[-3.366569,41.467337],[-3.364966,41.467549],[-3.362534,41.465233],[-3.363205,41.463195],[-3.362924,41.462142],[-3.360775,41.463311],[-3.356355,41.462973],[-3.348321,41.456494],[-3.34667,41.456841],[-3.347335,41.458055],[-3.346009,41.458474],[-3.335109,41.460109],[-3.334292,41.461868],[-3.330382,41.460717],[-3.339379,41.452287],[-3.340104,41.444458],[-3.346044,41.429019],[-3.341358,41.423314],[-3.342629,41.419058],[-3.341672,41.417017],[-3.346514,41.413859],[-3.348855,41.408681],[-3.34929,41.407194],[-3.347218,41.404534],[-3.347178,41.396995],[-3.35054,41.394868],[-3.341252,41.391536],[-3.335308,41.382402],[-3.329226,41.376267],[-3.305977,41.368314],[-3.302784,41.363053],[-3.288293,41.360225],[-3.281096,41.351938],[-3.272133,41.352734],[-3.269338,41.341544],[-3.248139,41.330098],[-3.236297,41.330285],[-3.236864,41.318529],[-3.224864,41.313814],[-3.220229,41.310562],[-3.208668,41.307755],[-3.206933,41.30675],[-3.207355,41.304236],[-3.212614,41.301524],[-3.215076,41.298412],[-3.226231,41.298111],[-3.238939,41.287943],[-3.237879,41.285495],[-3.240075,41.285049],[-3.239876,41.283014],[-3.237793,41.281469],[-3.237881,41.27937],[-3.254267,41.258383],[-3.263479,41.257732],[-3.269241,41.259971],[-3.272736,41.259314],[-3.274268,41.260265],[-3.273441,41.265051],[-3.275763,41.275035],[-3.279102,41.274009],[-3.283637,41.268062],[-3.287878,41.265934],[-3.290171,41.25793],[-3.297853,41.256955],[-3.302823,41.257726],[-3.306358,41.260573],[-3.312093,41.261665],[-3.317817,41.260533],[-3.323625,41.261742],[-3.329949,41.258787],[-3.330446,41.255543],[-3.336354,41.253031],[-3.345692,41.256003],[-3.355503,41.255955],[-3.369399,41.260416],[-3.372842,41.25918],[-3.37843,41.259495],[-3.394232,41.256983],[-3.399337,41.258164],[-3.406187,41.261797],[-3.409314,41.26166],[-3.409785,41.260623],[-3.412979,41.265493],[-3.415153,41.273196],[-3.414591,41.265578],[-3.410628,41.259944],[-3.405744,41.259592],[-3.399505,41.254542],[-3.400361,41.249945],[-3.397993,41.243252],[-3.400121,41.23992],[-3.403762,41.238187],[-3.406315,41.23417],[-3.402681,41.227391],[-3.404263,41.218765],[-3.40249,41.213618],[-3.409218,41.21182],[-3.414486,41.214792],[-3.419459,41.21645],[-3.425147,41.214222],[-3.433924,41.21564],[-3.444158,41.21534],[-3.448978,41.206719],[-3.453979,41.201952],[-3.460283,41.191037],[-3.466576,41.188796],[-3.468811,41.186237],[-3.466918,41.183263],[-3.470178,41.183872],[-3.473021,41.182923],[-3.474588,41.183719],[-3.481706,41.180347],[-3.486981,41.180992],[-3.493691,41.177513],[-3.500678,41.179096],[-3.507311,41.168753],[-3.50955,41.168599],[-3.513824,41.163238],[-3.51588,41.162445],[-3.52752,41.166212],[-3.539704,41.165011],[-3.550449,41.165701],[-3.558024,41.164397],[-3.569194,41.159508],[-3.582721,41.161421],[-3.590043,41.158289],[-3.591484,41.154545],[-3.598808,41.154341],[-3.600047,41.155383],[-3.604624,41.152259],[-3.613703,41.149053],[-3.614097,41.14736],[-3.61984,41.143168],[-3.633989,41.134886],[-3.634142,41.125816],[-3.634212,41.125761],[-3.64316,41.120634],[-3.64502,41.121292],[-3.646371,41.120023],[-3.652304,41.106476],[-3.672172,41.092002],[-3.676065,41.086697],[-3.679538,41.084231],[-3.687431,41.084942],[-3.69768,41.081877],[-3.706195,41.076861],[-3.715009,41.072405],[-3.715981,41.071639],[-3.721423,41.065033],[-3.725625,41.062502],[-3.73044,41.061453],[-3.739171,41.054053],[-3.739276,41.053863],[-3.739271,41.049771],[-3.743365,41.045376],[-3.748406,41.03664],[-3.7559,41.027849],[-3.759016,41.027097],[-3.766956,41.019019],[-3.767444,41.015877],[-3.770637,41.013184],[-3.781851,41.0002],[-3.784547,40.998957],[-3.803051,40.992371],[-3.809279,40.987994],[-3.814984,40.986287],[-3.821221,40.984789],[-3.830194,40.986406],[-3.835033,40.98426],[-3.839567,40.983812],[-3.843951,40.982532],[-3.844512,40.982368],[-3.847053,40.981222],[-3.847362,40.979421],[-3.859841,40.978984],[-3.868251,40.971743],[-3.87451,40.975009],[-3.880244,40.974662],[-3.880807,40.972959],[-3.88078,40.972786],[-3.890451,40.969058],[-3.89512,40.965556],[-3.898699,40.958322],[-3.904208,40.956544],[-3.907156,40.955149],[-3.909918,40.949763],[-3.912522,40.949183],[-3.911881,40.944697],[-3.917225,40.943151],[-3.920087,40.937727],[-3.921756,40.929951],[-3.929803,40.927048],[-3.937652,40.926456],[-3.937313,40.915932],[-3.942097,40.911642],[-3.945615,40.903559],[-3.952725,40.893475],[-3.948009,40.889082],[-3.94329,40.888652],[-3.942915,40.887277],[-3.943712,40.879028],[-3.94763,40.873338],[-3.94663,40.864753],[-3.957201,40.848181],[-3.962318,40.844309],[-3.963019,40.840322],[-3.96489,40.838451],[-3.965401,40.835257],[-3.962103,40.822097],[-3.967825,40.811924],[-3.974933,40.80745],[-3.975415,40.803896],[-3.979659,40.799843],[-3.978152,40.78733],[-3.979527,40.784494],[-3.984297,40.785897],[-3.989836,40.785515],[-4.002369,40.788434],[-4.008335,40.786972],[-4.014435,40.783201],[-4.021484,40.781265],[-4.032389,40.781592],[-4.036059,40.783502],[-4.042236,40.7838],[-4.047021,40.790298],[-4.069041,40.793212],[-4.070096,40.793867],[-4.076635,40.788878],[-4.080594,40.77689]]]]}}
]
}
