{
"type": "FeatureCollection",
"name": "cod_prov_37",
"crs": { "type": "name", "properties": { "name": "urn:ogc:def:crs:OGC:1.3:CRS84" } },
"xy_coordinate_resolution": 1e-15,
"features": [
{"type":"Feature","properties":{"fid":20,"cod_ccaa":"07","provincia":"Salamanca","cod_prov":"37"},"geometry":{"type":"MultiPolygon","coordinates":[[[[-6.823379,40.246048],[-6.822713,40.248214],[-6.832182,40.247504],[-6.837191,40.24859],[-6.839631,40.254723],[-6.839938,40.255595],[-6.844202,40.255525],[-6.846808,40.25443],[-6.865093,40.270634],[-6.861842,40.277965],[-6.863654,40.287883],[-6.863531,40.295209],[-6.862099,40.298769],[-6.846759,40.308052],[-6.839779,40.315021],[-6.835997,40.314516],[-6.832569,40.318592],[-6.825432,40.320135],[-6.823684,40.323344],[-6.819802,40.323788],[-6.816681,40.326233],[-6.810292,40.324994],[-6.801746,40.325356],[-6.797226,40.328261],[-6.794185,40.328793],[-6.790959,40.333816],[-6.793468,40.356086],[-6.789481,40.360351],[-6.780999,40.364672],[-6.784392,40.369956],[-6.794077,40.372583],[-6.800546,40.378944],[-6.803759,40.381829],[-6.809625,40.384355],[-6.809297,40.386896],[-6.812668,40.391324],[-6.821403,40.395601],[-6.828488,40.401518],[-6.831338,40.406277],[-6.834802,40.408152],[-6.841359,40.422731],[-6.845006,40.436271],[-6.849698,40.452577],[-6.840785,40.46786],[-6.836764,40.471379],[-6.835319,40.475399],[-6.822727,40.483751],[-6.819921,40.488148],[-6.817093,40.491097],[-6.817884,40.49506],[-6.81473,40.50163],[-6.810572,40.505091],[-6.80033,40.510075],[-6.796965,40.510249],[-6.79503,40.511916],[-6.797112,40.52287],[-6.802976,40.52972],[-6.80521,40.540597],[-6.800832,40.55063],[-6.804375,40.550864],[-6.805345,40.555056],[-6.807601,40.55445],[-6.820849,40.557569],[-6.830425,40.563142],[-6.844823,40.565878],[-6.840987,40.576425],[-6.837774,40.57972],[-6.837309,40.594703],[-6.820891,40.610089],[-6.812972,40.622311],[-6.805978,40.633366],[-6.799533,40.654355],[-6.793895,40.661682],[-6.805481,40.668685],[-6.802405,40.67718],[-6.802525,40.680337],[-6.806255,40.690777],[-6.805556,40.693034],[-6.807473,40.693673],[-6.806198,40.694958],[-6.807099,40.697891],[-6.810683,40.700771],[-6.813363,40.708544],[-6.811013,40.717322],[-6.817485,40.725555],[-6.824623,40.729677],[-6.824878,40.737008],[-6.828183,40.738078],[-6.830595,40.742555],[-6.828726,40.744229],[-6.831199,40.752639],[-6.82832,40.759426],[-6.82574,40.769138],[-6.827599,40.772427],[-6.828019,40.777249],[-6.824838,40.785387],[-6.819625,40.792819],[-6.819875,40.794495],[-6.816976,40.801174],[-6.817434,40.807715],[-6.823105,40.819342],[-6.822417,40.823264],[-6.824362,40.826153],[-6.823033,40.827783],[-6.823074,40.833851],[-6.822614,40.834506],[-6.82087,40.833258],[-6.820985,40.836496],[-6.82619,40.840394],[-6.826117,40.843242],[-6.824163,40.845153],[-6.822587,40.843107],[-6.821017,40.843636],[-6.81917,40.842248],[-6.816544,40.843397],[-6.812499,40.841928],[-6.811399,40.844036],[-6.80927,40.843512],[-6.807841,40.846099],[-6.80394,40.846327],[-6.802174,40.845088],[-6.800304,40.848275],[-6.801874,40.849385],[-6.801317,40.852708],[-6.804101,40.856588],[-6.802155,40.860713],[-6.805366,40.865398],[-6.804611,40.869206],[-6.80659,40.871842],[-6.807433,40.876623],[-6.80943,40.882663],[-6.819981,40.880864],[-6.823129,40.884415],[-6.830117,40.884823],[-6.834063,40.888014],[-6.838778,40.889505],[-6.848478,40.900835],[-6.849848,40.906643],[-6.849783,40.914309],[-6.84811,40.918201],[-6.849751,40.922325],[-6.849002,40.924556],[-6.854849,40.930971],[-6.85367,40.935612],[-6.857249,40.939761],[-6.857413,40.942367],[-6.858085,40.94311],[-6.860169,40.948902],[-6.867551,40.956931],[-6.876401,40.961181],[-6.887098,40.97178],[-6.891994,40.981494],[-6.903831,40.98936],[-6.908571,40.998952],[-6.918229,41.001469],[-6.921561,41.003337],[-6.924375,41.011472],[-6.929732,41.014802],[-6.931356,41.0177],[-6.929359,41.025909],[-6.930083,41.030072],[-6.91593,41.038857],[-6.908491,41.03775],[-6.902525,41.034611],[-6.877648,41.028185],[-6.865951,41.02684],[-6.859955,41.027816],[-6.853045,41.026975],[-6.833821,41.028698],[-6.808358,41.036478],[-6.807162,41.039039],[-6.809479,41.042699],[-6.808397,41.044779],[-6.801798,41.047915],[-6.790423,41.056747],[-6.786883,41.063257],[-6.780937,41.066424],[-6.778961,41.071605],[-6.774747,41.07385],[-6.772439,41.076772],[-6.773946,41.080225],[-6.770902,41.086098],[-6.763935,41.090811],[-6.76194,41.095487],[-6.757238,41.097982],[-6.753803,41.10329],[-6.758434,41.108083],[-6.761792,41.114961],[-6.770337,41.124444],[-6.77039,41.130773],[-6.767877,41.133467],[-6.767417,41.135211],[-6.759153,41.139002],[-6.751939,41.14076],[-6.74592,41.146756],[-6.739016,41.150627],[-6.738362,41.153999],[-6.730649,41.162309],[-6.71948,41.166894],[-6.709096,41.173561],[-6.706266,41.178956],[-6.701851,41.179936],[-6.698226,41.183492],[-6.696542,41.186401],[-6.69682,41.18922],[-6.699011,41.192986],[-6.692264,41.193851],[-6.689144,41.19921],[-6.688551,41.204363],[-6.691946,41.208324],[-6.685127,41.211965],[-6.680394,41.218583],[-6.670516,41.223851],[-6.664093,41.231207],[-6.659727,41.233993],[-6.655226,41.234353],[-6.652805,41.235645],[-6.649236,41.24589],[-6.647314,41.247806],[-6.642984,41.248258],[-6.635437,41.244067],[-6.629952,41.242619],[-6.619887,41.247673],[-6.615467,41.247803],[-6.608916,41.249738],[-6.605262,41.248394],[-6.603345,41.244996],[-6.599115,41.244237],[-6.596643,41.245926],[-6.594557,41.253574],[-6.59139,41.255456],[-6.588283,41.254292],[-6.58608,41.251758],[-6.586548,41.246133],[-6.58494,41.241834],[-6.58134,41.239487],[-6.571257,41.239027],[-6.56674,41.243057],[-6.551945,41.245253],[-6.546725,41.258148],[-6.530523,41.266644],[-6.525804,41.270319],[-6.521824,41.275998],[-6.516009,41.273303],[-6.511809,41.264218],[-6.501103,41.265112],[-6.497036,41.265605],[-6.478687,41.274961],[-6.47882,41.27701],[-6.489086,41.282156],[-6.491793,41.285676],[-6.489998,41.288739],[-6.484112,41.292997],[-6.479706,41.294346],[-6.479617,41.28954],[-6.477555,41.287576],[-6.465352,41.286215],[-6.454307,41.292077],[-6.450893,41.290054],[-6.445348,41.283854],[-6.436806,41.283506],[-6.423796,41.279697],[-6.420835,41.282902],[-6.416924,41.282766],[-6.413927,41.280927],[-6.415729,41.277029],[-6.414731,41.275977],[-6.40404,41.278816],[-6.400072,41.278726],[-6.391367,41.278921],[-6.382633,41.285716],[-6.372276,41.2863],[-6.365978,41.284566],[-6.363176,41.281388],[-6.354465,41.279148],[-6.348291,41.27514],[-6.347201,41.272497],[-6.334921,41.271629],[-6.330976,41.269402],[-6.326335,41.26805],[-6.317682,41.270894],[-6.311442,41.263401],[-6.30295,41.260916],[-6.296745,41.256438],[-6.288567,41.254709],[-6.282275,41.253944],[-6.277602,41.254752],[-6.274262,41.257171],[-6.268169,41.255606],[-6.267065,41.253818],[-6.254596,41.245445],[-6.251107,41.241744],[-6.238879,41.240098],[-6.234452,41.238395],[-6.233182,41.236836],[-6.23123,41.232812],[-6.225182,41.227731],[-6.210648,41.223274],[-6.205219,41.220301],[-6.199549,41.21972],[-6.193027,41.215128],[-6.191398,41.213994],[-6.175911,41.207965],[-6.163446,41.207408],[-6.143558,41.197785],[-6.1345,41.190386],[-6.12499,41.198228],[-6.12426,41.20294],[-6.12115,41.203727],[-6.109312,41.212613],[-6.100398,41.210242],[-6.09249,41.212499],[-6.083639,41.211206],[-6.074044,41.211318],[-6.069469,41.216772],[-6.065644,41.217631],[-6.062011,41.221051],[-6.058495,41.214705],[-6.04672,41.20901],[-6.040089,41.208222],[-6.02609,41.20335],[-6.021608,41.203404],[-6.008834,41.200497],[-6.010971,41.193785],[-6.018238,41.190263],[-6.023519,41.184819],[-6.023761,41.182057],[-6.0275,41.179122],[-6.028195,41.166522],[-6.023889,41.157367],[-6.020756,41.154559],[-6.016287,41.152974],[-6.009799,41.152063],[-6.002567,41.153134],[-5.985051,41.173341],[-5.979218,41.174573],[-5.976809,41.174023],[-5.974134,41.172597],[-5.971436,41.168803],[-5.972034,41.162258],[-5.964295,41.152128],[-5.963175,41.146041],[-5.955572,41.143634],[-5.953245,41.1401],[-5.951311,41.140267],[-5.945076,41.144182],[-5.947691,41.147763],[-5.944504,41.150294],[-5.933868,41.151457],[-5.936677,41.156727],[-5.936694,41.158717],[-5.931644,41.157693],[-5.930606,41.159556],[-5.932566,41.166072],[-5.926755,41.171822],[-5.925041,41.174549],[-5.922094,41.175831],[-5.915591,41.17433],[-5.914825,41.177214],[-5.913134,41.178337],[-5.915259,41.182444],[-5.913937,41.183802],[-5.916567,41.189067],[-5.917829,41.204859],[-5.921331,41.218154],[-5.917688,41.222074],[-5.916897,41.224949],[-5.913263,41.227986],[-5.913506,41.230772],[-5.908403,41.232198],[-5.897674,41.238593],[-5.891312,41.235835],[-5.876924,41.237204],[-5.869329,41.232702],[-5.865243,41.228201],[-5.86114,41.228484],[-5.856933,41.2264],[-5.855818,41.224617],[-5.850755,41.225058],[-5.843952,41.222227],[-5.835222,41.220344],[-5.808703,41.224471],[-5.804346,41.220767],[-5.795955,41.219522],[-5.790831,41.216016],[-5.778578,41.216781],[-5.767309,41.215702],[-5.764379,41.216088],[-5.75616,41.223733],[-5.751251,41.225859],[-5.734898,41.227645],[-5.732459,41.227226],[-5.714234,41.230782],[-5.701223,41.234385],[-5.694707,41.234348],[-5.678941,41.23187],[-5.670773,41.239617],[-5.667659,41.244318],[-5.662792,41.245809],[-5.655736,41.245153],[-5.638282,41.232495],[-5.634451,41.231871],[-5.628325,41.214457],[-5.619651,41.215601],[-5.6106,41.213843],[-5.60462,41.208016],[-5.58793,41.202439],[-5.571157,41.216316],[-5.565066,41.217037],[-5.562551,41.215238],[-5.555538,41.214016],[-5.549055,41.210476],[-5.543081,41.205285],[-5.539896,41.204653],[-5.525186,41.195826],[-5.518078,41.194865],[-5.514551,41.190889],[-5.513197,41.1851],[-5.506408,41.180277],[-5.49658,41.177329],[-5.488144,41.179331],[-5.485253,41.178853],[-5.486775,41.177487],[-5.487839,41.171583],[-5.488322,41.157882],[-5.485445,41.147982],[-5.486376,41.147395],[-5.484339,41.145502],[-5.4808,41.146777],[-5.479915,41.149831],[-5.476137,41.150786],[-5.477215,41.151546],[-5.474343,41.154094],[-5.473366,41.153467],[-5.469829,41.157947],[-5.471487,41.158947],[-5.470987,41.161192],[-5.475557,41.168614],[-5.475036,41.175669],[-5.476877,41.178322],[-5.457941,41.18234],[-5.448994,41.182819],[-5.443099,41.185241],[-5.426373,41.187531],[-5.418103,41.18766],[-5.413063,41.185811],[-5.407595,41.185592],[-5.402983,41.176538],[-5.404255,41.175782],[-5.403012,41.174709],[-5.402602,41.170025],[-5.398022,41.166689],[-5.396579,41.163044],[-5.399981,41.159605],[-5.401854,41.149208],[-5.400714,41.147025],[-5.400191,41.145432],[-5.396616,41.145102],[-5.391086,41.142109],[-5.386963,41.135854],[-5.385436,41.136462],[-5.383774,41.134326],[-5.370753,41.138305],[-5.362006,41.1389],[-5.356987,41.140822],[-5.352683,41.133398],[-5.347705,41.133455],[-5.340773,41.123445],[-5.332547,41.124576],[-5.329806,41.122533],[-5.328794,41.121193],[-5.331849,41.117979],[-5.32895,41.117173],[-5.316047,41.119099],[-5.297858,41.125877],[-5.295114,41.133948],[-5.292191,41.146129],[-5.290595,41.146837],[-5.293071,41.14985],[-5.291508,41.151511],[-5.298622,41.162763],[-5.291698,41.16962],[-5.292275,41.172815],[-5.287961,41.177323],[-5.289261,41.178018],[-5.288744,41.181991],[-5.291588,41.183889],[-5.290415,41.186489],[-5.291898,41.187315],[-5.288467,41.195615],[-5.282846,41.196159],[-5.282557,41.195048],[-5.278919,41.196723],[-5.278167,41.195676],[-5.273974,41.19719],[-5.270599,41.195465],[-5.269668,41.19578],[-5.27189,41.197961],[-5.268619,41.199251],[-5.264174,41.197258],[-5.255613,41.197633],[-5.252968,41.199774],[-5.247796,41.198146],[-5.248658,41.196157],[-5.244364,41.196114],[-5.242503,41.197141],[-5.238827,41.193889],[-5.234747,41.193149],[-5.234606,41.192161],[-5.229257,41.189842],[-5.229623,41.188321],[-5.227613,41.186712],[-5.228367,41.183275],[-5.224943,41.181459],[-5.22449,41.179342],[-5.225711,41.178444],[-5.223617,41.178215],[-5.224597,41.176529],[-5.222273,41.170558],[-5.217344,41.167554],[-5.222406,41.162152],[-5.21822,41.159584],[-5.207928,41.166834],[-5.207137,41.164931],[-5.200501,41.166454],[-5.196374,41.163155],[-5.191262,41.162109],[-5.185063,41.166721],[-5.181642,41.166002],[-5.179658,41.167292],[-5.176646,41.16525],[-5.178603,41.164592],[-5.177911,41.163137],[-5.174557,41.163335],[-5.174513,41.161291],[-5.166089,41.160261],[-5.161634,41.156724],[-5.160089,41.157212],[-5.148679,41.151247],[-5.148577,41.149934],[-5.145616,41.149016],[-5.145082,41.14763],[-5.142209,41.147233],[-5.13617,41.144004],[-5.136447,41.14117],[-5.131804,41.136852],[-5.132352,41.136121],[-5.128292,41.133638],[-5.12855,41.132381],[-5.124929,41.132043],[-5.129165,41.105375],[-5.139512,41.099824],[-5.140413,41.096772],[-5.143449,41.097121],[-5.148586,41.092153],[-5.151399,41.085336],[-5.150122,41.083765],[-5.152264,41.081933],[-5.150345,41.079293],[-5.152992,41.063742],[-5.152553,41.061958],[-5.14917,41.05931],[-5.149265,41.055282],[-5.146956,41.054163],[-5.148327,41.048022],[-5.145309,41.0467],[-5.146543,41.043641],[-5.141397,41.040512],[-5.142188,41.038867],[-5.140791,41.037245],[-5.137947,41.039405],[-5.131314,41.03625],[-5.115644,41.032827],[-5.111842,41.030357],[-5.106605,41.029498],[-5.107927,41.026952],[-5.10473,41.025911],[-5.10375,41.026506],[-5.105261,41.023154],[-5.101995,41.0218],[-5.103014,41.017214],[-5.100125,41.016862],[-5.100984,41.014315],[-5.099633,41.014475],[-5.099503,41.012991],[-5.095654,41.010134],[-5.096346,41.009436],[-5.092021,41.00693],[-5.092956,41.003391],[-5.091146,41.002568],[-5.092697,41.001991],[-5.090918,41.000609],[-5.092003,40.998472],[-5.089841,40.996629],[-5.091575,40.994319],[-5.099639,40.989569],[-5.099354,40.987313],[-5.096395,40.984728],[-5.097522,40.980159],[-5.096471,40.978485],[-5.098069,40.977149],[-5.106413,40.963369],[-5.104841,40.960254],[-5.108696,40.960418],[-5.108679,40.958373],[-5.116675,40.954281],[-5.121214,40.956162],[-5.1276,40.954116],[-5.128171,40.948575],[-5.127778,40.947799],[-5.125908,40.948779],[-5.123285,40.948467],[-5.12309,40.945363],[-5.124933,40.943555],[-5.118206,40.933032],[-5.12159,40.93151],[-5.12093,40.930198],[-5.116102,40.930764],[-5.11482,40.929293],[-5.117415,40.927615],[-5.114739,40.926385],[-5.116961,40.924182],[-5.112072,40.918714],[-5.113271,40.917566],[-5.111216,40.914929],[-5.114594,40.913624],[-5.112639,40.912263],[-5.117012,40.904563],[-5.115527,40.902293],[-5.121553,40.901038],[-5.123224,40.902422],[-5.127129,40.90017],[-5.130054,40.900323],[-5.135048,40.89652],[-5.133965,40.895315],[-5.138852,40.89372],[-5.13964,40.892021],[-5.136941,40.891134],[-5.139497,40.889808],[-5.140161,40.88757],[-5.144181,40.885973],[-5.145504,40.88321],[-5.149427,40.881588],[-5.149016,40.877317],[-5.152031,40.876243],[-5.152539,40.873973],[-5.15765,40.870923],[-5.157196,40.870111],[-5.163808,40.868384],[-5.162621,40.868001],[-5.16337,40.865492],[-5.163617,40.863947],[-5.161544,40.862247],[-5.164228,40.856847],[-5.163013,40.8545],[-5.164876,40.851979],[-5.165598,40.843192],[-5.168957,40.839995],[-5.166833,40.834495],[-5.163888,40.834388],[-5.163933,40.831009],[-5.161099,40.829567],[-5.161869,40.828093],[-5.157471,40.824113],[-5.158676,40.820299],[-5.161681,40.817909],[-5.161507,40.814003],[-5.164739,40.812781],[-5.165925,40.813524],[-5.166785,40.811175],[-5.177629,40.805269],[-5.180563,40.797467],[-5.178276,40.796393],[-5.179554,40.79309],[-5.184412,40.788693],[-5.189915,40.78558],[-5.208543,40.779108],[-5.218992,40.772972],[-5.217033,40.770703],[-5.214437,40.757827],[-5.226734,40.753609],[-5.232204,40.748585],[-5.248288,40.743643],[-5.250645,40.741219],[-5.255051,40.739457],[-5.253798,40.734275],[-5.257195,40.736335],[-5.262407,40.73045],[-5.277088,40.723784],[-5.279356,40.720181],[-5.289726,40.714283],[-5.292844,40.710266],[-5.307616,40.705801],[-5.313079,40.703593],[-5.320302,40.703007],[-5.321784,40.703067],[-5.322081,40.705475],[-5.328755,40.705422],[-5.33027,40.701365],[-5.337069,40.69948],[-5.332993,40.697653],[-5.332083,40.694644],[-5.337162,40.689272],[-5.341706,40.68691],[-5.347507,40.686324],[-5.34924,40.687135],[-5.355811,40.682885],[-5.359837,40.682622],[-5.364776,40.679432],[-5.366104,40.679179],[-5.368499,40.680977],[-5.377699,40.677833],[-5.380575,40.671559],[-5.385457,40.671449],[-5.387001,40.669282],[-5.385807,40.663344],[-5.384126,40.661649],[-5.381489,40.659343],[-5.374547,40.656379],[-5.365892,40.648774],[-5.376005,40.646458],[-5.377595,40.644957],[-5.378418,40.64549],[-5.373167,40.638806],[-5.381747,40.630694],[-5.379464,40.629327],[-5.379175,40.627198],[-5.380664,40.626501],[-5.382954,40.620761],[-5.384465,40.622017],[-5.386607,40.619748],[-5.39245,40.618853],[-5.396775,40.614196],[-5.402989,40.608816],[-5.407378,40.609922],[-5.408619,40.608932],[-5.412111,40.610409],[-5.414346,40.609768],[-5.419373,40.607897],[-5.422728,40.60525],[-5.424173,40.597501],[-5.429428,40.595751],[-5.433577,40.590916],[-5.438786,40.588915],[-5.440905,40.590005],[-5.442956,40.586944],[-5.446187,40.585786],[-5.447651,40.579594],[-5.455983,40.579047],[-5.461545,40.577362],[-5.464377,40.57759],[-5.464289,40.579708],[-5.466797,40.580438],[-5.472779,40.579914],[-5.475305,40.581148],[-5.485672,40.58161],[-5.487789,40.583267],[-5.492091,40.583003],[-5.495761,40.581275],[-5.499659,40.581587],[-5.498906,40.589908],[-5.500861,40.597351],[-5.505894,40.590036],[-5.510077,40.590369],[-5.513205,40.586824],[-5.516223,40.58538],[-5.517324,40.582915],[-5.516794,40.577297],[-5.51657,40.567222],[-5.52103,40.560495],[-5.525546,40.557451],[-5.529179,40.552327],[-5.529149,40.550598],[-5.526088,40.548648],[-5.526495,40.541559],[-5.524693,40.540734],[-5.517485,40.54562],[-5.508169,40.548795],[-5.498752,40.551837],[-5.494012,40.55202],[-5.481585,40.55672],[-5.467334,40.560034],[-5.460612,40.559339],[-5.448987,40.561496],[-5.438047,40.566285],[-5.431077,40.567234],[-5.428508,40.564469],[-5.425556,40.55664],[-5.429804,40.551966],[-5.433235,40.534211],[-5.43477,40.530972],[-5.439741,40.52676],[-5.442217,40.526347],[-5.446992,40.520022],[-5.448046,40.509425],[-5.450598,40.503011],[-5.450313,40.497459],[-5.452361,40.494092],[-5.461954,40.491186],[-5.462859,40.48723],[-5.461802,40.4851],[-5.460454,40.47404],[-5.467725,40.467093],[-5.465547,40.465915],[-5.469374,40.462221],[-5.478056,40.460017],[-5.482555,40.456678],[-5.48633,40.458299],[-5.489044,40.457385],[-5.494954,40.459347],[-5.500397,40.458905],[-5.508033,40.462856],[-5.509832,40.463664],[-5.509427,40.459124],[-5.51792,40.452877],[-5.520257,40.447881],[-5.519674,40.446497],[-5.513174,40.445134],[-5.510631,40.442055],[-5.509609,40.43742],[-5.510881,40.435159],[-5.51111,40.428029],[-5.512571,40.42452],[-5.514863,40.423389],[-5.52228,40.423795],[-5.525927,40.422364],[-5.534233,40.422588],[-5.538949,40.424493],[-5.544754,40.423095],[-5.553294,40.432617],[-5.56043,40.438323],[-5.565313,40.44116],[-5.574603,40.44425],[-5.573157,40.448075],[-5.570682,40.456453],[-5.566655,40.457227],[-5.561061,40.46145],[-5.559708,40.463398],[-5.560131,40.466758],[-5.560208,40.468467],[-5.563227,40.470328],[-5.56423,40.472504],[-5.560925,40.477099],[-5.569609,40.477455],[-5.5751,40.476387],[-5.5898,40.467249],[-5.609775,40.46807],[-5.622765,40.465758],[-5.626432,40.46272],[-5.634174,40.460445],[-5.640836,40.451402],[-5.643725,40.446274],[-5.656556,40.436801],[-5.670794,40.43196],[-5.674943,40.427207],[-5.683755,40.424417],[-5.69119,40.421993],[-5.691878,40.419446],[-5.687568,40.415682],[-5.686828,40.413384],[-5.685455,40.396356],[-5.67844,40.387015],[-5.682872,40.379653],[-5.687014,40.37571],[-5.687366,40.362037],[-5.685115,40.357856],[-5.686359,40.355368],[-5.679126,40.350834],[-5.673031,40.348534],[-5.682097,40.346189],[-5.686015,40.343756],[-5.688328,40.338559],[-5.690073,40.337735],[-5.700888,40.333835],[-5.714318,40.325305],[-5.729074,40.310357],[-5.728836,40.303877],[-5.73756,40.294123],[-5.744382,40.288863],[-5.757907,40.282452],[-5.764989,40.280779],[-5.776699,40.28239],[-5.793143,40.286705],[-5.797275,40.292793],[-5.802734,40.297633],[-5.793301,40.300257],[-5.789324,40.306514],[-5.781991,40.312456],[-5.784526,40.323465],[-5.790049,40.333546],[-5.794958,40.351226],[-5.797514,40.353245],[-5.799651,40.353698],[-5.808459,40.350025],[-5.816486,40.351109],[-5.823164,40.347496],[-5.828315,40.341164],[-5.836802,40.33639],[-5.847127,40.328047],[-5.853674,40.33148],[-5.849932,40.338201],[-5.852308,40.337044],[-5.853553,40.337545],[-5.854977,40.338374],[-5.857798,40.334368],[-5.86763,40.331404],[-5.874066,40.326642],[-5.884244,40.326605],[-5.890631,40.322122],[-5.893459,40.318628],[-5.892301,40.311901],[-5.907802,40.290354],[-5.913978,40.287082],[-5.917173,40.277697],[-5.920839,40.280901],[-5.937782,40.281067],[-5.941667,40.284418],[-5.964947,40.291488],[-5.966134,40.289873],[-5.968485,40.28956],[-5.975642,40.293168],[-5.978879,40.296976],[-5.982442,40.298262],[-5.992144,40.299011],[-6.00532,40.305371],[-6.010264,40.312331],[-6.016428,40.316521],[-6.019584,40.322644],[-6.016016,40.340292],[-6.027683,40.339528],[-6.036607,40.342203],[-6.045669,40.342946],[-6.052163,40.34155],[-6.062947,40.346002],[-6.072268,40.348277],[-6.105715,40.356795],[-6.103018,40.358561],[-6.097289,40.356355],[-6.092459,40.361717],[-6.090352,40.362242],[-6.085579,40.360856],[-6.08212,40.363489],[-6.081262,40.373095],[-6.086368,40.375048],[-6.086328,40.378031],[-6.083623,40.380174],[-6.076299,40.381261],[-6.072155,40.387001],[-6.082162,40.387914],[-6.085077,40.389314],[-6.085166,40.390491],[-6.083357,40.392404],[-6.076669,40.390664],[-6.074192,40.395783],[-6.069574,40.396284],[-6.06663,40.395011],[-6.064957,40.396316],[-6.068156,40.399303],[-6.073891,40.400808],[-6.075152,40.403404],[-6.082943,40.402953],[-6.085789,40.407732],[-6.087731,40.408725],[-6.091882,40.408019],[-6.093028,40.411438],[-6.098489,40.413598],[-6.104164,40.41504],[-6.107098,40.414006],[-6.117237,40.415399],[-6.117977,40.415856],[-6.118878,40.419291],[-6.12232,40.419054],[-6.123895,40.420731],[-6.126991,40.419639],[-6.129483,40.420787],[-6.125537,40.426154],[-6.124171,40.430505],[-6.11929,40.435078],[-6.117048,40.435282],[-6.116126,40.441585],[-6.120184,40.442682],[-6.132305,40.436887],[-6.134269,40.437302],[-6.140448,40.435576],[-6.147016,40.436118],[-6.147526,40.438473],[-6.155934,40.447844],[-6.152464,40.45256],[-6.154491,40.45454],[-6.157729,40.456973],[-6.169221,40.458126],[-6.180438,40.462195],[-6.1862,40.465846],[-6.187721,40.471325],[-6.19124,40.472156],[-6.198686,40.481434],[-6.201373,40.482881],[-6.213201,40.482805],[-6.220885,40.484888],[-6.223917,40.484398],[-6.230475,40.486601],[-6.234639,40.48661],[-6.240963,40.485163],[-6.255022,40.469997],[-6.263227,40.471629],[-6.264793,40.470865],[-6.268443,40.467564],[-6.271007,40.46088],[-6.275326,40.458515],[-6.287837,40.457565],[-6.294426,40.451965],[-6.315677,40.449915],[-6.322364,40.450452],[-6.325307,40.447729],[-6.334762,40.447501],[-6.344643,40.442775],[-6.345939,40.437054],[-6.365551,40.422371],[-6.365805,40.41732],[-6.361454,40.415366],[-6.363002,40.411674],[-6.361866,40.407086],[-6.363005,40.407214],[-6.376309,40.400188],[-6.383532,40.400697],[-6.392151,40.398958],[-6.396397,40.399293],[-6.40409,40.402101],[-6.419169,40.399287],[-6.421872,40.397064],[-6.424699,40.391504],[-6.439989,40.381575],[-6.441468,40.378],[-6.438606,40.372813],[-6.450241,40.370868],[-6.463213,40.372839],[-6.474719,40.370116],[-6.485845,40.363242],[-6.493435,40.362013],[-6.516378,40.354238],[-6.536284,40.347244],[-6.56041,40.329049],[-6.563001,40.316793],[-6.564745,40.314613],[-6.556737,40.306403],[-6.55602,40.304174],[-6.559591,40.295796],[-6.556175,40.290777],[-6.568426,40.283104],[-6.571044,40.279457],[-6.583085,40.274761],[-6.587022,40.270721],[-6.597417,40.271641],[-6.614803,40.266064],[-6.625235,40.266565],[-6.634597,40.26465],[-6.639952,40.268921],[-6.671753,40.263232],[-6.677723,40.257999],[-6.677764,40.250955],[-6.688459,40.246597],[-6.690137,40.242662],[-6.697952,40.246744],[-6.70322,40.251096],[-6.709712,40.2602],[-6.710072,40.265052],[-6.711526,40.266924],[-6.718225,40.269239],[-6.726739,40.264993],[-6.728961,40.261787],[-6.735221,40.25719],[-6.74143,40.256179],[-6.751445,40.250216],[-6.755552,40.246264],[-6.755604,40.238923],[-6.7781,40.24552],[-6.781555,40.249091],[-6.802161,40.249558],[-6.80013,40.242042],[-6.801636,40.242695],[-6.806694,40.24152],[-6.810568,40.244382],[-6.818244,40.243778],[-6.82122,40.244661],[-6.823379,40.246048]]]]}}
]
}
