{
"type": "FeatureCollection",
"name": "cod_prov_31",
"crs": { "type": "name", "properties": { "name": "urn:ogc:def:crs:OGC:1.3:CRS84" } },
"xy_coordinate_resolution": 1e-15,
"features": [
{"type":"Feature","properties":{"fid":31,"cod_ccaa":"15","provincia":"Navarra","cod_prov":"31"},"geometry":{"type":"MultiPolygon","coordinates":[[[[-2.148091,42.415942],[-2.149956,42.418733],[-2.153006,42.418695],[-2.156905,42.416298],[-2.157004,42.412154],[-2.158367,42.41041],[-2.165687,42.40814],[-2.177028,42.408302],[-2.180771,42.412121],[-2.182235,42.41656],[-2.186273,42.418886],[-2.190494,42.417879],[-2.194999,42.419553],[-2.198906,42.419202],[-2.204995,42.415381],[-2.209838,42.414752],[-2.211332,42.42178],[-2.215458,42.424597],[-2.21912,42.42572],[-2.226643,42.425094],[-2.234384,42.42642],[-2.235571,42.429095],[-2.235815,42.436001],[-2.237703,42.440313],[-2.257637,42.447524],[-2.2645,42.450002],[-2.27008,42.444529],[-2.276045,42.4464],[-2.278209,42.454927],[-2.285958,42.459383],[-2.288066,42.462783],[-2.288,42.46718],[-2.297479,42.468021],[-2.297266,42.465239],[-2.29355,42.459716],[-2.297178,42.457295],[-2.300568,42.457837],[-2.307209,42.461531],[-2.313764,42.461466],[-2.318462,42.462669],[-2.326714,42.468512],[-2.330771,42.468728],[-2.336844,42.464779],[-2.33173,42.457868],[-2.332199,42.453984],[-2.33462,42.452645],[-2.342516,42.451817],[-2.346233,42.451569],[-2.34826,42.452725],[-2.347893,42.456578],[-2.351872,42.465663],[-2.357941,42.467279],[-2.360831,42.462715],[-2.364606,42.461752],[-2.370887,42.464127],[-2.372398,42.468512],[-2.374905,42.470351],[-2.388303,42.470193],[-2.396284,42.473468],[-2.400172,42.471787],[-2.412054,42.484843],[-2.415439,42.490364],[-2.420613,42.489144],[-2.423533,42.499076],[-2.422603,42.502188],[-2.423752,42.509632],[-2.42272,42.511095],[-2.410562,42.515466],[-2.392441,42.516182],[-2.3933,42.523119],[-2.398335,42.528742],[-2.39863,42.534058],[-2.400134,42.535743],[-2.401307,42.538071],[-2.400333,42.542667],[-2.399572,42.54454],[-2.395691,42.54703],[-2.38962,42.548867],[-2.391363,42.555649],[-2.390472,42.560902],[-2.393603,42.565671],[-2.393642,42.571316],[-2.397792,42.585846],[-2.399601,42.589279],[-2.396347,42.598827],[-2.406036,42.598132],[-2.414195,42.601852],[-2.417083,42.604111],[-2.418293,42.606925],[-2.422267,42.605867],[-2.424602,42.603851],[-2.424648,42.600183],[-2.428931,42.597965],[-2.433855,42.590686],[-2.443245,42.574908],[-2.452849,42.565919],[-2.454171,42.570118],[-2.457012,42.573166],[-2.456719,42.575039],[-2.459834,42.576826],[-2.459711,42.582952],[-2.462109,42.587211],[-2.471946,42.589072],[-2.483995,42.588898],[-2.489975,42.586273],[-2.493705,42.593233],[-2.494071,42.601055],[-2.498333,42.608062],[-2.498732,42.612721],[-2.49829,42.61592],[-2.484316,42.612354],[-2.47941,42.615633],[-2.471303,42.627097],[-2.46618,42.627133],[-2.459288,42.637187],[-2.457288,42.639213],[-2.455341,42.638378],[-2.450001,42.646813],[-2.433837,42.653478],[-2.430324,42.653825],[-2.429887,42.658096],[-2.426538,42.658144],[-2.424141,42.659862],[-2.417293,42.661358],[-2.403887,42.659582],[-2.398327,42.661175],[-2.394946,42.660728],[-2.387751,42.657993],[-2.379162,42.652892],[-2.376995,42.650283],[-2.382301,42.647641],[-2.379343,42.645812],[-2.374443,42.645054],[-2.371447,42.642986],[-2.376593,42.636894],[-2.368094,42.636786],[-2.367743,42.638197],[-2.363021,42.637911],[-2.356152,42.635459],[-2.350632,42.636506],[-2.347532,42.634714],[-2.34028,42.637035],[-2.33589,42.640359],[-2.335185,42.643898],[-2.330276,42.646194],[-2.324925,42.646497],[-2.315803,42.651172],[-2.313028,42.651167],[-2.311377,42.652701],[-2.297782,42.65149],[-2.299199,42.652832],[-2.292436,42.652783],[-2.289108,42.656676],[-2.289211,42.666921],[-2.293504,42.676494],[-2.29578,42.677044],[-2.301792,42.677138],[-2.307829,42.67395],[-2.310422,42.673819],[-2.311693,42.680298],[-2.316923,42.682493],[-2.3122,42.687756],[-2.313131,42.694183],[-2.311474,42.697187],[-2.31461,42.702931],[-2.313149,42.706108],[-2.311457,42.706301],[-2.311225,42.708786],[-2.312528,42.709027],[-2.312412,42.71048],[-2.317528,42.715975],[-2.318549,42.71906],[-2.320686,42.716595],[-2.323173,42.719064],[-2.323988,42.722757],[-2.322008,42.725101],[-2.320033,42.733127],[-2.318796,42.735526],[-2.317084,42.735541],[-2.314033,42.73671],[-2.30513,42.736689],[-2.289183,42.740088],[-2.285213,42.742436],[-2.272759,42.743435],[-2.267922,42.746305],[-2.26974,42.747897],[-2.274262,42.759294],[-2.276223,42.760344],[-2.276071,42.763273],[-2.274126,42.764774],[-2.272449,42.770093],[-2.273773,42.770753],[-2.275882,42.7787],[-2.281621,42.785028],[-2.278897,42.788562],[-2.273349,42.791358],[-2.268822,42.794524],[-2.270521,42.808907],[-2.267909,42.813222],[-2.256848,42.817686],[-2.236785,42.833455],[-2.232787,42.843162],[-2.235658,42.850549],[-2.234942,42.850682],[-2.241056,42.863086],[-2.243013,42.885454],[-2.243683,42.88719],[-2.253287,42.892645],[-2.25069,42.895498],[-2.248429,42.897156],[-2.238482,42.895458],[-2.237451,42.916423],[-2.238762,42.920795],[-2.236184,42.926865],[-2.235273,42.92854],[-2.23313,42.931966],[-2.220833,42.933815],[-2.217914,42.935889],[-2.216094,42.937648],[-2.216201,42.943092],[-2.211171,42.945569],[-2.210255,42.949898],[-2.203756,42.949498],[-2.199137,42.951176],[-2.194287,42.949864],[-2.190269,42.9478],[-2.190643,42.946407],[-2.186696,42.944533],[-2.180017,42.937965],[-2.180962,42.935127],[-2.173865,42.935192],[-2.166245,42.93585],[-2.155751,42.942489],[-2.151373,42.943138],[-2.150572,42.942465],[-2.148619,42.942054],[-2.141678,42.94224],[-2.13702,42.94016],[-2.132015,42.93954],[-2.130235,42.940389],[-2.127455,42.939302],[-2.122121,42.943518],[-2.117449,42.943564],[-2.1032,42.948782],[-2.104651,42.95404],[-2.097592,42.961471],[-2.095325,42.972236],[-2.092348,42.972284],[-2.088105,42.9746],[-2.074819,42.976187],[-2.05291,42.975912],[-2.051671,42.979607],[-2.043968,42.979014],[-2.038805,42.98157],[-2.038128,42.986234],[-2.034216,42.987913],[-2.03178,43.000105],[-2.027865,43.000597],[-2.029041,43.003653],[-2.031958,43.004439],[-2.031519,43.005607],[-2.03879,43.015179],[-2.038609,43.018601],[-2.041121,43.021964],[-2.040455,43.02474],[-2.042572,43.026585],[-2.034377,43.029913],[-2.033728,43.031287],[-2.031358,43.036411],[-2.020839,43.0472],[-2.018509,43.051799],[-2.02144,43.065652],[-2.022744,43.067173],[-2.016903,43.068407],[-2.01226,43.073046],[-2.010589,43.073073],[-1.990975,43.080163],[-1.988756,43.078651],[-1.985138,43.080808],[-1.979369,43.081685],[-1.976863,43.082363],[-1.976576,43.082479],[-1.969808,43.085994],[-1.970301,43.08996],[-1.971817,43.091267],[-1.966036,43.095358],[-1.947417,43.097606],[-1.948637,43.099803],[-1.947066,43.099949],[-1.944027,43.103439],[-1.938961,43.10478],[-1.937713,43.106492],[-1.939149,43.108293],[-1.937807,43.109421],[-1.933075,43.110202],[-1.924467,43.115089],[-1.921103,43.119761],[-1.921431,43.122613],[-1.916578,43.127871],[-1.901997,43.135743],[-1.902466,43.140548],[-1.905642,43.144813],[-1.92153,43.149904],[-1.919948,43.15837],[-1.915757,43.163942],[-1.91698,43.169329],[-1.920888,43.173083],[-1.9229,43.17913],[-1.922244,43.186334],[-1.914939,43.193466],[-1.910776,43.202907],[-1.913196,43.210608],[-1.912197,43.215396],[-1.913051,43.221367],[-1.91603,43.222834],[-1.911446,43.227192],[-1.909984,43.227002],[-1.90865,43.224906],[-1.909923,43.222926],[-1.910668,43.221082],[-1.907019,43.220015],[-1.90461,43.219838],[-1.9032,43.218338],[-1.908237,43.216711],[-1.904934,43.215029],[-1.903899,43.211614],[-1.895023,43.209551],[-1.892245,43.210256],[-1.890662,43.207193],[-1.888285,43.211146],[-1.889089,43.214544],[-1.886864,43.214307],[-1.883687,43.211326],[-1.883903,43.208678],[-1.882444,43.206849],[-1.881198,43.207827],[-1.882164,43.211563],[-1.879661,43.211763],[-1.875208,43.210585],[-1.876983,43.214318],[-1.875396,43.21665],[-1.879011,43.215497],[-1.879815,43.218239],[-1.875073,43.21871],[-1.874488,43.219805],[-1.880414,43.220651],[-1.878119,43.223355],[-1.879851,43.225448],[-1.878388,43.227348],[-1.880793,43.228906],[-1.876835,43.231676],[-1.875211,43.230779],[-1.872743,43.226469],[-1.867453,43.230152],[-1.867176,43.226183],[-1.865028,43.224518],[-1.866192,43.223875],[-1.864652,43.22205],[-1.866694,43.218073],[-1.863399,43.216006],[-1.863772,43.212638],[-1.861115,43.212039],[-1.860744,43.217583],[-1.857679,43.217846],[-1.859262,43.216746],[-1.855698,43.215886],[-1.85416,43.216503],[-1.857546,43.218649],[-1.855846,43.219558],[-1.854151,43.21827],[-1.852979,43.21915],[-1.8534,43.220992],[-1.850568,43.223225],[-1.852801,43.226114],[-1.849767,43.228513],[-1.848684,43.227506],[-1.849884,43.225013],[-1.847132,43.223646],[-1.845048,43.225356],[-1.841031,43.224096],[-1.83609,43.226004],[-1.834317,43.224546],[-1.835025,43.228655],[-1.83253,43.22742],[-1.830324,43.229136],[-1.825736,43.228287],[-1.822728,43.231142],[-1.822485,43.235823],[-1.818833,43.239017],[-1.816898,43.238327],[-1.80729,43.238951],[-1.805616,43.239925],[-1.803818,43.244541],[-1.797859,43.245122],[-1.794694,43.246745],[-1.795723,43.254162],[-1.793095,43.25679],[-1.795128,43.264773],[-1.791262,43.269327],[-1.794313,43.276243],[-1.786669,43.280385],[-1.781395,43.285748],[-1.778497,43.287973],[-1.772138,43.288528],[-1.764983,43.285765],[-1.761435,43.287843],[-1.760962,43.289349],[-1.758211,43.290224],[-1.755824,43.290489],[-1.753802,43.289204],[-1.749035,43.293163],[-1.74523,43.293142],[-1.742869,43.294635],[-1.740953,43.293594],[-1.737923,43.296098],[-1.736175,43.294675],[-1.733837,43.295371],[-1.729381,43.293639],[-1.73017,43.295747],[-1.729139,43.296123],[-1.725943,43.297243],[-1.723507,43.299879],[-1.719089,43.300557],[-1.713634,43.299881],[-1.706167,43.307667],[-1.694496,43.31222],[-1.685543,43.30928],[-1.674199,43.31183],[-1.668298,43.314633],[-1.66427,43.313744],[-1.654777,43.312556],[-1.652439,43.309972],[-1.645079,43.306768],[-1.635376,43.309049],[-1.632852,43.307235],[-1.624122,43.306],[-1.622695,43.300712],[-1.62853,43.292547],[-1.630553,43.284475],[-1.628202,43.280821],[-1.625573,43.270696],[-1.623651,43.270544],[-1.621698,43.263579],[-1.617579,43.257793],[-1.610388,43.254705],[-1.608719,43.251817],[-1.599954,43.254454],[-1.58155,43.253756],[-1.575235,43.25004],[-1.569671,43.255698],[-1.563277,43.269778],[-1.56043,43.272987],[-1.560707,43.274947],[-1.557127,43.27955],[-1.560078,43.284175],[-1.563682,43.284587],[-1.565099,43.288043],[-1.551731,43.291969],[-1.539766,43.291604],[-1.535305,43.294683],[-1.532462,43.293554],[-1.525085,43.293193],[-1.514135,43.294152],[-1.506028,43.293465],[-1.502343,43.288293],[-1.498838,43.287187],[-1.496533,43.283187],[-1.492744,43.281646],[-1.492322,43.280386],[-1.483035,43.283417],[-1.478021,43.277323],[-1.468722,43.273385],[-1.46154,43.271427],[-1.453866,43.271451],[-1.452235,43.270018],[-1.44667,43.269386],[-1.439091,43.266748],[-1.426964,43.267076],[-1.420173,43.269342],[-1.41629,43.272754],[-1.412736,43.273596],[-1.405068,43.270382],[-1.402786,43.266393],[-1.400742,43.267061],[-1.382789,43.253246],[-1.377946,43.235509],[-1.378812,43.228426],[-1.38303,43.224352],[-1.384309,43.221212],[-1.382307,43.215912],[-1.379289,43.214122],[-1.38431,43.210425],[-1.381972,43.199562],[-1.385931,43.19425],[-1.381308,43.189669],[-1.382751,43.187291],[-1.38526,43.18763],[-1.391329,43.186132],[-1.402307,43.177746],[-1.403946,43.160639],[-1.402402,43.155598],[-1.407525,43.155445],[-1.414925,43.149346],[-1.408833,43.141918],[-1.413737,43.13642],[-1.414095,43.129277],[-1.421408,43.125344],[-1.424842,43.125043],[-1.426991,43.116736],[-1.43883,43.112264],[-1.443114,43.11171],[-1.440829,43.107657],[-1.451508,43.103919],[-1.45158,43.102164],[-1.457388,43.099367],[-1.462799,43.09844],[-1.469842,43.092552],[-1.473234,43.086716],[-1.470992,43.079864],[-1.446738,43.05304],[-1.440821,43.046343],[-1.385871,43.034163],[-1.359936,43.029553],[-1.353775,43.027994],[-1.35069,43.038592],[-1.344433,43.051309],[-1.344958,43.066919],[-1.344199,43.073254],[-1.342048,43.07549],[-1.343178,43.078327],[-1.341872,43.081218],[-1.346004,43.090784],[-1.346215,43.09459],[-1.334576,43.102119],[-1.333581,43.105274],[-1.322334,43.112271],[-1.319178,43.113047],[-1.286999,43.116575],[-1.278701,43.118642],[-1.269941,43.118243],[-1.274518,43.113653],[-1.281368,43.109816],[-1.286071,43.104425],[-1.289113,43.103992],[-1.295281,43.095708],[-1.29679,43.095696],[-1.299824,43.092414],[-1.299117,43.091482],[-1.301943,43.08759],[-1.301763,43.085498],[-1.305729,43.080786],[-1.305639,43.07631],[-1.309827,43.069289],[-1.305572,43.067736],[-1.297953,43.067101],[-1.294738,43.063768],[-1.28776,43.063653],[-1.274441,43.055457],[-1.270823,43.054966],[-1.265151,43.047843],[-1.264312,43.044248],[-1.247561,43.042632],[-1.234874,43.050576],[-1.229723,43.055463],[-1.212396,43.051571],[-1.211752,43.049599],[-1.180963,43.032584],[-1.174191,43.03453],[-1.173872,43.037599],[-1.16322,43.034615],[-1.15818,43.030587],[-1.152864,43.029075],[-1.152137,43.027364],[-1.147902,43.026714],[-1.146548,43.025227],[-1.14548,43.025916],[-1.144236,43.023774],[-1.144442,43.013455],[-1.141854,43.007619],[-1.139862,43.009545],[-1.134041,43.00831],[-1.128562,43.014149],[-1.122409,43.015272],[-1.115383,43.023309],[-1.112448,43.024698],[-1.111302,43.023424],[-1.11183,43.020694],[-1.105889,43.016558],[-1.09219,43.011508],[-1.083412,43.011087],[-1.085826,43.006731],[-1.084724,43.004189],[-1.086328,43.002662],[-1.081245,43.000626],[-1.079452,43.000996],[-1.078389,42.99975],[-1.072229,42.997879],[-1.059591,42.996113],[-1.053834,42.997111],[-1.039203,42.995594],[-1.03745,42.995122],[-1.037427,42.993787],[-1.032922,42.994671],[-1.026011,42.992047],[-1.018277,42.993783],[-1.010539,42.992008],[-1.006275,42.988838],[-1.001917,42.979425],[-0.998841,42.976624],[-0.98956,42.972623],[-0.98118,42.970554],[-0.977166,42.9678],[-0.974921,42.963497],[-0.970379,42.962062],[-0.955464,42.959162],[-0.944018,42.953293],[-0.926059,42.953939],[-0.92243,42.954961],[-0.919849,42.956292],[-0.92037,42.957868],[-0.916291,42.964084],[-0.907497,42.965011],[-0.899681,42.961921],[-0.897057,42.958221],[-0.895052,42.955667],[-0.890805,42.956311],[-0.878412,42.95449],[-0.875562,42.955121],[-0.865339,42.951143],[-0.851623,42.952111],[-0.846145,42.951489],[-0.839325,42.952679],[-0.837022,42.954682],[-0.831868,42.952424],[-0.827214,42.952567],[-0.822448,42.951117],[-0.810512,42.95139],[-0.799798,42.959578],[-0.766939,42.969269],[-0.761808,42.967983],[-0.755708,42.968272],[-0.751775,42.967167],[-0.746042,42.959901],[-0.745199,42.95238],[-0.742294,42.949564],[-0.731674,42.945472],[-0.735298,42.940079],[-0.730607,42.938763],[-0.727959,42.934171],[-0.726158,42.922347],[-0.727614,42.919319],[-0.732991,42.918411],[-0.734675,42.919587],[-0.744123,42.919207],[-0.747266,42.922375],[-0.753475,42.924496],[-0.783213,42.921727],[-0.789855,42.918622],[-0.789015,42.917111],[-0.798731,42.910896],[-0.80113,42.907845],[-0.809083,42.904296],[-0.813332,42.904],[-0.819096,42.90067],[-0.820458,42.893303],[-0.818738,42.891037],[-0.819243,42.88921],[-0.813634,42.888202],[-0.81644,42.88433],[-0.816337,42.878583],[-0.814718,42.876913],[-0.820001,42.872574],[-0.818535,42.869368],[-0.820153,42.867904],[-0.826925,42.867141],[-0.837355,42.861531],[-0.84129,42.852942],[-0.851125,42.848148],[-0.856769,42.847002],[-0.857253,42.833378],[-0.854406,42.828318],[-0.854953,42.823232],[-0.851442,42.807587],[-0.860394,42.80228],[-0.860008,42.798563],[-0.84991,42.792169],[-0.847534,42.78592],[-0.85226,42.781128],[-0.859545,42.768757],[-0.862947,42.768983],[-0.864839,42.763354],[-0.873311,42.758982],[-0.87596,42.758716],[-0.883566,42.761793],[-0.890485,42.762803],[-0.894692,42.762718],[-0.897018,42.760798],[-0.900536,42.760467],[-0.901165,42.752716],[-0.899418,42.74693],[-0.901087,42.742719],[-0.908452,42.743826],[-0.923906,42.744113],[-0.924769,42.738883],[-0.930269,42.735524],[-0.93588,42.734275],[-0.938457,42.725447],[-0.94414,42.722701],[-0.945055,42.717858],[-0.947236,42.714927],[-0.946213,42.713999],[-0.948614,42.711402],[-0.954913,42.712552],[-0.960533,42.711188],[-0.968682,42.705353],[-0.969212,42.703705],[-0.979144,42.704655],[-0.983912,42.702358],[-0.988116,42.702768],[-0.989945,42.701614],[-1.001492,42.699951],[-1.016814,42.702262],[-1.02765,42.700376],[-1.02905,42.694864],[-1.0381,42.691882],[-1.039186,42.691634],[-1.037744,42.684666],[-1.033154,42.674594],[-1.039622,42.664203],[-1.038289,42.653455],[-1.036809,42.651638],[-1.036082,42.652061],[-1.036766,42.648601],[-1.045258,42.645823],[-1.051827,42.641161],[-1.063777,42.641948],[-1.070788,42.640672],[-1.0845,42.645897],[-1.103281,42.645978],[-1.120317,42.64493],[-1.147238,42.648097],[-1.155026,42.647081],[-1.15476,42.645916],[-1.155192,42.636269],[-1.15419,42.63552],[-1.157121,42.623054],[-1.15674,42.610823],[-1.159844,42.61259],[-1.17087,42.617054],[-1.176325,42.6148],[-1.178778,42.615127],[-1.180067,42.607789],[-1.175207,42.605862],[-1.169537,42.605145],[-1.15774,42.598824],[-1.16039,42.598047],[-1.161737,42.596018],[-1.169082,42.597424],[-1.170814,42.59688],[-1.174746,42.593198],[-1.192905,42.58358],[-1.197618,42.578693],[-1.201446,42.578266],[-1.20431,42.570661],[-1.20417,42.561221],[-1.203907,42.558155],[-1.200762,42.552504],[-1.202731,42.54935],[-1.206917,42.550716],[-1.207617,42.549559],[-1.21888,42.548592],[-1.226608,42.541996],[-1.228661,42.542003],[-1.229437,42.543069],[-1.231008,42.541884],[-1.232946,42.544463],[-1.235273,42.54404],[-1.238885,42.546305],[-1.238819,42.547412],[-1.250047,42.549595],[-1.25019,42.550872],[-1.252358,42.550541],[-1.256447,42.552551],[-1.257124,42.555008],[-1.259998,42.554526],[-1.264518,42.556468],[-1.265479,42.555822],[-1.271219,42.548257],[-1.273305,42.54185],[-1.288674,42.52241],[-1.289738,42.514584],[-1.294544,42.51085],[-1.287423,42.508105],[-1.286732,42.498526],[-1.28223,42.498918],[-1.275151,42.495908],[-1.274952,42.485499],[-1.272781,42.481899],[-1.278823,42.470535],[-1.281796,42.46768],[-1.281466,42.464299],[-1.292749,42.456014],[-1.297963,42.454017],[-1.305459,42.452987],[-1.312163,42.450454],[-1.312193,42.449613],[-1.316551,42.448666],[-1.34169,42.42399],[-1.340342,42.421904],[-1.343345,42.407918],[-1.348402,42.400394],[-1.350911,42.390795],[-1.357249,42.381209],[-1.359616,42.378065],[-1.356544,42.374323],[-1.350018,42.369966],[-1.342477,42.373051],[-1.335639,42.372051],[-1.333006,42.368397],[-1.332954,42.364219],[-1.329531,42.361107],[-1.332162,42.358863],[-1.329039,42.355453],[-1.332899,42.349492],[-1.34305,42.342279],[-1.352321,42.339218],[-1.356578,42.335454],[-1.375198,42.315364],[-1.383086,42.304019],[-1.387392,42.29964],[-1.398439,42.292133],[-1.399057,42.290914],[-1.396403,42.288656],[-1.39389,42.282784],[-1.389203,42.276738],[-1.39138,42.272066],[-1.395596,42.269084],[-1.394101,42.264698],[-1.399377,42.257272],[-1.398377,42.248881],[-1.400615,42.243278],[-1.409902,42.228],[-1.415995,42.222971],[-1.417537,42.212484],[-1.413319,42.202241],[-1.407686,42.199628],[-1.406231,42.197166],[-1.395476,42.190498],[-1.391779,42.180685],[-1.394067,42.173637],[-1.393773,42.166736],[-1.39846,42.156758],[-1.394108,42.155315],[-1.394565,42.152627],[-1.393068,42.149437],[-1.400945,42.129997],[-1.399912,42.126877],[-1.396468,42.124027],[-1.38979,42.121941],[-1.367337,42.106816],[-1.365673,42.09283],[-1.357975,42.083429],[-1.353242,42.072954],[-1.348614,42.070928],[-1.345074,42.070695],[-1.332447,42.072906],[-1.310602,42.072266],[-1.312747,42.069403],[-1.312139,42.063411],[-1.308268,42.061788],[-1.307704,42.057855],[-1.303296,42.051542],[-1.308342,42.046251],[-1.305637,42.042936],[-1.325384,42.029773],[-1.339672,42.017046],[-1.342375,42.011817],[-1.353556,42.000073],[-1.365735,41.982931],[-1.373475,41.966442],[-1.374437,41.961757],[-1.379998,41.959403],[-1.385871,41.957112],[-1.386498,41.956217],[-1.383076,41.954489],[-1.380071,41.950404],[-1.381199,41.948639],[-1.37985,41.947987],[-1.382355,41.942832],[-1.396862,41.938905],[-1.403736,41.935183],[-1.402606,41.933766],[-1.407732,41.929373],[-1.408108,41.923545],[-1.411356,41.917984],[-1.415669,41.91676],[-1.418044,41.913638],[-1.423134,41.911599],[-1.42656,41.912817],[-1.431769,41.912915],[-1.44088,41.916154],[-1.45301,41.915376],[-1.457643,41.916752],[-1.466068,41.921933],[-1.476747,41.924686],[-1.487789,41.923589],[-1.501461,41.924041],[-1.502703,41.919872],[-1.506047,41.915438],[-1.508442,41.914719],[-1.510005,41.9154],[-1.523359,41.909895],[-1.556459,41.913444],[-1.575431,41.918452],[-1.580167,41.92123],[-1.587452,41.923301],[-1.598718,41.928768],[-1.605467,41.940723],[-1.613187,41.950011],[-1.642863,41.95857],[-1.649574,41.963819],[-1.653799,41.965264],[-1.659688,41.962299],[-1.658828,41.960391],[-1.663945,41.959936],[-1.664713,41.962461],[-1.67489,41.966586],[-1.676245,41.966561],[-1.676744,41.962468],[-1.678333,41.960836],[-1.679403,41.961736],[-1.6793,41.960265],[-1.681981,41.957592],[-1.681218,41.955945],[-1.686074,41.953406],[-1.686913,41.952201],[-1.689372,41.95461],[-1.695377,41.955556],[-1.70085,41.953638],[-1.704212,41.957147],[-1.714592,41.956799],[-1.718408,41.959117],[-1.724475,41.960817],[-1.727656,41.961812],[-1.733965,41.963564],[-1.740331,41.968377],[-1.743969,41.973369],[-1.752343,41.979019],[-1.75841,41.987137],[-1.767209,41.995412],[-1.773678,41.995899],[-1.786539,41.990623],[-1.79167,41.989595],[-1.798574,41.992548],[-1.809678,41.998274],[-1.816581,41.997502],[-1.819425,41.995983],[-1.824565,41.99624],[-1.833985,41.995553],[-1.836785,41.999537],[-1.840089,42.001025],[-1.840783,42.004681],[-1.844634,42.005457],[-1.845365,42.007457],[-1.847081,42.007736],[-1.847183,42.007842],[-1.849486,42.004999],[-1.854869,42.002506],[-1.859882,42.006068],[-1.860344,42.009434],[-1.862015,42.010226],[-1.861263,42.011339],[-1.864592,42.015101],[-1.869656,42.012301],[-1.872716,42.013094],[-1.880623,42.022203],[-1.883342,42.023628],[-1.883366,42.026832],[-1.886534,42.027453],[-1.895284,42.026343],[-1.899475,42.029664],[-1.902331,42.029295],[-1.903953,42.035554],[-1.903021,42.038433],[-1.905828,42.049016],[-1.903431,42.054419],[-1.9062,42.05538],[-1.908542,42.058135],[-1.905621,42.061474],[-1.905445,42.068266],[-1.897501,42.079555],[-1.892528,42.085936],[-1.874631,42.099246],[-1.869554,42.105258],[-1.867675,42.10668],[-1.863822,42.10728],[-1.859717,42.114886],[-1.838717,42.129456],[-1.837191,42.134443],[-1.838092,42.142133],[-1.832167,42.148535],[-1.821636,42.153755],[-1.808054,42.148636],[-1.801426,42.146234],[-1.798046,42.140939],[-1.781755,42.137444],[-1.778482,42.13753],[-1.780564,42.140578],[-1.779922,42.141575],[-1.769081,42.145482],[-1.76461,42.150071],[-1.74063,42.150172],[-1.735563,42.148114],[-1.725236,42.141264],[-1.7197,42.133064],[-1.708845,42.136272],[-1.690341,42.148098],[-1.679284,42.151826],[-1.685651,42.156078],[-1.693476,42.158442],[-1.699373,42.167579],[-1.700565,42.17338],[-1.697124,42.180376],[-1.679736,42.188832],[-1.681884,42.192843],[-1.686313,42.193955],[-1.689811,42.191923],[-1.697709,42.193188],[-1.700522,42.190456],[-1.703224,42.190914],[-1.704459,42.192024],[-1.703335,42.195516],[-1.70677,42.202581],[-1.705964,42.206535],[-1.707402,42.208702],[-1.718868,42.212129],[-1.721904,42.211994],[-1.72594,42.214286],[-1.72729,42.212363],[-1.736487,42.215301],[-1.739548,42.214288],[-1.740892,42.212335],[-1.766192,42.221659],[-1.767071,42.215705],[-1.769453,42.214037],[-1.771409,42.214127],[-1.774221,42.215349],[-1.780311,42.224352],[-1.78782,42.225107],[-1.790231,42.222931],[-1.800442,42.222732],[-1.803336,42.223892],[-1.8062,42.227683],[-1.816224,42.228122],[-1.817858,42.228723],[-1.821352,42.232352],[-1.818257,42.246918],[-1.820591,42.249185],[-1.823999,42.248446],[-1.824986,42.245538],[-1.829395,42.244285],[-1.835312,42.248914],[-1.840666,42.250822],[-1.842102,42.252929],[-1.847166,42.257855],[-1.850361,42.259119],[-1.854203,42.257394],[-1.853436,42.252489],[-1.855308,42.250183],[-1.866341,42.250793],[-1.872775,42.25291],[-1.875181,42.255091],[-1.876379,42.258963],[-1.870762,42.264874],[-1.868017,42.268494],[-1.866331,42.276017],[-1.869165,42.279195],[-1.867633,42.283657],[-1.869058,42.287043],[-1.872466,42.29025],[-1.876052,42.287068],[-1.883801,42.287263],[-1.894134,42.290618],[-1.895872,42.292358],[-1.915501,42.300764],[-1.909102,42.304574],[-1.906818,42.30879],[-1.919496,42.316328],[-1.91979,42.318802],[-1.916887,42.322055],[-1.916261,42.324929],[-1.91653,42.326325],[-1.920186,42.327742],[-1.926586,42.327426],[-1.927245,42.322741],[-1.930619,42.320792],[-1.934079,42.323092],[-1.942068,42.33508],[-1.947659,42.334682],[-1.955747,42.335779],[-1.961595,42.333771],[-1.964931,42.333842],[-1.968865,42.338538],[-1.964574,42.342762],[-1.969837,42.347553],[-1.967759,42.350382],[-1.969701,42.352474],[-1.972929,42.353608],[-1.977413,42.34974],[-1.97938,42.349977],[-1.98086,42.352324],[-1.980139,42.354278],[-1.981725,42.355805],[-1.990795,42.359357],[-1.995708,42.363701],[-1.997983,42.363878],[-2.006135,42.360585],[-2.008967,42.362589],[-2.012171,42.368589],[-2.019443,42.368511],[-2.028285,42.36296],[-2.044988,42.359137],[-2.045105,42.356902],[-2.049789,42.35277],[-2.056488,42.349162],[-2.061836,42.347901],[-2.070316,42.342828],[-2.089961,42.346971],[-2.08977,42.357422],[-2.086697,42.361155],[-2.079885,42.365747],[-2.078791,42.368591],[-2.092812,42.375821],[-2.087549,42.383624],[-2.094852,42.387673],[-2.109882,42.393481],[-2.11195,42.396681],[-2.115928,42.39941],[-2.1106,42.409086],[-2.104346,42.416401],[-2.10705,42.416832],[-2.111224,42.419696],[-2.114777,42.418733],[-2.126623,42.418921],[-2.133017,42.421194],[-2.139846,42.420613],[-2.145595,42.418201],[-2.148091,42.415942]]],[[[-1.184406,42.401022],[-1.187799,42.40303],[-1.187973,42.404582],[-1.180429,42.417521],[-1.182743,42.421169],[-1.182822,42.423898],[-1.166611,42.432511],[-1.162956,42.432344],[-1.161434,42.433265],[-1.154032,42.441485],[-1.149413,42.441852],[-1.147578,42.441003],[-1.144975,42.44187],[-1.144941,42.44118],[-1.144841,42.436924],[-1.151172,42.431677],[-1.151679,42.428479],[-1.152965,42.428158],[-1.152427,42.423286],[-1.154339,42.414464],[-1.158359,42.410017],[-1.171581,42.406654],[-1.174386,42.403799],[-1.184406,42.401022]]],[[[-1.065788,42.453788],[-1.06247,42.45283],[-1.056515,42.448337],[-1.054361,42.448805],[-1.051014,42.441462],[-1.052862,42.437918],[-1.057666,42.433939],[-1.061639,42.434402],[-1.064531,42.436027],[-1.067809,42.434596],[-1.07394,42.437239],[-1.08053,42.438413],[-1.083414,42.437128],[-1.093376,42.440176],[-1.108017,42.44132],[-1.116294,42.445076],[-1.125106,42.445176],[-1.129365,42.446722],[-1.125578,42.455864],[-1.120889,42.460542],[-1.118281,42.461526],[-1.10695,42.478314],[-1.102082,42.4828],[-1.102851,42.484334],[-1.096228,42.485665],[-1.091664,42.485733],[-1.085141,42.483364],[-1.088339,42.475862],[-1.087474,42.474695],[-1.07534,42.468125],[-1.069555,42.46648],[-1.069777,42.461595],[-1.067623,42.459977],[-1.065788,42.453788]]]]}}
]
}
