{
"type": "FeatureCollection",
"name": "codigo_03014",
"crs": { "type": "name", "properties": { "name": "urn:ogc:def:crs:OGC:1.3:CRS84" } },
"xy_coordinate_resolution": 1e-15,
"features": [
{"type":"Feature","properties":{"fid":1335,"cartodb_id":152,"comautonom":"Comunitat Valenciana","cod_ccaa":"10","provincia":"Alicante","cod_prov":"03","texto":"Alicante/Alacant","codigo":"03014"},"geometry":{"type":"MultiPolygon","coordinates":[[[[-0.472031,38.166665],[-0.464763,38.162872],[-0.466642,38.163354],[-0.471108,38.162021],[-0.472572,38.163152],[-0.475906,38.162829],[-0.47821,38.165465],[-0.481336,38.164887],[-0.487511,38.167056],[-0.48086,38.167343],[-0.480443,38.16698],[-0.479467,38.167032],[-0.479452,38.166449],[-0.478079,38.166368],[-0.478687,38.167635],[-0.477827,38.166643],[-0.477596,38.16609],[-0.476346,38.165743],[-0.472031,38.166665]]],[[[-0.485462,38.165069],[-0.48545,38.164986],[-0.485594,38.164988],[-0.485462,38.165069]]],[[[-0.484554,38.165898],[-0.484687,38.165781],[-0.484793,38.165794],[-0.484554,38.165898]]],[[[-0.477074,38.166154],[-0.477223,38.166141],[-0.477063,38.166299],[-0.477074,38.166154]]],[[[-0.480698,38.167299],[-0.480787,38.167301],[-0.480717,38.167317],[-0.480698,38.167299]]],[[[-0.568956,38.457208],[-0.560307,38.446261],[-0.557664,38.43597],[-0.548709,38.431809],[-0.547735,38.428428],[-0.550466,38.419168],[-0.552306,38.415873],[-0.557407,38.412357],[-0.556586,38.409853],[-0.551838,38.405321],[-0.551948,38.397998],[-0.548897,38.397492],[-0.54127,38.392476],[-0.52769,38.386486],[-0.52011,38.384173],[-0.51528,38.380817],[-0.497494,38.380087],[-0.493606,38.385915],[-0.491492,38.39442],[-0.494826,38.39633],[-0.492854,38.400387],[-0.491281,38.399867],[-0.488635,38.401883],[-0.486195,38.399587],[-0.484805,38.402693],[-0.48107,38.401441],[-0.475663,38.405118],[-0.475749,38.407931],[-0.469261,38.411],[-0.468153,38.410065],[-0.469289,38.408296],[-0.468411,38.40524],[-0.473754,38.401436],[-0.462525,38.395112],[-0.454823,38.396008],[-0.447768,38.395412],[-0.443767,38.39328],[-0.441524,38.390005],[-0.429239,38.385195],[-0.418938,38.390933],[-0.417689,38.387446],[-0.408882,38.382276],[-0.409853,38.359984],[-0.408841,38.357444],[-0.402897,38.352793],[-0.412202,38.352041],[-0.414061,38.353256],[-0.415402,38.352472],[-0.420193,38.353692],[-0.425583,38.353446],[-0.426725,38.354935],[-0.434105,38.355305],[-0.434896,38.360254],[-0.437763,38.361377],[-0.4404,38.360813],[-0.438452,38.361284],[-0.440214,38.361248],[-0.442254,38.362952],[-0.444932,38.362864],[-0.451094,38.358675],[-0.462441,38.354626],[-0.466234,38.35079],[-0.468023,38.35124],[-0.474094,38.348104],[-0.478498,38.343868],[-0.477587,38.337076],[-0.4895,38.327989],[-0.478566,38.337188],[-0.479188,38.339944],[-0.481637,38.338959],[-0.479793,38.340554],[-0.480374,38.343557],[-0.484812,38.342179],[-0.482981,38.341625],[-0.484706,38.342011],[-0.484496,38.340971],[-0.485287,38.341797],[-0.487365,38.339288],[-0.485651,38.337836],[-0.482923,38.338613],[-0.48253,38.337903],[-0.485175,38.337024],[-0.485074,38.335842],[-0.486188,38.336684],[-0.490398,38.335279],[-0.489349,38.334427],[-0.487586,38.335615],[-0.486481,38.334906],[-0.489627,38.332363],[-0.490232,38.334273],[-0.49186,38.33414],[-0.492182,38.335177],[-0.497969,38.334325],[-0.496638,38.332157],[-0.494404,38.332583],[-0.49196,38.330587],[-0.493611,38.329291],[-0.498251,38.333003],[-0.499577,38.332372],[-0.502561,38.334567],[-0.504983,38.333377],[-0.51085,38.32558],[-0.516937,38.309899],[-0.517589,38.303419],[-0.519973,38.297724],[-0.519444,38.296786],[-0.52014,38.29125],[-0.5198,38.290671],[-0.519866,38.279358],[-0.519753,38.279055],[-0.519463,38.274879],[-0.522147,38.274849],[-0.524713,38.274982],[-0.535683,38.299704],[-0.541641,38.305793],[-0.543094,38.306446],[-0.551246,38.303085],[-0.568463,38.301821],[-0.577382,38.306268],[-0.600902,38.324702],[-0.611787,38.334565],[-0.612923,38.337283],[-0.623597,38.342862],[-0.640467,38.344796],[-0.645082,38.350313],[-0.646353,38.357692],[-0.649622,38.365224],[-0.656603,38.382631],[-0.644937,38.38656],[-0.644116,38.389265],[-0.636305,38.396379],[-0.624221,38.399685],[-0.61262,38.396962],[-0.600517,38.398021],[-0.597732,38.399211],[-0.57788,38.397709],[-0.577461,38.398961],[-0.579396,38.401273],[-0.584925,38.401737],[-0.596366,38.408919],[-0.604954,38.417258],[-0.605863,38.421269],[-0.608945,38.423693],[-0.608197,38.424822],[-0.610658,38.428702],[-0.60823,38.431121],[-0.608344,38.434241],[-0.602079,38.443213],[-0.596383,38.446016],[-0.595948,38.449449],[-0.591426,38.456231],[-0.595468,38.461828],[-0.608614,38.470468],[-0.609679,38.473256],[-0.614759,38.476324],[-0.595059,38.474128],[-0.591787,38.468456],[-0.585209,38.462933],[-0.573624,38.460855],[-0.568956,38.457208]]],[[[-0.446631,38.495519],[-0.443972,38.494848],[-0.450998,38.486775],[-0.45156,38.478975],[-0.444186,38.473561],[-0.444583,38.467524],[-0.441627,38.46554],[-0.443454,38.465076],[-0.443854,38.463499],[-0.432268,38.456713],[-0.434546,38.451951],[-0.444093,38.448951],[-0.471387,38.461042],[-0.497149,38.451567],[-0.527607,38.463397],[-0.528657,38.468888],[-0.532129,38.473232],[-0.527233,38.473994],[-0.524558,38.475803],[-0.524095,38.478298],[-0.513917,38.480281],[-0.505845,38.475342],[-0.502754,38.475583],[-0.499452,38.477936],[-0.494622,38.478382],[-0.480511,38.48335],[-0.463374,38.492486],[-0.451868,38.494317],[-0.448735,38.496366],[-0.448448,38.496685],[-0.448322,38.498304],[-0.448103,38.498993],[-0.445699,38.500832],[-0.448198,38.505392],[-0.441128,38.509103],[-0.448197,38.505392],[-0.445698,38.500832],[-0.448321,38.498304],[-0.448427,38.496945],[-0.447436,38.496762],[-0.446631,38.495519]]],[[[-0.38322,38.520796],[-0.384202,38.515547],[-0.395333,38.527762],[-0.394546,38.532708],[-0.388782,38.536661],[-0.380739,38.535156],[-0.38098,38.536738],[-0.377894,38.536399],[-0.37786,38.535854],[-0.37536,38.532576],[-0.375086,38.529705],[-0.38322,38.520796]]]]}}
]
}
