{
"type": "FeatureCollection",
"name": "codigo_02066",
"crs": { "type": "name", "properties": { "name": "urn:ogc:def:crs:OGC:1.3:CRS84" } },
"xy_coordinate_resolution": 1e-15,
"features": [
{"type":"Feature","properties":{"fid":1307,"cartodb_id":117,"comautonom":"Castilla - La Mancha","cod_ccaa":"08","provincia":"Albacete","cod_prov":"02","texto":"Recueja (La)","codigo":"02066"},"geometry":{"type":"MultiPolygon","coordinates":[[[[-1.406103,39.123822],[-1.399449,39.103511],[-1.397378,39.090751],[-1.398437,39.08026],[-1.400584,39.077325],[-1.40506,39.079801],[-1.412411,39.087082],[-1.415969,39.093925],[-1.416711,39.09799],[-1.44611,39.134058],[-1.451145,39.13134],[-1.458871,39.142589],[-1.47254,39.14986],[-1.478944,39.150205],[-1.496304,39.15444],[-1.497568,39.15652],[-1.497803,39.167245],[-1.504829,39.177049],[-1.506192,39.183743],[-1.506055,39.18967],[-1.502906,39.197865],[-1.503798,39.203265],[-1.493736,39.202144],[-1.486522,39.203708],[-1.485136,39.209448],[-1.483026,39.203627],[-1.482579,39.196953],[-1.470094,39.186365],[-1.471415,39.17994],[-1.469937,39.173361],[-1.462335,39.167855],[-1.458897,39.163133],[-1.452808,39.147311],[-1.441341,39.140463],[-1.432953,39.13262],[-1.423339,39.127426],[-1.416355,39.124223],[-1.406103,39.123822]]]]}}
]
}
