{
"type": "FeatureCollection",
"name": "codigo_03020",
"crs": { "type": "name", "properties": { "name": "urn:ogc:def:crs:OGC:1.3:CRS84" } },
"xy_coordinate_resolution": 1e-15,
"features": [
{"type":"Feature","properties":{"fid":1338,"cartodb_id":158,"comautonom":"Comunitat Valenciana","cod_ccaa":"10","provincia":"Alicante","cod_prov":"03","texto":"Balones","codigo":"03020"},"geometry":{"type":"MultiPolygon","coordinates":[[[[-0.312328,38.742774],[-0.31171,38.739931],[-0.316197,38.74052],[-0.318618,38.738242],[-0.318098,38.73369],[-0.320978,38.73235],[-0.323552,38.732716],[-0.326937,38.73018],[-0.328393,38.730313],[-0.328173,38.729425],[-0.331456,38.729896],[-0.333058,38.726104],[-0.337153,38.72517],[-0.33731,38.722489],[-0.341487,38.721196],[-0.343075,38.722737],[-0.345167,38.722451],[-0.345894,38.726108],[-0.347474,38.729126],[-0.349661,38.729085],[-0.350291,38.732262],[-0.359419,38.749245],[-0.356132,38.747909],[-0.353661,38.748457],[-0.333348,38.756653],[-0.332056,38.7592],[-0.332169,38.760509],[-0.328542,38.761778],[-0.325238,38.766135],[-0.313603,38.768291],[-0.314916,38.766718],[-0.313633,38.765355],[-0.316764,38.763174],[-0.313995,38.747101],[-0.311406,38.746194],[-0.314394,38.745065],[-0.312328,38.742774]]]]}}
]
}
