{
"type": "FeatureCollection",
"name": "codigo_03040",
"crs": { "type": "name", "properties": { "name": "urn:ogc:def:crs:OGC:1.3:CRS84" } },
"xy_coordinate_resolution": 1e-15,
"features": [
{"type":"Feature","properties":{"fid":1354,"cartodb_id":178,"comautonom":"Comunitat Valenciana","cod_ccaa":"10","provincia":"Alicante","cod_prov":"03","texto":"Benimeli","codigo":"03040"},"geometry":{"type":"MultiPolygon","coordinates":[[[[-0.025126,38.844434],[-0.023043,38.844966],[-0.019275,38.838888],[-0.034659,38.830145],[-0.034252,38.826909],[-0.040304,38.822054],[-0.037232,38.808913],[-0.040272,38.806692],[-0.042959,38.807148],[-0.044994,38.807506],[-0.04715,38.824452],[-0.041297,38.829214],[-0.035809,38.830471],[-0.036602,38.833852],[-0.039401,38.835517],[-0.040972,38.839296],[-0.028547,38.845296],[-0.025126,38.844434]]]]}}
]
}
