{
"type": "FeatureCollection",
"name": "codigo_02071",
"crs": { "type": "name", "properties": { "name": "urn:ogc:def:crs:OGC:1.3:CRS84" } },
"xy_coordinate_resolution": 1e-15,
"features": [
{"type":"Feature","properties":{"fid":1239,"cartodb_id":122,"comautonom":"Castilla - La Mancha","cod_ccaa":"08","provincia":"Albacete","cod_prov":"02","texto":"San Pedro","codigo":"02071"},"geometry":{"type":"MultiPolygon","coordinates":[[[[-2.187442,38.851369],[-2.184637,38.849337],[-2.16637,38.848487],[-2.165262,38.833854],[-2.161019,38.825317],[-2.14826,38.803678],[-2.142317,38.798922],[-2.137053,38.790421],[-2.135513,38.769224],[-2.137936,38.761068],[-2.135007,38.750089],[-2.136956,38.747913],[-2.144363,38.736659],[-2.159495,38.730613],[-2.171809,38.728214],[-2.187566,38.741761],[-2.18835,38.744695],[-2.197998,38.750403],[-2.207199,38.752953],[-2.213513,38.75651],[-2.238714,38.782801],[-2.240146,38.794273],[-2.233541,38.805638],[-2.233247,38.808412],[-2.236018,38.813089],[-2.237466,38.819857],[-2.230856,38.824031],[-2.227595,38.828371],[-2.222935,38.829908],[-2.220224,38.833449],[-2.21239,38.838578],[-2.205698,38.840417],[-2.198591,38.844315],[-2.193113,38.853919],[-2.187442,38.851369]]]]}}
]
}
