{
"type": "FeatureCollection",
"name": "codigo_03021",
"crs": { "type": "name", "properties": { "name": "urn:ogc:def:crs:OGC:1.3:CRS84" } },
"xy_coordinate_resolution": 1e-15,
"features": [
{"type":"Feature","properties":{"fid":1339,"cartodb_id":159,"comautonom":"Comunitat Valenciana","cod_ccaa":"10","provincia":"Alicante","cod_prov":"03","texto":"Banyeres de Mariola","codigo":"03021"},"geometry":{"type":"MultiPolygon","coordinates":[[[[-0.734931,38.759445],[-0.731994,38.756262],[-0.736025,38.753592],[-0.733289,38.751701],[-0.722215,38.753675],[-0.717193,38.750576],[-0.712856,38.742968],[-0.708385,38.739231],[-0.707189,38.733819],[-0.688785,38.741268],[-0.686772,38.737688],[-0.677571,38.729107],[-0.674999,38.7293],[-0.671058,38.731645],[-0.653195,38.730548],[-0.64344,38.727766],[-0.643555,38.718335],[-0.640012,38.707172],[-0.642469,38.70414],[-0.63958,38.701424],[-0.638116,38.697682],[-0.629472,38.689624],[-0.6287,38.686554],[-0.618051,38.686653],[-0.621774,38.68116],[-0.634673,38.672727],[-0.634419,38.669974],[-0.641096,38.665802],[-0.645484,38.6648],[-0.647762,38.66682],[-0.647874,38.670074],[-0.659015,38.667136],[-0.666416,38.659706],[-0.675681,38.657124],[-0.678431,38.658089],[-0.692763,38.685917],[-0.711639,38.70793],[-0.713286,38.710405],[-0.717119,38.713525],[-0.725851,38.725742],[-0.733675,38.741301],[-0.742823,38.75475],[-0.74336,38.755635],[-0.745751,38.758636],[-0.744788,38.759258],[-0.737159,38.756668],[-0.734931,38.759445]]]]}}
]
}
