{
"type": "FeatureCollection",
"name": "codigo_03057",
"crs": { "type": "name", "properties": { "name": "urn:ogc:def:crs:OGC:1.3:CRS84" } },
"xy_coordinate_resolution": 1e-15,
"features": [
{"type":"Feature","properties":{"fid":1371,"cartodb_id":195,"comautonom":"Comunitat Valenciana","cod_ccaa":"10","provincia":"Alicante","cod_prov":"03","texto":"Confrides","codigo":"03057"},"geometry":{"type":"MultiPolygon","coordinates":[[[[-0.238649,38.71427],[-0.240532,38.713738],[-0.241232,38.710808],[-0.239401,38.708774],[-0.238539,38.70369],[-0.240167,38.702305],[-0.23935,38.695159],[-0.245297,38.688768],[-0.247837,38.683107],[-0.249653,38.675608],[-0.257785,38.665213],[-0.261628,38.652726],[-0.261107,38.650128],[-0.254968,38.649002],[-0.255138,38.644573],[-0.247043,38.63904],[-0.258128,38.639364],[-0.264343,38.64087],[-0.271711,38.640465],[-0.278281,38.643511],[-0.290056,38.643523],[-0.289843,38.641878],[-0.29309,38.640467],[-0.299217,38.640969],[-0.303567,38.63924],[-0.302988,38.640579],[-0.308334,38.64354],[-0.309397,38.642744],[-0.305616,38.650144],[-0.310838,38.663806],[-0.308216,38.673053],[-0.311044,38.673641],[-0.312678,38.676669],[-0.30223,38.678501],[-0.302963,38.680725],[-0.309126,38.682804],[-0.307192,38.699734],[-0.280967,38.712443],[-0.257107,38.718444],[-0.247505,38.716029],[-0.241451,38.715859],[-0.238649,38.71427]]]]}}
]
}
