{
"type": "FeatureCollection",
"name": "codigo_03131",
"crs": { "type": "name", "properties": { "name": "urn:ogc:def:crs:OGC:1.3:CRS84" } },
"xy_coordinate_resolution": 1e-15,
"features": [
{"type":"Feature","properties":{"fid":1436,"cartodb_id":266,"comautonom":"Comunitat Valenciana","cod_ccaa":"10","provincia":"Alicante","cod_prov":"03","texto":"Tormos","codigo":"03131"},"geometry":{"type":"MultiPolygon","coordinates":[[[[-0.040828,38.802707],[-0.042959,38.807148],[-0.040272,38.806692],[-0.037559,38.80575],[-0.03641,38.803477],[-0.040828,38.802707]]],[[[-0.066178,38.806428],[-0.05804,38.808898],[-0.055414,38.811157],[-0.050757,38.807634],[-0.046066,38.807191],[-0.044994,38.807506],[-0.043597,38.805092],[-0.049073,38.803231],[-0.050909,38.803673],[-0.050592,38.802431],[-0.051763,38.802226],[-0.052718,38.803647],[-0.058434,38.80126],[-0.060638,38.797216],[-0.064642,38.797857],[-0.071352,38.793963],[-0.074487,38.796113],[-0.077859,38.794441],[-0.086084,38.796034],[-0.087227,38.799063],[-0.093307,38.802421],[-0.096974,38.806251],[-0.092527,38.808033],[-0.089098,38.813614],[-0.085929,38.81594],[-0.076215,38.80876],[-0.066178,38.806428]]]]}}
]
}
