{
"type": "FeatureCollection",
"name": "codigo_03061",
"crs": { "type": "name", "properties": { "name": "urn:ogc:def:crs:OGC:1.3:CRS84" } },
"xy_coordinate_resolution": 1e-15,
"features": [
{"type":"Feature","properties":{"fid":1376,"cartodb_id":199,"comautonom":"Comunitat Valenciana","cod_ccaa":"10","provincia":"Alicante","cod_prov":"03","texto":"Daya Nueva","codigo":"03061"},"geometry":{"type":"MultiPolygon","coordinates":[[[[-0.751588,38.117186],[-0.742132,38.110156],[-0.742879,38.106989],[-0.749279,38.098002],[-0.753224,38.098023],[-0.761862,38.098233],[-0.775037,38.099214],[-0.778519,38.100929],[-0.779228,38.106916],[-0.776105,38.114382],[-0.77754,38.114805],[-0.78046,38.125737],[-0.751588,38.117186]]]]}}
]
}
