{
"type": "FeatureCollection",
"name": "codigo_03044",
"crs": { "type": "name", "properties": { "name": "urn:ogc:def:crs:OGC:1.3:CRS84" } },
"xy_coordinate_resolution": 1e-15,
"features": [
{"type":"Feature","properties":{"fid":1358,"cartodb_id":182,"comautonom":"Comunitat Valenciana","cod_ccaa":"10","provincia":"Alicante","cod_prov":"03","texto":"Bigastro","codigo":"03044"},"geometry":{"type":"MultiPolygon","coordinates":[[[[-0.880854,38.061089],[-0.87444,38.05626],[-0.88016,38.054327],[-0.885307,38.055285],[-0.888663,38.057472],[-0.886858,38.061549],[-0.882083,38.061553],[-0.880854,38.061089]]],[[[-0.893984,38.072986],[-0.893179,38.064519],[-0.891091,38.064977],[-0.891049,38.062084],[-0.88966,38.060851],[-0.892491,38.057117],[-0.892599,38.054938],[-0.888611,38.051343],[-0.884714,38.044992],[-0.890718,38.04465],[-0.893284,38.046552],[-0.896595,38.046332],[-0.899338,38.05359],[-0.902163,38.054046],[-0.902541,38.060775],[-0.906077,38.06146],[-0.908289,38.064221],[-0.907795,38.066357],[-0.911566,38.066433],[-0.909574,38.07194],[-0.907245,38.073268],[-0.899762,38.072242],[-0.893984,38.072986]]]]}}
]
}
