{
"type": "FeatureCollection",
"name": "codigo_02070",
"crs": { "type": "name", "properties": { "name": "urn:ogc:def:crs:OGC:1.3:CRS84" } },
"xy_coordinate_resolution": 1e-15,
"features": [
{"type":"Feature","properties":{"fid":1270,"cartodb_id":121,"comautonom":"Castilla - La Mancha","cod_ccaa":"08","provincia":"Albacete","cod_prov":"02","texto":"Salobre","codigo":"02070"},"geometry":{"type":"MultiPolygon","coordinates":[[[[-2.550583,38.615888],[-2.553962,38.613792],[-2.550534,38.605389],[-2.533748,38.595762],[-2.530874,38.591064],[-2.525508,38.58815],[-2.520176,38.581811],[-2.517326,38.582249],[-2.514296,38.580443],[-2.520404,38.571808],[-2.523866,38.569038],[-2.524871,38.559444],[-2.521551,38.554672],[-2.508168,38.543055],[-2.505386,38.538762],[-2.504027,38.53115],[-2.500597,38.527837],[-2.500144,38.521978],[-2.496933,38.520261],[-2.502832,38.516564],[-2.512843,38.516922],[-2.516144,38.515692],[-2.518365,38.516296],[-2.520922,38.514684],[-2.523945,38.515516],[-2.525391,38.520614],[-2.529963,38.526724],[-2.534741,38.529456],[-2.540414,38.528604],[-2.545418,38.531823],[-2.548895,38.53171],[-2.55341,38.534449],[-2.560733,38.541588],[-2.559767,38.543747],[-2.562664,38.55039],[-2.565313,38.552698],[-2.565745,38.557143],[-2.572953,38.562892],[-2.570743,38.569643],[-2.571243,38.582036],[-2.569413,38.588653],[-2.584721,38.594188],[-2.590457,38.599219],[-2.592595,38.608995],[-2.591786,38.611903],[-2.565305,38.63933],[-2.5611,38.641234],[-2.557565,38.640472],[-2.552042,38.636171],[-2.543095,38.632008],[-2.543442,38.629865],[-2.549032,38.625173],[-2.546271,38.62026],[-2.550583,38.615888]]]]}}
]
}
