{
"type": "FeatureCollection",
"name": "codigo_02048",
"crs": { "type": "name", "properties": { "name": "urn:ogc:def:crs:OGC:1.3:CRS84" } },
"xy_coordinate_resolution": 1e-15,
"features": [
{"type":"Feature","properties":{"fid":1296,"cartodb_id":99,"comautonom":"Castilla - La Mancha","cod_ccaa":"08","provincia":"Albacete","cod_prov":"02","texto":"Minaya","codigo":"02048"},"geometry":{"type":"MultiPolygon","coordinates":[[[[-2.321191,39.283739],[-2.319923,39.278172],[-2.314556,39.276834],[-2.30183,39.263612],[-2.300253,39.259079],[-2.302608,39.25184],[-2.297511,39.241167],[-2.291801,39.235105],[-2.288677,39.226661],[-2.284563,39.217616],[-2.27453,39.206488],[-2.268012,39.195085],[-2.255362,39.140733],[-2.249177,39.126042],[-2.265811,39.146242],[-2.291792,39.172705],[-2.304325,39.181278],[-2.327905,39.19149],[-2.339896,39.19829],[-2.344235,39.201117],[-2.371288,39.228488],[-2.374077,39.232783],[-2.369276,39.237046],[-2.364723,39.244707],[-2.361091,39.246553],[-2.361467,39.248528],[-2.359617,39.251843],[-2.361158,39.257005],[-2.34989,39.278542],[-2.344163,39.282159],[-2.329192,39.28611],[-2.321191,39.283739]]]]}}
]
}
