{
"type": "FeatureCollection",
"name": "codigo_03051",
"crs": { "type": "name", "properties": { "name": "urn:ogc:def:crs:OGC:1.3:CRS84" } },
"xy_coordinate_resolution": 1e-15,
"features": [
{"type":"Feature","properties":{"fid":1367,"cartodb_id":189,"comautonom":"Comunitat Valenciana","cod_ccaa":"10","provincia":"Alicante","cod_prov":"03","texto":"Campo de Mirra/Camp de Mirra (el)","codigo":"03051"},"geometry":{"type":"MultiPolygon","coordinates":[[[[-0.807747,38.736642],[-0.806638,38.735315],[-0.801059,38.737165],[-0.800334,38.729664],[-0.796547,38.722276],[-0.791055,38.718361],[-0.789376,38.710139],[-0.786255,38.703953],[-0.786997,38.696308],[-0.785456,38.693711],[-0.776584,38.696183],[-0.772535,38.6866],[-0.767754,38.679923],[-0.770239,38.675419],[-0.775454,38.671798],[-0.77833,38.671735],[-0.796998,38.661898],[-0.805464,38.664661],[-0.794282,38.67137],[-0.796376,38.676915],[-0.800273,38.679908],[-0.804548,38.685962],[-0.808043,38.684838],[-0.817334,38.705547],[-0.816748,38.706653],[-0.842657,38.732246],[-0.837559,38.736495],[-0.834622,38.732431],[-0.831677,38.732439],[-0.824117,38.736281],[-0.817417,38.737949],[-0.81038,38.738196],[-0.807747,38.736642]]]]}}
]
}
