{
"type": "FeatureCollection",
"name": "codigo_02049",
"crs": { "type": "name", "properties": { "name": "urn:ogc:def:crs:OGC:1.3:CRS84" } },
"xy_coordinate_resolution": 1e-15,
"features": [
{"type":"Feature","properties":{"fid":1288,"cartodb_id":100,"comautonom":"Castilla - La Mancha","cod_ccaa":"08","provincia":"Albacete","cod_prov":"02","texto":"Molinicos","codigo":"02049"},"geometry":{"type":"MultiPolygon","coordinates":[[[[-2.302691,38.540327],[-2.298958,38.531221],[-2.29789,38.532521],[-2.280652,38.536463],[-2.276705,38.536475],[-2.274782,38.537148],[-2.276059,38.534542],[-2.27886,38.533226],[-2.277095,38.526167],[-2.280202,38.524114],[-2.275933,38.521943],[-2.270439,38.52071],[-2.247975,38.524326],[-2.243775,38.522289],[-2.227834,38.520797],[-2.228347,38.518944],[-2.225402,38.516564],[-2.235611,38.51436],[-2.233485,38.511507],[-2.211337,38.507305],[-2.211103,38.512972],[-2.201565,38.507338],[-2.190489,38.502963],[-2.189371,38.501405],[-2.185136,38.500646],[-2.178649,38.504413],[-2.173581,38.505278],[-2.173323,38.495751],[-2.184006,38.495177],[-2.211085,38.489406],[-2.22238,38.484074],[-2.222718,38.480301],[-2.220302,38.47795],[-2.219748,38.474045],[-2.217827,38.471509],[-2.223866,38.469584],[-2.222414,38.468097],[-2.223088,38.464082],[-2.21506,38.458125],[-2.215823,38.454391],[-2.207357,38.453018],[-2.20748,38.452235],[-2.210373,38.444477],[-2.213309,38.443127],[-2.223106,38.432558],[-2.234484,38.429254],[-2.250404,38.428545],[-2.260016,38.430878],[-2.280006,38.440311],[-2.291661,38.449466],[-2.296215,38.448998],[-2.300202,38.450302],[-2.301036,38.448243],[-2.305433,38.447404],[-2.31836,38.449733],[-2.324485,38.452877],[-2.332577,38.45159],[-2.354606,38.455156],[-2.356752,38.451013],[-2.364111,38.452062],[-2.365371,38.454791],[-2.363782,38.458252],[-2.356453,38.465214],[-2.353969,38.466147],[-2.351911,38.469425],[-2.352951,38.476126],[-2.348058,38.480957],[-2.347692,38.483379],[-2.354058,38.485703],[-2.36323,38.483122],[-2.376133,38.48393],[-2.376219,38.495213],[-2.374582,38.500143],[-2.371446,38.503353],[-2.371508,38.513338],[-2.373456,38.51498],[-2.383151,38.515914],[-2.389664,38.520301],[-2.392119,38.525667],[-2.388415,38.526918],[-2.37396,38.530825],[-2.369463,38.536073],[-2.360988,38.539434],[-2.360286,38.541043],[-2.353946,38.544279],[-2.351503,38.544095],[-2.34223,38.553055],[-2.33649,38.554464],[-2.33336,38.557898],[-2.330516,38.558783],[-2.324225,38.55407],[-2.321557,38.553442],[-2.313049,38.557438],[-2.304379,38.555594],[-2.299341,38.556744],[-2.294049,38.552144],[-2.291881,38.546219],[-2.292718,38.545152],[-2.293951,38.544546],[-2.295781,38.543899],[-2.302691,38.540327]],[[-2.29493,38.5442],[-2.296082,38.543793],[-2.295781,38.543899],[-2.29493,38.5442]]]]}}
]
}
