{
"type": "FeatureCollection",
"name": "codigo_02010",
"crs": { "type": "name", "properties": { "name": "urn:ogc:def:crs:OGC:1.3:CRS84" } },
"xy_coordinate_resolution": 1e-15,
"features": [
{"type":"Feature","properties":{"fid":1262,"cartodb_id":61,"comautonom":"Castilla - La Mancha","cod_ccaa":"08","provincia":"Albacete","cod_prov":"02","texto":"Alpera","codigo":"02010"},"geometry":{"type":"MultiPolygon","coordinates":[[[[-1.26675,39.05102],[-1.263903,39.045094],[-1.259257,39.041348],[-1.252046,39.039546],[-1.239548,39.030555],[-1.226538,39.024672],[-1.208597,39.005053],[-1.201812,38.993],[-1.193263,38.98821],[-1.174775,38.967685],[-1.160888,38.954816],[-1.15453,38.939677],[-1.152731,38.939198],[-1.146654,38.929352],[-1.149508,38.926046],[-1.161319,38.923394],[-1.162805,38.921688],[-1.171845,38.920019],[-1.177209,38.92222],[-1.191767,38.924907],[-1.225394,38.935461],[-1.269437,38.93378],[-1.281176,38.935873],[-1.290057,38.938878],[-1.30019,38.950821],[-1.324997,38.957298],[-1.343738,38.966224],[-1.363247,38.978132],[-1.367717,38.983052],[-1.378531,39.003918],[-1.390084,39.032731],[-1.388369,39.032455],[-1.372374,39.040766],[-1.364588,39.043216],[-1.347429,39.045191],[-1.321879,39.050196],[-1.312638,39.050504],[-1.297696,39.050548],[-1.289298,39.054714],[-1.283455,39.055034],[-1.26675,39.05102]]]]}}
]
}
