{
"type": "FeatureCollection",
"name": "codigo_03041",
"crs": { "type": "name", "properties": { "name": "urn:ogc:def:crs:OGC:1.3:CRS84" } },
"xy_coordinate_resolution": 1e-15,
"features": [
{"type":"Feature","properties":{"fid":1356,"cartodb_id":179,"comautonom":"Comunitat Valenciana","cod_ccaa":"10","provincia":"Alicante","cod_prov":"03","texto":"Benissa","codigo":"03041"},"geometry":{"type":"MultiPolygon","coordinates":[[[[0.077738,38.75],[0.079828,38.747774],[0.079932,38.744843],[0.084133,38.733147],[0.088028,38.72853],[0.089017,38.724261],[0.087381,38.723917],[0.088365,38.722485],[0.085734,38.71987],[0.085567,38.713595],[0.083108,38.710958],[0.082736,38.700697],[0.081172,38.696153],[0.079237,38.695267],[0.081678,38.693203],[0.086006,38.697341],[0.095038,38.697525],[0.107986,38.688334],[0.105756,38.682754],[0.108538,38.675077],[0.098485,38.672758],[0.097856,38.670955],[0.094743,38.66992],[0.093384,38.667443],[0.088192,38.664553],[0.088634,38.662028],[0.084869,38.659534],[0.083977,38.662053],[0.081861,38.66146],[0.076168,38.665628],[0.074861,38.670789],[0.069362,38.677366],[0.068443,38.680664],[0.060265,38.680613],[0.050683,38.678809],[0.049826,38.672723],[0.046278,38.67496],[0.044377,38.674289],[0.039331,38.678069],[0.038669,38.674375],[0.044425,38.667297],[0.040989,38.663774],[0.035335,38.662677],[0.033715,38.664026],[0.031952,38.663648],[0.014452,38.653533],[0.000443,38.649308],[-0.006678,38.643401],[-0.044066,38.660956],[-0.036085,38.666691],[-0.024226,38.678258],[-0.021329,38.676965],[-0.011976,38.678573],[-0.012488,38.685325],[-0.006703,38.694762],[-0.007914,38.696325],[-0.001466,38.7007],[0.013803,38.720695],[0.021048,38.722148],[0.021542,38.724585],[0.025897,38.72722],[0.029767,38.734156],[0.034053,38.734504],[0.033203,38.731274],[0.030878,38.729334],[0.034111,38.724187],[0.042025,38.723243],[0.044796,38.720801],[0.05062,38.72082],[0.051256,38.721983],[0.053488,38.720646],[0.055648,38.722499],[0.052761,38.736773],[0.05478,38.741234],[0.050983,38.745792],[0.054215,38.747402],[0.055317,38.749508],[0.055265,38.749657],[0.064742,38.744729],[0.068161,38.748288],[0.071351,38.7497],[0.077738,38.75]]]]}}
]
}
