{
"type": "FeatureCollection",
"name": "codigo_02050",
"crs": { "type": "name", "properties": { "name": "urn:ogc:def:crs:OGC:1.3:CRS84" } },
"xy_coordinate_resolution": 1e-15,
"features": [
{"type":"Feature","properties":{"fid":585,"cartodb_id":101,"comautonom":"Castilla - La Mancha","cod_ccaa":"08","provincia":"Albacete","cod_prov":"02","texto":"Montalvos","codigo":"02050"},"geometry":{"type":"MultiPolygon","coordinates":[[[[-2.000299,39.193852],[-1.9891,39.195531],[-1.984889,39.19444],[-1.982591,39.192411],[-1.994453,39.179917],[-2.00246,39.173714],[-2.005953,39.168166],[-2.037532,39.136705],[-2.066203,39.153355],[-2.056853,39.164544],[-2.065946,39.179782],[-2.063277,39.183743],[-2.044688,39.193558],[-2.037587,39.192058],[-2.030745,39.18773],[-2.014797,39.18474],[-2.010416,39.187523],[-2.005855,39.196504],[-2.000299,39.193852]]]]}}
]
}
