{
"type": "FeatureCollection",
"name": "codigo_03129",
"crs": { "type": "name", "properties": { "name": "urn:ogc:def:crs:OGC:1.3:CRS84" } },
"xy_coordinate_resolution": 1e-15,
"features": [
{"type":"Feature","properties":{"fid":1433,"cartodb_id":264,"comautonom":"Comunitat Valenciana","cod_ccaa":"10","provincia":"Alicante","cod_prov":"03","texto":"Tibi","codigo":"03129"},"geometry":{"type":"MultiPolygon","coordinates":[[[[-0.557101,38.565885],[-0.554726,38.564493],[-0.551783,38.553151],[-0.552642,38.551863],[-0.550335,38.54985],[-0.551771,38.544393],[-0.548168,38.543065],[-0.544944,38.535654],[-0.541202,38.535053],[-0.545126,38.524891],[-0.556947,38.510785],[-0.55364,38.503463],[-0.560311,38.488276],[-0.562129,38.480943],[-0.590124,38.474315],[-0.595059,38.474128],[-0.614759,38.476324],[-0.619686,38.478452],[-0.621485,38.4823],[-0.626465,38.485645],[-0.626748,38.489246],[-0.630398,38.493662],[-0.631374,38.498494],[-0.631434,38.502261],[-0.636497,38.505238],[-0.64067,38.50525],[-0.650869,38.510744],[-0.653814,38.511173],[-0.655271,38.517149],[-0.659881,38.518583],[-0.66037,38.524738],[-0.649361,38.526419],[-0.648642,38.530198],[-0.641594,38.534191],[-0.632824,38.543817],[-0.611666,38.556686],[-0.605528,38.558381],[-0.596725,38.566346],[-0.595066,38.566195],[-0.59261,38.567928],[-0.590533,38.567561],[-0.588847,38.569229],[-0.579536,38.565595],[-0.577306,38.567081],[-0.573618,38.566148],[-0.567112,38.569878],[-0.562104,38.571009],[-0.560487,38.573011],[-0.557101,38.565885]]]]}}
]
}
