{
"type": "FeatureCollection",
"name": "codigo_03115",
"crs": { "type": "name", "properties": { "name": "urn:ogc:def:crs:OGC:1.3:CRS84" } },
"xy_coordinate_resolution": 1e-15,
"features": [
{"type":"Feature","properties":{"fid":594,"cartodb_id":251,"comautonom":"Comunitat Valenciana","cod_ccaa":"10","provincia":"Alicante","cod_prov":"03","texto":"Sagra","codigo":"03115"},"geometry":{"type":"MultiPolygon","coordinates":[[[[-0.046066,38.807191],[-0.050757,38.807634],[-0.055414,38.811157],[-0.05804,38.808898],[-0.066178,38.806428],[-0.076215,38.80876],[-0.085929,38.81594],[-0.074579,38.826242],[-0.065878,38.837033],[-0.061368,38.832694],[-0.060818,38.824239],[-0.056341,38.818558],[-0.055617,38.815171],[-0.049231,38.81728],[-0.046066,38.807191]]]]}}
]
}
