{
"type": "FeatureCollection",
"name": "codigo_03083",
"crs": { "type": "name", "properties": { "name": "urn:ogc:def:crs:OGC:1.3:CRS84" } },
"xy_coordinate_resolution": 1e-15,
"features": [
{"type":"Feature","properties":{"fid":1406,"cartodb_id":221,"comautonom":"Comunitat Valenciana","cod_ccaa":"10","provincia":"Alicante","cod_prov":"03","texto":"Jijona/Xixona","codigo":"03083"},"geometry":{"type":"MultiPolygon","coordinates":[[[[-0.467417,38.641833],[-0.464521,38.642509],[-0.459727,38.640027],[-0.460184,38.636514],[-0.450641,38.62799],[-0.444823,38.625917],[-0.44973,38.624852],[-0.449292,38.622311],[-0.451113,38.619882],[-0.458821,38.614617],[-0.455816,38.609632],[-0.452986,38.611724],[-0.449335,38.609455],[-0.44421,38.60145],[-0.447456,38.593466],[-0.442657,38.588937],[-0.444887,38.584959],[-0.445158,38.580559],[-0.442345,38.580254],[-0.439454,38.578281],[-0.432705,38.578295],[-0.414305,38.571898],[-0.408847,38.573669],[-0.404374,38.568795],[-0.403045,38.564909],[-0.397027,38.562802],[-0.39391,38.55921],[-0.395975,38.554129],[-0.394939,38.551682],[-0.399845,38.540682],[-0.411369,38.538902],[-0.420266,38.539684],[-0.428381,38.533141],[-0.431955,38.533598],[-0.432838,38.527806],[-0.431372,38.527098],[-0.432577,38.526115],[-0.430827,38.525653],[-0.434576,38.523438],[-0.434892,38.520679],[-0.432944,38.519663],[-0.432955,38.517411],[-0.435429,38.513627],[-0.437446,38.513995],[-0.439248,38.512656],[-0.43969,38.511819],[-0.438515,38.511667],[-0.441128,38.509103],[-0.448198,38.505392],[-0.445699,38.500832],[-0.448103,38.498993],[-0.448322,38.498304],[-0.448448,38.496685],[-0.448735,38.496366],[-0.451868,38.494317],[-0.463374,38.492486],[-0.480511,38.48335],[-0.494622,38.478382],[-0.499452,38.477936],[-0.502754,38.475583],[-0.505845,38.475342],[-0.513917,38.480281],[-0.524095,38.478298],[-0.524558,38.475803],[-0.527233,38.473994],[-0.532129,38.473232],[-0.537777,38.471658],[-0.541761,38.475526],[-0.554433,38.477026],[-0.562129,38.480943],[-0.560311,38.488276],[-0.55364,38.503463],[-0.556947,38.510785],[-0.545126,38.524891],[-0.541202,38.535053],[-0.544944,38.535654],[-0.548168,38.543065],[-0.551771,38.544393],[-0.550335,38.54985],[-0.552642,38.551863],[-0.551783,38.553151],[-0.554726,38.564493],[-0.557101,38.565885],[-0.560487,38.573011],[-0.556662,38.578842],[-0.558528,38.582719],[-0.557078,38.586879],[-0.567318,38.586885],[-0.574982,38.589756],[-0.570967,38.5917],[-0.564578,38.591189],[-0.543309,38.598466],[-0.537106,38.598903],[-0.531527,38.601876],[-0.513391,38.607366],[-0.495615,38.620249],[-0.491105,38.623117],[-0.486666,38.629509],[-0.484505,38.630552],[-0.483178,38.642516],[-0.473266,38.64669],[-0.468639,38.650852],[-0.466989,38.649437],[-0.468151,38.648724],[-0.467417,38.641833]]]]}}
]
}
