{
"type": "FeatureCollection",
"name": "codigo_03012",
"crs": { "type": "name", "properties": { "name": "urn:ogc:def:crs:OGC:1.3:CRS84" } },
"xy_coordinate_resolution": 1e-15,
"features": [
{"type":"Feature","properties":{"fid":1329,"cartodb_id":150,"comautonom":"Comunitat Valenciana","cod_ccaa":"10","provincia":"Alicante","cod_prov":"03","texto":"Algorfa","codigo":"03012"},"geometry":{"type":"MultiPolygon","coordinates":[[[[-0.801849,38.094159],[-0.795364,38.093544],[-0.792606,38.080739],[-0.788475,38.077453],[-0.787195,38.072284],[-0.783643,38.068748],[-0.781163,38.070098],[-0.775114,38.069965],[-0.772432,38.064435],[-0.769375,38.062278],[-0.76203,38.070293],[-0.75727,38.072374],[-0.752041,38.072256],[-0.745957,38.063993],[-0.743001,38.062639],[-0.742837,38.061302],[-0.739841,38.060497],[-0.73582,38.050453],[-0.736448,38.046726],[-0.740581,38.046472],[-0.740273,38.053891],[-0.741971,38.059087],[-0.749541,38.051537],[-0.757768,38.050829],[-0.7653,38.051621],[-0.770686,38.049867],[-0.771841,38.051601],[-0.770883,38.058783],[-0.772108,38.060113],[-0.778929,38.059927],[-0.782676,38.058105],[-0.780442,38.052837],[-0.780912,38.047439],[-0.790204,38.046181],[-0.800857,38.046967],[-0.806641,38.044831],[-0.813184,38.044385],[-0.813909,38.042606],[-0.817599,38.055723],[-0.815067,38.059992],[-0.816433,38.063496],[-0.812503,38.074903],[-0.812933,38.081128],[-0.809671,38.085357],[-0.810892,38.090318],[-0.806278,38.089808],[-0.806267,38.091682],[-0.803667,38.092075],[-0.801849,38.094159]]]]}}
]
}
