{
"type": "FeatureCollection",
"name": "codigo_03096",
"crs": { "type": "name", "properties": { "name": "urn:ogc:def:crs:OGC:1.3:CRS84" } },
"xy_coordinate_resolution": 1e-15,
"features": [
{"type":"Feature","properties":{"fid":1413,"cartodb_id":233,"comautonom":"Comunitat Valenciana","cod_ccaa":"10","provincia":"Alicante","cod_prov":"03","texto":"Onil","codigo":"03096"},"geometry":{"type":"MultiPolygon","coordinates":[[[[-0.647874,38.670074],[-0.647762,38.66682],[-0.645484,38.6648],[-0.641096,38.665802],[-0.634419,38.669974],[-0.634095,38.66376],[-0.631417,38.663066],[-0.625609,38.663903],[-0.622973,38.665778],[-0.614281,38.657239],[-0.606608,38.657479],[-0.603223,38.652157],[-0.611049,38.648677],[-0.613362,38.633335],[-0.619648,38.616605],[-0.618675,38.611296],[-0.633499,38.607515],[-0.641412,38.608864],[-0.667323,38.608366],[-0.675825,38.609662],[-0.686939,38.607585],[-0.707842,38.608555],[-0.732593,38.596036],[-0.728232,38.603988],[-0.725483,38.612864],[-0.723108,38.614953],[-0.717906,38.625079],[-0.712303,38.630781],[-0.694774,38.640104],[-0.690126,38.648878],[-0.678431,38.658089],[-0.675681,38.657124],[-0.666416,38.659706],[-0.659015,38.667136],[-0.647874,38.670074]]]]}}
]
}
