{
"type": "FeatureCollection",
"name": "codigo_03018",
"crs": { "type": "name", "properties": { "name": "urn:ogc:def:crs:OGC:1.3:CRS84" } },
"xy_coordinate_resolution": 1e-15,
"features": [
{"type":"Feature","properties":{"fid":1336,"cartodb_id":156,"comautonom":"Comunitat Valenciana","cod_ccaa":"10","provincia":"Alicante","cod_prov":"03","texto":"Altea","codigo":"03018"},"geometry":{"type":"MultiPolygon","coordinates":[[[[-0.056206,38.660921],[-0.055861,38.659534],[-0.046545,38.658632],[-0.044066,38.660956],[-0.006678,38.643401],[0.007256,38.63762],[0.006998,38.634744],[0.010109,38.63279],[0.00572,38.630011],[0.005646,38.628517],[0.0022,38.630705],[-0.003718,38.630902],[-0.006481,38.630198],[-0.006507,38.629297],[-0.007899,38.629792],[-0.016674,38.626458],[-0.023168,38.621083],[-0.028648,38.618808],[-0.03221,38.615691],[-0.032969,38.612602],[-0.039302,38.606303],[-0.041774,38.606519],[-0.043134,38.604977],[-0.042399,38.603318],[-0.053749,38.593334],[-0.052854,38.589402],[-0.055441,38.591539],[-0.064021,38.577051],[-0.06811,38.579253],[-0.074407,38.585835],[-0.074324,38.589022],[-0.080075,38.596085],[-0.084857,38.603592],[-0.084073,38.606239],[-0.079707,38.605463],[-0.078079,38.606252],[-0.0811,38.620076],[-0.078132,38.622452],[-0.076343,38.625506],[-0.077772,38.627371],[-0.069338,38.638449],[-0.06188,38.652847],[-0.062852,38.658007],[-0.060517,38.660597],[-0.06004,38.664666],[-0.05876,38.661706],[-0.056206,38.660921]]]]}}
]
}
