{
"type": "FeatureCollection",
"name": "codigo_03073",
"crs": { "type": "name", "properties": { "name": "urn:ogc:def:crs:OGC:1.3:CRS84" } },
"xy_coordinate_resolution": 1e-15,
"features": [
{"type":"Feature","properties":{"fid":1375,"cartodb_id":211,"comautonom":"Comunitat Valenciana","cod_ccaa":"10","provincia":"Alicante","cod_prov":"03","texto":"Gorga","codigo":"03073"},"geometry":{"type":"MultiPolygon","coordinates":[[[[-0.390977,38.731259],[-0.389773,38.730511],[-0.38266,38.732217],[-0.380179,38.731819],[-0.375181,38.730391],[-0.369208,38.725788],[-0.352681,38.728586],[-0.350291,38.732262],[-0.349661,38.729085],[-0.347474,38.729126],[-0.345894,38.726108],[-0.345167,38.722451],[-0.343075,38.722737],[-0.341487,38.721196],[-0.346207,38.717357],[-0.345176,38.716622],[-0.347791,38.715582],[-0.346689,38.714278],[-0.350448,38.711814],[-0.35291,38.712725],[-0.359669,38.708734],[-0.365408,38.70871],[-0.369822,38.709071],[-0.37108,38.711757],[-0.374129,38.711393],[-0.378856,38.716419],[-0.383138,38.715659],[-0.38173,38.7177],[-0.38559,38.719056],[-0.386187,38.717817],[-0.388646,38.71726],[-0.388332,38.720199],[-0.392781,38.720875],[-0.394782,38.719595],[-0.395748,38.722148],[-0.399456,38.717879],[-0.400622,38.719347],[-0.400098,38.722714],[-0.402968,38.722859],[-0.40674,38.726366],[-0.408046,38.72362],[-0.409062,38.723201],[-0.410597,38.725605],[-0.408937,38.728577],[-0.409835,38.729498],[-0.405799,38.731373],[-0.397307,38.735265],[-0.390977,38.731259]]]]}}
]
}
