{
"type": "FeatureCollection",
"name": "codigo_02046",
"crs": { "type": "name", "properties": { "name": "urn:ogc:def:crs:OGC:1.3:CRS84" } },
"xy_coordinate_resolution": 1e-15,
"features": [
{"type":"Feature","properties":{"fid":1293,"cartodb_id":97,"comautonom":"Castilla - La Mancha","cod_ccaa":"08","provincia":"Albacete","cod_prov":"02","texto":"Mahora","codigo":"02046"},"geometry":{"type":"MultiPolygon","coordinates":[[[[-1.720478,39.251701],[-1.713928,39.251863],[-1.70834,39.249414],[-1.702429,39.248834],[-1.689896,39.251658],[-1.681823,39.251405],[-1.678214,39.246093],[-1.670307,39.239579],[-1.665947,39.231807],[-1.656449,39.220137],[-1.654842,39.20845],[-1.657298,39.204181],[-1.65705,39.200141],[-1.651301,39.18227],[-1.649255,39.174236],[-1.649938,39.170586],[-1.647863,39.168363],[-1.647881,39.16621],[-1.657261,39.164795],[-1.658346,39.159465],[-1.66154,39.159492],[-1.667501,39.155749],[-1.672467,39.155085],[-1.679746,39.154465],[-1.691424,39.156939],[-1.699969,39.156107],[-1.70889,39.156846],[-1.712152,39.158207],[-1.713275,39.154381],[-1.711289,39.15161],[-1.712981,39.148962],[-1.720751,39.147399],[-1.72593,39.143166],[-1.738391,39.145203],[-1.744245,39.142041],[-1.74427,39.138662],[-1.748037,39.13699],[-1.756697,39.141931],[-1.753137,39.154165],[-1.74769,39.155873],[-1.746646,39.158637],[-1.741148,39.166453],[-1.761456,39.185917],[-1.781464,39.212033],[-1.773985,39.253034],[-1.772159,39.27336],[-1.770919,39.269328],[-1.759235,39.267312],[-1.749062,39.26186],[-1.723786,39.252062],[-1.720478,39.251701]]]]}}
]
}
