{
"type": "FeatureCollection",
"name": "codigo_03070",
"crs": { "type": "name", "properties": { "name": "urn:ogc:def:crs:OGC:1.3:CRS84" } },
"xy_coordinate_resolution": 1e-15,
"features": [
{"type":"Feature","properties":{"fid":589,"cartodb_id":208,"comautonom":"Comunitat Valenciana","cod_ccaa":"10","provincia":"Alicante","cod_prov":"03","texto":"Formentera del Segura","codigo":"03070"},"geometry":{"type":"MultiPolygon","coordinates":[[[[-0.723153,38.112393],[-0.718842,38.111292],[-0.713416,38.112294],[-0.719954,38.104501],[-0.72109,38.101333],[-0.725704,38.09707],[-0.72349,38.090512],[-0.724641,38.088345],[-0.728952,38.087906],[-0.731813,38.085366],[-0.734223,38.087079],[-0.735141,38.08615],[-0.73652,38.084312],[-0.739465,38.086054],[-0.74484,38.082895],[-0.748397,38.083657],[-0.74921,38.08206],[-0.753113,38.083396],[-0.753224,38.098023],[-0.749279,38.098002],[-0.72837,38.097491],[-0.723153,38.112393]]]]}}
]
}
