{
"type": "FeatureCollection",
"name": "codigo_03086",
"crs": { "type": "name", "properties": { "name": "urn:ogc:def:crs:OGC:1.3:CRS84" } },
"xy_coordinate_resolution": 1e-15,
"features": [
{"type":"Feature","properties":{"fid":1403,"cartodb_id":224,"comautonom":"Comunitat Valenciana","cod_ccaa":"10","provincia":"Alicante","cod_prov":"03","texto":"Millena","codigo":"03086"},"geometry":{"type":"MultiPolygon","coordinates":[[[[-0.373632,38.747241],[-0.361533,38.750572],[-0.359419,38.749245],[-0.350291,38.732262],[-0.352681,38.728586],[-0.369208,38.725788],[-0.375181,38.730391],[-0.380179,38.731819],[-0.38266,38.732217],[-0.389773,38.730511],[-0.390977,38.731259],[-0.397307,38.735265],[-0.405799,38.731373],[-0.406,38.732503],[-0.407269,38.732397],[-0.401595,38.740739],[-0.401154,38.747829],[-0.398021,38.753318],[-0.40214,38.761564],[-0.381393,38.750541],[-0.380964,38.747784],[-0.373632,38.747241]]]]}}
]
}
