{
"type": "FeatureCollection",
"name": "codigo_03123",
"crs": { "type": "name", "properties": { "name": "urn:ogc:def:crs:OGC:1.3:CRS84" } },
"xy_coordinate_resolution": 1e-15,
"features": [
{"type":"Feature","properties":{"fid":1409,"cartodb_id":259,"comautonom":"Comunitat Valenciana","cod_ccaa":"10","provincia":"Alicante","cod_prov":"03","texto":"Sax","codigo":"03123"},"geometry":{"type":"MultiPolygon","coordinates":[[[[-0.762267,38.539635],[-0.768628,38.535755],[-0.778384,38.526282],[-0.781056,38.525567],[-0.781682,38.523876],[-0.783754,38.523996],[-0.793624,38.520065],[-0.793438,38.516394],[-0.796002,38.513775],[-0.806332,38.510626],[-0.823466,38.511379],[-0.839217,38.508917],[-0.85578,38.513029],[-0.862924,38.521188],[-0.867479,38.529282],[-0.866204,38.538684],[-0.864688,38.555794],[-0.861101,38.561443],[-0.844894,38.571497],[-0.827588,38.579395],[-0.823543,38.582221],[-0.82127,38.587522],[-0.813943,38.591403],[-0.806476,38.593057],[-0.799762,38.599734],[-0.795192,38.591684],[-0.785242,38.582412],[-0.774451,38.57535],[-0.749212,38.551747],[-0.762267,38.539635]]]]}}
]
}
