{
"type": "FeatureCollection",
"name": "codigo_03067",
"crs": { "type": "name", "properties": { "name": "urn:ogc:def:crs:OGC:1.3:CRS84" } },
"xy_coordinate_resolution": 1e-15,
"features": [
{"type":"Feature","properties":{"fid":1385,"cartodb_id":205,"comautonom":"Comunitat Valenciana","cod_ccaa":"10","provincia":"Alicante","cod_prov":"03","texto":"Facheca","codigo":"03067"},"geometry":{"type":"MultiPolygon","coordinates":[[[[-0.249164,38.747412],[-0.257272,38.737881],[-0.259354,38.725254],[-0.257107,38.718444],[-0.280967,38.712443],[-0.290159,38.726027],[-0.296922,38.728472],[-0.297653,38.73075],[-0.301412,38.734161],[-0.304111,38.734278],[-0.303364,38.734882],[-0.296661,38.736313],[-0.294368,38.739161],[-0.292169,38.739218],[-0.292199,38.737498],[-0.288865,38.738349],[-0.28802,38.740329],[-0.285943,38.741389],[-0.285086,38.74063],[-0.282618,38.743834],[-0.28161,38.742505],[-0.280231,38.74277],[-0.279343,38.74556],[-0.275225,38.748554],[-0.267543,38.749069],[-0.264627,38.745595],[-0.261133,38.744918],[-0.25521,38.746959],[-0.249164,38.747412]]]]}}
]
}
