{
"type": "FeatureCollection",
"name": "codigo_02062",
"crs": { "type": "name", "properties": { "name": "urn:ogc:def:crs:OGC:1.3:CRS84" } },
"xy_coordinate_resolution": 1e-15,
"features": [
{"type":"Feature","properties":{"fid":1301,"cartodb_id":113,"comautonom":"Castilla - La Mancha","cod_ccaa":"08","provincia":"Albacete","cod_prov":"02","texto":"Povedilla","codigo":"02062"},"geometry":{"type":"MultiPolygon","coordinates":[[[[-2.655557,38.671434],[-2.654684,38.680767],[-2.649025,38.692997],[-2.649711,38.700822],[-2.646752,38.715484],[-2.641824,38.721146],[-2.637891,38.734625],[-2.640156,38.741742],[-2.643458,38.746384],[-2.662987,38.753525],[-2.666058,38.758842],[-2.664182,38.761234],[-2.647499,38.755282],[-2.614432,38.747184],[-2.588371,38.744626],[-2.596345,38.734389],[-2.600834,38.725781],[-2.59616,38.720376],[-2.586154,38.718025],[-2.583382,38.716032],[-2.580977,38.716159],[-2.577363,38.714587],[-2.576477,38.712808],[-2.577543,38.695825],[-2.588173,38.679056],[-2.588346,38.676857],[-2.594687,38.677754],[-2.604275,38.673578],[-2.602576,38.669048],[-2.60397,38.666413],[-2.608676,38.663437],[-2.6177,38.658861],[-2.625185,38.658399],[-2.628081,38.660688],[-2.632721,38.661415],[-2.640595,38.6659],[-2.650266,38.66739],[-2.655557,38.671434]]]]}}
]
}
