{
"type": "FeatureCollection",
"name": "codigo_03098",
"crs": { "type": "name", "properties": { "name": "urn:ogc:def:crs:OGC:1.3:CRS84" } },
"xy_coordinate_resolution": 1e-15,
"features": [
{"type":"Feature","properties":{"fid":1416,"cartodb_id":235,"comautonom":"Comunitat Valenciana","cod_ccaa":"10","provincia":"Alicante","cod_prov":"03","texto":"Orxeta","codigo":"03098"},"geometry":{"type":"MultiPolygon","coordinates":[[[[-0.245747,38.593736],[-0.240954,38.591469],[-0.245612,38.575956],[-0.24498,38.562769],[-0.248814,38.559121],[-0.251222,38.550744],[-0.262536,38.542549],[-0.260813,38.540491],[-0.264617,38.540922],[-0.264906,38.538127],[-0.269569,38.538894],[-0.288256,38.529733],[-0.294568,38.529654],[-0.297761,38.527998],[-0.302165,38.528946],[-0.307458,38.527248],[-0.308092,38.52592],[-0.313568,38.525488],[-0.316071,38.523554],[-0.326714,38.519869],[-0.328768,38.515799],[-0.331857,38.516302],[-0.335748,38.519319],[-0.337735,38.523292],[-0.340362,38.524523],[-0.342467,38.52777],[-0.337374,38.527474],[-0.328837,38.532838],[-0.32404,38.538162],[-0.308165,38.542753],[-0.301993,38.540899],[-0.298151,38.541801],[-0.29753,38.544598],[-0.290925,38.548788],[-0.286275,38.550103],[-0.28422,38.560192],[-0.28465,38.564914],[-0.281104,38.566732],[-0.279695,38.569403],[-0.272748,38.571619],[-0.27003,38.574583],[-0.268501,38.578593],[-0.271386,38.579994],[-0.271046,38.585346],[-0.265812,38.588657],[-0.257577,38.590869],[-0.250239,38.595751],[-0.245747,38.593736]]]]}}
]
}
