{
"type": "FeatureCollection",
"name": "codigo_03007",
"crs": { "type": "name", "properties": { "name": "urn:ogc:def:crs:OGC:1.3:CRS84" } },
"xy_coordinate_resolution": 1e-15,
"features": [
{"type":"Feature","properties":{"fid":61,"cartodb_id":145,"comautonom":"Comunitat Valenciana","cod_ccaa":"10","provincia":"Alicante","cod_prov":"03","texto":"Alcocer de Planes","codigo":"03007"},"geometry":{"type":"MultiPolygon","coordinates":[[[[-0.412841,38.764441],[-0.412937,38.763389],[-0.421158,38.763282],[-0.417655,38.765331],[-0.41264,38.765878],[-0.413067,38.767762],[-0.408558,38.768626],[-0.405344,38.766185],[-0.40826,38.765507],[-0.412841,38.764441]]],[[[-0.387822,38.806085],[-0.384539,38.789119],[-0.389365,38.789686],[-0.403165,38.785994],[-0.407642,38.786309],[-0.410465,38.787813],[-0.413076,38.786637],[-0.415593,38.787359],[-0.418242,38.79913],[-0.415757,38.800337],[-0.414536,38.79876],[-0.411029,38.798971],[-0.390398,38.806188],[-0.387822,38.806085]]]]}}
]
}
