{
"type": "FeatureCollection",
"name": "codigo_03904",
"crs": { "type": "name", "properties": { "name": "urn:ogc:def:crs:OGC:1.3:CRS84" } },
"xy_coordinate_resolution": 1e-15,
"features": [
{"type":"Feature","properties":{"fid":596,"cartodb_id":279,"comautonom":"Comunitat Valenciana","cod_ccaa":"10","provincia":"Alicante","cod_prov":"03","texto":"San Isidro","codigo":"03904"},"geometry":{"type":"MultiPolygon","coordinates":[[[[-0.83212,38.199403],[-0.824704,38.184605],[-0.821366,38.170963],[-0.823751,38.169071],[-0.827747,38.17174],[-0.832164,38.172903],[-0.836688,38.168895],[-0.838384,38.162492],[-0.84032,38.162636],[-0.842027,38.164362],[-0.848966,38.167093],[-0.845869,38.168785],[-0.85018,38.172008],[-0.846039,38.175393],[-0.857879,38.177655],[-0.85116,38.183308],[-0.843695,38.192957],[-0.833796,38.20257],[-0.83212,38.199403]]]]}}
]
}
