{
"type": "FeatureCollection",
"name": "codigo_03047",
"crs": { "type": "name", "properties": { "name": "urn:ogc:def:crs:OGC:1.3:CRS84" } },
"xy_coordinate_resolution": 1e-15,
"features": [
{"type":"Feature","properties":{"fid":1363,"cartodb_id":185,"comautonom":"Comunitat Valenciana","cod_ccaa":"10","provincia":"Alicante","cod_prov":"03","texto":"Calp","codigo":"03047"},"geometry":{"type":"MultiPolygon","coordinates":[[[[0.068443,38.680664],[0.069362,38.677366],[0.074861,38.670789],[0.076168,38.665628],[0.081861,38.66146],[0.083977,38.662053],[0.084869,38.659534],[0.078,38.652877],[0.079135,38.650955],[0.075131,38.647331],[0.07345,38.642141],[0.073868,38.640887],[0.07562,38.64103],[0.076706,38.636091],[0.080276,38.634952],[0.082875,38.632343],[0.082502,38.631164],[0.075213,38.63286],[0.073379,38.632143],[0.071612,38.633261],[0.071235,38.635731],[0.06996,38.635719],[0.071584,38.637433],[0.07037,38.639411],[0.055121,38.641955],[0.045929,38.641087],[0.039292,38.63707],[0.034886,38.635825],[0.034317,38.633794],[0.030346,38.63114],[0.031299,38.628945],[0.029522,38.628468],[0.030573,38.6259],[0.010109,38.63279],[0.006998,38.634744],[0.007256,38.63762],[-0.006678,38.643401],[0.000443,38.649308],[0.014452,38.653533],[0.031952,38.663648],[0.033715,38.664026],[0.035335,38.662677],[0.040989,38.663774],[0.044425,38.667297],[0.038669,38.674375],[0.039331,38.678069],[0.044377,38.674289],[0.046278,38.67496],[0.049826,38.672723],[0.050683,38.678809],[0.060265,38.680613],[0.068443,38.680664]]]]}}
]
}
