{
"type": "FeatureCollection",
"name": "codigo_03903",
"crs": { "type": "name", "properties": { "name": "urn:ogc:def:crs:OGC:1.3:CRS84" } },
"xy_coordinate_resolution": 1e-15,
"features": [
{"type":"Feature","properties":{"fid":71,"cartodb_id":278,"comautonom":"Comunitat Valenciana","cod_ccaa":"10","provincia":"Alicante","cod_prov":"03","texto":"Montesinos (Los)","codigo":"03903"},"geometry":{"type":"MultiPolygon","coordinates":[[[[-0.772108,38.060113],[-0.770883,38.058783],[-0.771841,38.051601],[-0.770686,38.049867],[-0.7653,38.051621],[-0.757768,38.050829],[-0.749541,38.051537],[-0.741971,38.059087],[-0.740273,38.053891],[-0.740581,38.046472],[-0.740243,38.043392],[-0.734937,38.038082],[-0.72383,38.032515],[-0.717513,38.030482],[-0.72941,38.025197],[-0.736357,38.019727],[-0.738855,38.020712],[-0.739316,38.019063],[-0.74208,38.01771],[-0.749793,38.020642],[-0.742458,38.017276],[-0.749172,38.010781],[-0.761881,38.00559],[-0.776493,37.999542],[-0.78142,38.000067],[-0.797845,38.008324],[-0.80812,38.016257],[-0.810411,38.022337],[-0.815686,38.038043],[-0.813909,38.042606],[-0.813184,38.044385],[-0.806641,38.044831],[-0.800857,38.046967],[-0.790204,38.046181],[-0.780912,38.047439],[-0.780442,38.052837],[-0.782676,38.058105],[-0.778929,38.059927],[-0.772108,38.060113]]]]}}
]
}
