{
"type": "FeatureCollection",
"name": "codigo_03140",
"crs": { "type": "name", "properties": { "name": "urn:ogc:def:crs:OGC:1.3:CRS84" } },
"xy_coordinate_resolution": 1e-15,
"features": [
{"type":"Feature","properties":{"fid":1447,"cartodb_id":275,"comautonom":"Comunitat Valenciana","cod_ccaa":"10","provincia":"Alicante","cod_prov":"03","texto":"Villena","codigo":"03140"},"geometry":{"type":"MultiPolygon","coordinates":[[[[-0.904989,38.76708],[-0.887827,38.769095],[-0.885129,38.771587],[-0.882537,38.772045],[-0.861693,38.77089],[-0.860173,38.769367],[-0.84119,38.746194],[-0.83575,38.741174],[-0.837559,38.736495],[-0.842657,38.732246],[-0.847419,38.71462],[-0.8309,38.674435],[-0.822693,38.662713],[-0.824498,38.661151],[-0.82432,38.659436],[-0.821385,38.652407],[-0.811601,38.639395],[-0.804359,38.625977],[-0.798494,38.607431],[-0.799762,38.599734],[-0.806476,38.593057],[-0.813943,38.591403],[-0.82127,38.587522],[-0.823543,38.582221],[-0.827588,38.579395],[-0.844894,38.571497],[-0.861101,38.561443],[-0.864688,38.555794],[-0.866204,38.538684],[-0.872489,38.537176],[-0.888585,38.544992],[-0.896974,38.551649],[-0.906038,38.548928],[-0.92424,38.537196],[-0.947774,38.52578],[-0.950342,38.522581],[-0.959554,38.517254],[-0.96796,38.515652],[-0.979886,38.51038],[-0.985693,38.505714],[-1.002931,38.500648],[-1.013877,38.497058],[-1.017578,38.502176],[-1.026062,38.522819],[-1.015886,38.537091],[-1.009471,38.557941],[-1.001569,38.572675],[-1.012044,38.606121],[-1.01592,38.635057],[-1.023964,38.639987],[-1.026922,38.655503],[-1.014904,38.657296],[-1.010844,38.656569],[-1.009085,38.658269],[-0.991546,38.655068],[-0.962466,38.656925],[-0.929973,38.679899],[-0.915793,38.695965],[-0.927541,38.706815],[-0.928649,38.709466],[-0.927728,38.71308],[-0.934627,38.723123],[-0.937951,38.725912],[-0.939509,38.731742],[-0.945912,38.736721],[-0.947123,38.742211],[-0.955672,38.757913],[-0.961429,38.774792],[-0.950009,38.77606],[-0.928938,38.783834],[-0.914907,38.781412],[-0.917556,38.776207],[-0.913225,38.769606],[-0.904989,38.76708]]]]}}
]
}
