{
"type": "FeatureCollection",
"name": "codigo_03056",
"crs": { "type": "name", "properties": { "name": "urn:ogc:def:crs:OGC:1.3:CRS84" } },
"xy_coordinate_resolution": 1e-15,
"features": [
{"type":"Feature","properties":{"fid":1370,"cartodb_id":194,"comautonom":"Comunitat Valenciana","cod_ccaa":"10","provincia":"Alicante","cod_prov":"03","texto":"Cocentaina","codigo":"03056"},"geometry":{"type":"MultiPolygon","coordinates":[[[[-0.494525,38.773014],[-0.462825,38.75914],[-0.459232,38.762467],[-0.457518,38.761466],[-0.451657,38.765132],[-0.452757,38.766579],[-0.447878,38.7685],[-0.446932,38.766938],[-0.437162,38.767878],[-0.435405,38.768416],[-0.435691,38.770404],[-0.432451,38.768946],[-0.430082,38.771804],[-0.427311,38.769463],[-0.422922,38.769592],[-0.422208,38.767675],[-0.418395,38.76587],[-0.417655,38.765331],[-0.421158,38.763282],[-0.412937,38.763389],[-0.412841,38.764441],[-0.40826,38.765507],[-0.405344,38.766185],[-0.402639,38.765584],[-0.402051,38.764958],[-0.40214,38.761564],[-0.398021,38.753318],[-0.401154,38.747829],[-0.401595,38.740739],[-0.407269,38.732397],[-0.406,38.732503],[-0.405799,38.731373],[-0.409835,38.729498],[-0.408937,38.728577],[-0.410597,38.725605],[-0.409062,38.723201],[-0.408046,38.72362],[-0.408001,38.720096],[-0.412407,38.716888],[-0.412161,38.709674],[-0.410169,38.704017],[-0.410557,38.698376],[-0.412748,38.6931],[-0.417231,38.68864],[-0.429412,38.691324],[-0.436404,38.688072],[-0.44397,38.701554],[-0.449328,38.70286],[-0.447809,38.7058],[-0.450559,38.713843],[-0.458756,38.716166],[-0.462082,38.715121],[-0.464902,38.715705],[-0.466694,38.718059],[-0.473786,38.721429],[-0.475165,38.724072],[-0.494224,38.733933],[-0.493989,38.738342],[-0.507115,38.742975],[-0.50747,38.755263],[-0.498337,38.771312],[-0.494525,38.773014]]]]}}
]
}
