{
"type": "FeatureCollection",
"name": "codigo_02064",
"crs": { "type": "name", "properties": { "name": "urn:ogc:def:crs:OGC:1.3:CRS84" } },
"xy_coordinate_resolution": 1e-15,
"features": [
{"type":"Feature","properties":{"fid":1304,"cartodb_id":115,"comautonom":"Castilla - La Mancha","cod_ccaa":"08","provincia":"Albacete","cod_prov":"02","texto":"Pozo-Lorente","codigo":"02064"},"geometry":{"type":"MultiPolygon","coordinates":[[[[-1.455124,39.08371],[-1.448104,39.082779],[-1.444386,39.080963],[-1.434228,39.082359],[-1.417111,39.077496],[-1.413452,39.063309],[-1.415139,39.054024],[-1.412833,39.04555],[-1.414275,39.030684],[-1.429294,39.025932],[-1.465376,39.023538],[-1.508807,39.025858],[-1.526423,39.028128],[-1.544785,39.032891],[-1.542991,39.035896],[-1.54351,39.038164],[-1.540392,39.039224],[-1.538181,39.042251],[-1.546842,39.055975],[-1.550268,39.059117],[-1.550444,39.061813],[-1.546818,39.065057],[-1.545669,39.069782],[-1.546842,39.07851],[-1.550139,39.082912],[-1.536674,39.087204],[-1.520858,39.09551],[-1.498651,39.102849],[-1.485287,39.102091],[-1.468819,39.092505],[-1.466862,39.089974],[-1.455822,39.088828],[-1.455124,39.08371]]]]}}
]
}
