{
"type": "FeatureCollection",
"name": "codigo_03037",
"crs": { "type": "name", "properties": { "name": "urn:ogc:def:crs:OGC:1.3:CRS84" } },
"xy_coordinate_resolution": 1e-15,
"features": [
{"type":"Feature","properties":{"fid":1346,"cartodb_id":175,"comautonom":"Comunitat Valenciana","cod_ccaa":"10","provincia":"Alicante","cod_prov":"03","texto":"Benimantell","codigo":"03037"},"geometry":{"type":"MultiPolygon","coordinates":[[[[-0.154074,38.698528],[-0.16314,38.687901],[-0.171914,38.682555],[-0.17855,38.676021],[-0.182253,38.676849],[-0.183136,38.678069],[-0.187992,38.677915],[-0.199655,38.682709],[-0.200282,38.679598],[-0.20293,38.680094],[-0.203832,38.676413],[-0.203996,38.673074],[-0.200804,38.671223],[-0.202525,38.670111],[-0.194829,38.662376],[-0.184162,38.661867],[-0.177971,38.659457],[-0.177644,38.653746],[-0.175274,38.650905],[-0.172171,38.649766],[-0.172823,38.648386],[-0.171403,38.645928],[-0.16691,38.644224],[-0.172111,38.637296],[-0.174189,38.63731],[-0.17558,38.635821],[-0.179798,38.636076],[-0.178535,38.631667],[-0.174258,38.627689],[-0.17383,38.62485],[-0.177876,38.620948],[-0.181936,38.619054],[-0.186729,38.610133],[-0.192051,38.608234],[-0.209588,38.60933],[-0.217262,38.610432],[-0.226123,38.607237],[-0.23326,38.602297],[-0.231099,38.606526],[-0.237427,38.61518],[-0.229614,38.617951],[-0.236903,38.616249],[-0.237373,38.61927],[-0.235555,38.623551],[-0.237444,38.633867],[-0.234878,38.640825],[-0.229221,38.642745],[-0.227474,38.649929],[-0.232974,38.652988],[-0.227748,38.659774],[-0.223276,38.662506],[-0.221053,38.666508],[-0.22209,38.666739],[-0.223907,38.674423],[-0.222723,38.676206],[-0.218591,38.676675],[-0.219457,38.678047],[-0.216397,38.677821],[-0.216259,38.680196],[-0.21016,38.687474],[-0.20777,38.68567],[-0.205758,38.686261],[-0.203726,38.684726],[-0.201935,38.685269],[-0.198666,38.684199],[-0.194667,38.688887],[-0.187972,38.69106],[-0.171597,38.691755],[-0.170122,38.69244],[-0.168124,38.69822],[-0.164655,38.699866],[-0.154074,38.698528]]]]}}
]
}
