{
"type": "FeatureCollection",
"name": "codigo_03035",
"crs": { "type": "name", "properties": { "name": "urn:ogc:def:crs:OGC:1.3:CRS84" } },
"xy_coordinate_resolution": 1e-15,
"features": [
{"type":"Feature","properties":{"fid":1351,"cartodb_id":173,"comautonom":"Comunitat Valenciana","cod_ccaa":"10","provincia":"Alicante","cod_prov":"03","texto":"Benilloba","codigo":"03035"},"geometry":{"type":"MultiPolygon","coordinates":[[[[-0.374129,38.711393],[-0.377908,38.709937],[-0.379772,38.706763],[-0.374325,38.701018],[-0.380511,38.694715],[-0.384089,38.695588],[-0.386241,38.69206],[-0.388875,38.692028],[-0.391801,38.690274],[-0.396177,38.69102],[-0.403994,38.689753],[-0.407237,38.690672],[-0.411156,38.689119],[-0.417231,38.68864],[-0.412748,38.6931],[-0.410557,38.698376],[-0.410169,38.704017],[-0.412161,38.709674],[-0.412407,38.716888],[-0.408001,38.720096],[-0.408046,38.72362],[-0.40674,38.726366],[-0.402968,38.722859],[-0.400098,38.722714],[-0.400622,38.719347],[-0.399456,38.717879],[-0.395748,38.722148],[-0.394782,38.719595],[-0.392781,38.720875],[-0.388332,38.720199],[-0.388646,38.71726],[-0.386187,38.717817],[-0.38559,38.719056],[-0.38173,38.7177],[-0.383138,38.715659],[-0.378856,38.716419],[-0.374129,38.711393]]]]}}
]
}
