{
"type": "FeatureCollection",
"name": "codigo_03003",
"crs": { "type": "name", "properties": { "name": "urn:ogc:def:crs:OGC:1.3:CRS84" } },
"xy_coordinate_resolution": 1e-15,
"features": [
{"type":"Feature","properties":{"fid":587,"cartodb_id":141,"comautonom":"Comunitat Valenciana","cod_ccaa":"10","provincia":"Alicante","cod_prov":"03","texto":"Agres","codigo":"03003"},"geometry":{"type":"MultiPolygon","coordinates":[[[[-0.479462,38.804648],[-0.472813,38.798251],[-0.475397,38.784099],[-0.486483,38.776526],[-0.494525,38.773014],[-0.498337,38.771312],[-0.50747,38.755263],[-0.515296,38.755231],[-0.520884,38.756692],[-0.525193,38.760189],[-0.525848,38.763888],[-0.529627,38.767095],[-0.53152,38.767225],[-0.545079,38.791017],[-0.548261,38.805653],[-0.546679,38.805449],[-0.535306,38.810363],[-0.525637,38.810582],[-0.51583,38.806833],[-0.479462,38.804648]]]]}}
]
}
