{
"type": "FeatureCollection",
"name": "codigo_03113",
"crs": { "type": "name", "properties": { "name": "urn:ogc:def:crs:OGC:1.3:CRS84" } },
"xy_coordinate_resolution": 1e-15,
"features": [
{"type":"Feature","properties":{"fid":1424,"cartodb_id":249,"comautonom":"Comunitat Valenciana","cod_ccaa":"10","provincia":"Alicante","cod_prov":"03","texto":"Rojales","codigo":"03113"},"geometry":{"type":"MultiPolygon","coordinates":[[[[-0.699157,38.115287],[-0.694225,38.102016],[-0.695089,38.081073],[-0.693259,38.072189],[-0.693262,38.048156],[-0.712716,38.046617],[-0.719332,38.04088],[-0.72383,38.032515],[-0.734937,38.038082],[-0.740243,38.043392],[-0.740581,38.046472],[-0.736448,38.046726],[-0.73582,38.050453],[-0.739841,38.060497],[-0.742837,38.061302],[-0.743001,38.062639],[-0.745957,38.063993],[-0.752041,38.072256],[-0.75727,38.072374],[-0.76203,38.070293],[-0.766702,38.074473],[-0.77127,38.07492],[-0.773285,38.078401],[-0.766725,38.084179],[-0.762978,38.082566],[-0.761687,38.083398],[-0.761862,38.098233],[-0.753224,38.098023],[-0.753113,38.083396],[-0.756962,38.082839],[-0.757563,38.081445],[-0.745827,38.064901],[-0.742487,38.063774],[-0.728247,38.066509],[-0.726736,38.073328],[-0.735141,38.08615],[-0.734223,38.087079],[-0.731813,38.085366],[-0.728952,38.087906],[-0.724641,38.088345],[-0.72349,38.090512],[-0.725704,38.09707],[-0.72109,38.101333],[-0.719954,38.104501],[-0.713416,38.112294],[-0.699157,38.115287]]]]}}
]
}
