{
"type": "FeatureCollection",
"name": "codigo_02040",
"crs": { "type": "name", "properties": { "name": "urn:ogc:def:crs:OGC:1.3:CRS84" } },
"xy_coordinate_resolution": 1e-15,
"features": [
{"type":"Feature","properties":{"fid":1287,"cartodb_id":91,"comautonom":"Castilla - La Mancha","cod_ccaa":"08","provincia":"Albacete","cod_prov":"02","texto":"Hoya-Gonzalo","codigo":"02040"},"geometry":{"type":"MultiPolygon","coordinates":[[[[-1.511584,38.986544],[-1.494202,38.988988],[-1.499215,38.983998],[-1.49647,38.981701],[-1.495025,38.969788],[-1.498072,38.962673],[-1.503189,38.955908],[-1.498109,38.945084],[-1.49491,38.92995],[-1.492061,38.927201],[-1.481712,38.909406],[-1.49261,38.910547],[-1.496559,38.913608],[-1.507195,38.917358],[-1.531078,38.919229],[-1.541701,38.914739],[-1.550576,38.908804],[-1.552492,38.903628],[-1.562105,38.903279],[-1.571464,38.898933],[-1.597626,38.916669],[-1.613906,38.921098],[-1.615752,38.926436],[-1.613935,38.933822],[-1.61457,38.937362],[-1.608582,38.949158],[-1.613048,38.951509],[-1.61343,38.95382],[-1.616589,38.955173],[-1.622008,38.954255],[-1.634665,38.971795],[-1.636222,38.9773],[-1.635486,38.981968],[-1.627611,38.983255],[-1.619756,39.000102],[-1.608442,39.014682],[-1.587499,39.026991],[-1.579654,39.017804],[-1.571726,39.014599],[-1.556006,39.010657],[-1.549523,39.010261],[-1.543078,39.008018],[-1.536097,39.002686],[-1.516642,38.991997],[-1.511584,38.986544]]]]}}
]
}
