{
"type": "FeatureCollection",
"name": "codigo_03137",
"crs": { "type": "name", "properties": { "name": "urn:ogc:def:crs:OGC:1.3:CRS84" } },
"xy_coordinate_resolution": 1e-15,
"features": [
{"type":"Feature","properties":{"fid":1442,"cartodb_id":272,"comautonom":"Comunitat Valenciana","cod_ccaa":"10","provincia":"Alicante","cod_prov":"03","texto":"Vall de Laguar (la)","codigo":"03137"},"geometry":{"type":"MultiPolygon","coordinates":[[[[-0.107924,38.794298],[-0.093653,38.789943],[-0.088171,38.784906],[-0.085152,38.778758],[-0.089053,38.774549],[-0.092314,38.777],[-0.098061,38.77435],[-0.098603,38.771192],[-0.095581,38.769667],[-0.094946,38.768011],[-0.096144,38.765428],[-0.100548,38.764394],[-0.130248,38.764992],[-0.136332,38.763646],[-0.141636,38.759911],[-0.14382,38.754793],[-0.141396,38.749788],[-0.141085,38.745483],[-0.143209,38.737516],[-0.151246,38.745974],[-0.154297,38.752292],[-0.158207,38.756405],[-0.165115,38.760375],[-0.1758,38.773319],[-0.148864,38.787016],[-0.138304,38.791172],[-0.13241,38.796893],[-0.113014,38.796838],[-0.107924,38.794298]]]]}}
]
}
