{
"type": "FeatureCollection",
"name": "codigo_03136",
"crs": { "type": "name", "properties": { "name": "urn:ogc:def:crs:OGC:1.3:CRS84" } },
"xy_coordinate_resolution": 1e-15,
"features": [
{"type":"Feature","properties":{"fid":1439,"cartodb_id":271,"comautonom":"Comunitat Valenciana","cod_ccaa":"10","provincia":"Alicante","cod_prov":"03","texto":"Vall de Gallinera","codigo":"03136"},"geometry":{"type":"MultiPolygon","coordinates":[[[[-0.240678,38.858883],[-0.230539,38.85349],[-0.196316,38.859438],[-0.194057,38.853312],[-0.17996,38.85635],[-0.177764,38.844297],[-0.172464,38.844889],[-0.170456,38.84294],[-0.172111,38.839836],[-0.169827,38.837591],[-0.160991,38.834124],[-0.174664,38.828591],[-0.188705,38.817164],[-0.194696,38.815344],[-0.198152,38.810012],[-0.197852,38.806798],[-0.200452,38.801554],[-0.201811,38.802433],[-0.204267,38.799987],[-0.208095,38.799845],[-0.208464,38.797772],[-0.205774,38.793834],[-0.211512,38.792539],[-0.213262,38.791049],[-0.226175,38.80033],[-0.235712,38.804989],[-0.241418,38.806628],[-0.248847,38.805966],[-0.252662,38.809461],[-0.264008,38.808457],[-0.265365,38.807003],[-0.274811,38.804169],[-0.276147,38.805669],[-0.280415,38.804858],[-0.282418,38.807293],[-0.285679,38.805711],[-0.298033,38.820359],[-0.307231,38.822283],[-0.306628,38.82453],[-0.280982,38.835945],[-0.275603,38.840478],[-0.260273,38.859931],[-0.245837,38.858654],[-0.242099,38.860574],[-0.240678,38.858883]]]]}}
]
}
