{
"type": "FeatureCollection",
"name": "codigo_03088",
"crs": { "type": "name", "properties": { "name": "urn:ogc:def:crs:OGC:1.3:CRS84" } },
"xy_coordinate_resolution": 1e-15,
"features": [
{"type":"Feature","properties":{"fid":1404,"cartodb_id":225,"comautonom":"Comunitat Valenciana","cod_ccaa":"10","provincia":"Alicante","cod_prov":"03","texto":"Monforte del Cid","codigo":"03088"},"geometry":{"type":"MultiPolygon","coordinates":[[[[-0.649622,38.365224],[-0.646353,38.357692],[-0.645082,38.350313],[-0.640467,38.344796],[-0.645249,38.341261],[-0.674699,38.334794],[-0.679391,38.331148],[-0.690696,38.328893],[-0.701254,38.328551],[-0.703073,38.3271],[-0.706113,38.326817],[-0.712384,38.336554],[-0.727545,38.350032],[-0.724252,38.35213],[-0.725598,38.354472],[-0.72433,38.357313],[-0.729356,38.360546],[-0.7315,38.359669],[-0.733562,38.361087],[-0.735788,38.369357],[-0.741726,38.374581],[-0.741296,38.377708],[-0.74491,38.381499],[-0.740334,38.383997],[-0.732845,38.401622],[-0.733892,38.442478],[-0.719756,38.452971],[-0.708561,38.45369],[-0.705757,38.452139],[-0.686925,38.42398],[-0.676021,38.417565],[-0.663619,38.407208],[-0.646381,38.401682],[-0.636305,38.396379],[-0.644116,38.389265],[-0.644937,38.38656],[-0.656603,38.382631],[-0.649622,38.365224]]]]}}
]
}
