{
"type": "FeatureCollection",
"name": "codigo_03135",
"crs": { "type": "name", "properties": { "name": "urn:ogc:def:crs:OGC:1.3:CRS84" } },
"xy_coordinate_resolution": 1e-15,
"features": [
{"type":"Feature","properties":{"fid":1437,"cartodb_id":270,"comautonom":"Comunitat Valenciana","cod_ccaa":"10","provincia":"Alicante","cod_prov":"03","texto":"Vall d'Ebo (la)","codigo":"03135"},"geometry":{"type":"MultiPolygon","coordinates":[[[[-0.152939,38.828667],[-0.136607,38.817456],[-0.125735,38.812342],[-0.123716,38.809562],[-0.124502,38.805771],[-0.132188,38.798996],[-0.13241,38.796893],[-0.138304,38.791172],[-0.148864,38.787016],[-0.1758,38.773319],[-0.187544,38.769684],[-0.195691,38.769997],[-0.199624,38.770677],[-0.200809,38.772435],[-0.207026,38.775323],[-0.210858,38.775351],[-0.208986,38.781748],[-0.213028,38.790251],[-0.210761,38.789935],[-0.211512,38.792539],[-0.205774,38.793834],[-0.208464,38.797772],[-0.208095,38.799845],[-0.204267,38.799987],[-0.201811,38.802433],[-0.200452,38.801554],[-0.197852,38.806798],[-0.198152,38.810012],[-0.194696,38.815344],[-0.188705,38.817164],[-0.174664,38.828591],[-0.160991,38.834124],[-0.15675,38.834489],[-0.152939,38.828667]]]]}}
]
}
