{
"type": "FeatureCollection",
"name": "codigo_02002",
"crs": { "type": "name", "properties": { "name": "urn:ogc:def:crs:OGC:1.3:CRS84" } },
"xy_coordinate_resolution": 1e-15,
"features": [
{"type":"Feature","properties":{"fid":1251,"cartodb_id":53,"comautonom":"Castilla - La Mancha","cod_ccaa":"08","provincia":"Albacete","cod_prov":"02","texto":"Alatoz","codigo":"02002"},"geometry":{"type":"MultiPolygon","coordinates":[[[[-1.328979,39.082781],[-1.329045,39.072176],[-1.323212,39.065605],[-1.317657,39.053289],[-1.311158,39.050555],[-1.312638,39.050504],[-1.321879,39.050196],[-1.347429,39.045191],[-1.364588,39.043216],[-1.372374,39.040766],[-1.388369,39.032455],[-1.390084,39.032731],[-1.396254,39.032672],[-1.398873,39.033835],[-1.407897,39.031228],[-1.414275,39.030684],[-1.412833,39.04555],[-1.415139,39.054024],[-1.413452,39.063309],[-1.417111,39.077496],[-1.409637,39.075737],[-1.404538,39.077307],[-1.40506,39.079801],[-1.400584,39.077325],[-1.398437,39.08026],[-1.397378,39.090751],[-1.399449,39.103511],[-1.406103,39.123822],[-1.386821,39.127323],[-1.358526,39.129261],[-1.34515,39.132361],[-1.342582,39.126405],[-1.337034,39.0977],[-1.328979,39.082781]]]]}}
]
}
