{
"type": "FeatureCollection",
"name": "codigo_02075",
"crs": { "type": "name", "properties": { "name": "urn:ogc:def:crs:OGC:1.3:CRS84" } },
"xy_coordinate_resolution": 1e-15,
"features": [
{"type":"Feature","properties":{"fid":1310,"cartodb_id":126,"comautonom":"Castilla - La Mancha","cod_ccaa":"08","provincia":"Albacete","cod_prov":"02","texto":"Valdeganga","codigo":"02075"},"geometry":{"type":"MultiPolygon","coordinates":[[[[-1.643945,39.166245],[-1.640512,39.163601],[-1.641728,39.162336],[-1.635445,39.156261],[-1.634139,39.15739],[-1.626217,39.158829],[-1.62464,39.157206],[-1.625217,39.153762],[-1.622024,39.150129],[-1.618935,39.150696],[-1.618818,39.153696],[-1.614168,39.154199],[-1.610677,39.152824],[-1.609151,39.147435],[-1.609245,39.146184],[-1.611336,39.141686],[-1.618331,39.133677],[-1.624302,39.119953],[-1.637806,39.103487],[-1.629366,39.093828],[-1.628681,39.087377],[-1.630499,39.080658],[-1.620123,39.059046],[-1.643981,39.068507],[-1.657261,39.072238],[-1.668897,39.079842],[-1.679671,39.082965],[-1.686601,39.09145],[-1.693363,39.092806],[-1.70116,39.101408],[-1.71269,39.10714],[-1.721804,39.125667],[-1.733622,39.134303],[-1.739397,39.137465],[-1.74427,39.138662],[-1.744245,39.142041],[-1.738391,39.145203],[-1.72593,39.143166],[-1.720751,39.147399],[-1.712981,39.148962],[-1.711289,39.15161],[-1.713275,39.154381],[-1.712152,39.158207],[-1.70889,39.156846],[-1.699969,39.156107],[-1.691424,39.156939],[-1.679746,39.154465],[-1.672467,39.155085],[-1.667501,39.155749],[-1.66154,39.159492],[-1.658346,39.159465],[-1.657261,39.164795],[-1.647881,39.16621],[-1.64478,39.165534],[-1.643945,39.166245]]]]}}
]
}
