{
"type": "FeatureCollection",
"name": "codigo_03071",
"crs": { "type": "name", "properties": { "name": "urn:ogc:def:crs:OGC:1.3:CRS84" } },
"xy_coordinate_resolution": 1e-15,
"features": [
{"type":"Feature","properties":{"fid":1373,"cartodb_id":209,"comautonom":"Comunitat Valenciana","cod_ccaa":"10","provincia":"Alicante","cod_prov":"03","texto":"Gata de Gorgos","codigo":"03071"},"geometry":{"type":"MultiPolygon","coordinates":[[[[0.07657,38.793599],[0.082433,38.791823],[0.084524,38.792263],[0.092538,38.789384],[0.09591,38.789637],[0.099934,38.783954],[0.102431,38.782617],[0.098631,38.772727],[0.094603,38.767672],[0.094212,38.764737],[0.089768,38.760422],[0.090257,38.754436],[0.092557,38.751492],[0.088323,38.747009],[0.079932,38.744843],[0.079828,38.747774],[0.077738,38.75],[0.071351,38.7497],[0.068161,38.748288],[0.064742,38.744729],[0.055265,38.749657],[0.040541,38.750038],[0.040215,38.755651],[0.033693,38.763568],[0.037688,38.766329],[0.039598,38.775],[0.054368,38.780479],[0.069299,38.78352],[0.069204,38.786937],[0.072687,38.793521],[0.07657,38.793599]]]]}}
]
}
