{
"type": "FeatureCollection",
"name": "codigo_03128",
"crs": { "type": "name", "properties": { "name": "urn:ogc:def:crs:OGC:1.3:CRS84" } },
"xy_coordinate_resolution": 1e-15,
"features": [
{"type":"Feature","properties":{"fid":1430,"cartodb_id":263,"comautonom":"Comunitat Valenciana","cod_ccaa":"10","provincia":"Alicante","cod_prov":"03","texto":"Teulada","codigo":"03128"},"geometry":{"type":"MultiPolygon","coordinates":[[[[0.117079,38.749154],[0.118223,38.740776],[0.114042,38.739191],[0.113376,38.737092],[0.117277,38.732916],[0.136117,38.727412],[0.139399,38.715981],[0.150813,38.707512],[0.153369,38.699749],[0.155907,38.698075],[0.156823,38.696647],[0.155575,38.687112],[0.153154,38.685629],[0.153751,38.684028],[0.149646,38.679282],[0.148619,38.6792],[0.147161,38.683138],[0.146872,38.687335],[0.138846,38.686787],[0.138461,38.68579],[0.138189,38.687069],[0.136703,38.687224],[0.136637,38.686658],[0.137876,38.686526],[0.137746,38.685592],[0.137848,38.686487],[0.137369,38.68563],[0.137019,38.686577],[0.13688,38.685682],[0.136984,38.686579],[0.13637,38.685738],[0.135083,38.686782],[0.13486,38.685643],[0.139379,38.68489],[0.134768,38.685354],[0.134048,38.686871],[0.131628,38.686392],[0.131588,38.687144],[0.125352,38.684995],[0.121063,38.68197],[0.115315,38.673702],[0.108538,38.675077],[0.105756,38.682754],[0.107986,38.688334],[0.095038,38.697525],[0.086006,38.697341],[0.081678,38.693203],[0.079237,38.695267],[0.081172,38.696153],[0.082736,38.700697],[0.083108,38.710958],[0.085567,38.713595],[0.085734,38.71987],[0.088365,38.722485],[0.087381,38.723917],[0.089017,38.724261],[0.088028,38.72853],[0.084133,38.733147],[0.079932,38.744843],[0.088323,38.747009],[0.099577,38.749035],[0.107864,38.747933],[0.117079,38.749154]]]]}}
]
}
