{
"type": "FeatureCollection",
"name": "codigo_03112",
"crs": { "type": "name", "properties": { "name": "urn:ogc:def:crs:OGC:1.3:CRS84" } },
"xy_coordinate_resolution": 1e-15,
"features": [
{"type":"Feature","properties":{"fid":1423,"cartodb_id":248,"comautonom":"Comunitat Valenciana","cod_ccaa":"10","provincia":"Alicante","cod_prov":"03","texto":"Relleu","codigo":"03112"},"geometry":{"type":"MultiPolygon","coordinates":[[[[-0.332712,38.621241],[-0.329646,38.620315],[-0.328564,38.618515],[-0.3231,38.618444],[-0.313983,38.609198],[-0.312833,38.604928],[-0.310889,38.603172],[-0.303662,38.604835],[-0.296486,38.603317],[-0.294141,38.60093],[-0.293043,38.596543],[-0.295323,38.595749],[-0.292449,38.592196],[-0.288872,38.591464],[-0.286765,38.589505],[-0.278063,38.589817],[-0.275731,38.587114],[-0.271046,38.585346],[-0.271386,38.579994],[-0.268501,38.578593],[-0.27003,38.574583],[-0.272748,38.571619],[-0.279695,38.569403],[-0.281104,38.566732],[-0.28465,38.564914],[-0.28422,38.560192],[-0.286275,38.550103],[-0.290925,38.548788],[-0.29753,38.544598],[-0.298151,38.541801],[-0.301993,38.540899],[-0.308165,38.542753],[-0.32404,38.538162],[-0.328837,38.532838],[-0.337374,38.527474],[-0.342467,38.52777],[-0.340362,38.524523],[-0.34592,38.528389],[-0.355621,38.529077],[-0.355859,38.531038],[-0.359697,38.533034],[-0.361964,38.536933],[-0.366743,38.537977],[-0.370602,38.535983],[-0.377894,38.536399],[-0.38098,38.536738],[-0.380739,38.535156],[-0.388782,38.536661],[-0.394546,38.532708],[-0.398421,38.538803],[-0.399845,38.540682],[-0.394939,38.551682],[-0.395975,38.554129],[-0.39391,38.55921],[-0.397027,38.562802],[-0.403045,38.564909],[-0.404374,38.568795],[-0.408847,38.573669],[-0.407472,38.575522],[-0.403956,38.576255],[-0.399282,38.579178],[-0.391181,38.587034],[-0.376046,38.590975],[-0.378031,38.596993],[-0.365377,38.600808],[-0.363656,38.604833],[-0.35821,38.605557],[-0.353568,38.610633],[-0.349571,38.612227],[-0.344086,38.617724],[-0.340407,38.618145],[-0.333039,38.621726],[-0.332712,38.621241]]]]}}
]
}
