{
"type": "FeatureCollection",
"name": "codigo_03005",
"crs": { "type": "name", "properties": { "name": "urn:ogc:def:crs:OGC:1.3:CRS84" } },
"xy_coordinate_resolution": 1e-15,
"features": [
{"type":"Feature","properties":{"fid":1327,"cartodb_id":143,"comautonom":"Comunitat Valenciana","cod_ccaa":"10","provincia":"Alicante","cod_prov":"03","texto":"Albatera","codigo":"03005"},"geometry":{"type":"MultiPolygon","coordinates":[[[[-0.899032,38.26696],[-0.895942,38.26395],[-0.888071,38.258698],[-0.871781,38.239264],[-0.864239,38.235415],[-0.854238,38.222346],[-0.846617,38.214674],[-0.844857,38.214344],[-0.840655,38.208905],[-0.835397,38.2056],[-0.833796,38.20257],[-0.843695,38.192957],[-0.85116,38.183308],[-0.857879,38.177655],[-0.846039,38.175393],[-0.85018,38.172008],[-0.845869,38.168785],[-0.848966,38.167093],[-0.842027,38.164362],[-0.84032,38.162636],[-0.838384,38.162492],[-0.836688,38.168895],[-0.832164,38.172903],[-0.827747,38.17174],[-0.823751,38.169071],[-0.821366,38.170963],[-0.818224,38.163814],[-0.834499,38.158438],[-0.845515,38.159857],[-0.843915,38.163036],[-0.849146,38.164474],[-0.880923,38.162836],[-0.892633,38.164813],[-0.893746,38.166202],[-0.915702,38.200377],[-0.923354,38.207569],[-0.930378,38.210378],[-0.934286,38.216341],[-0.941378,38.220043],[-0.94265,38.222741],[-0.942263,38.22997],[-0.944668,38.230959],[-0.948261,38.23523],[-0.946655,38.240726],[-0.943072,38.240591],[-0.940289,38.242425],[-0.940698,38.251416],[-0.944002,38.25543],[-0.92472,38.253901],[-0.919175,38.256398],[-0.91732,38.258519],[-0.913495,38.259613],[-0.909026,38.263994],[-0.899721,38.268036],[-0.899032,38.26696]]]]}}
]
}
