{
"type": "FeatureCollection",
"name": "codigo_02012",
"crs": { "type": "name", "properties": { "name": "urn:ogc:def:crs:OGC:1.3:CRS84" } },
"xy_coordinate_resolution": 1e-15,
"features": [
{"type":"Feature","properties":{"fid":1281,"cartodb_id":63,"comautonom":"Castilla - La Mancha","cod_ccaa":"08","provincia":"Albacete","cod_prov":"02","texto":"Balazote","codigo":"02012"},"geometry":{"type":"MultiPolygon","coordinates":[[[[-2.107106,38.930213],[-2.089145,38.919261],[-2.085642,38.914458],[-2.07982,38.898192],[-2.078781,38.888488],[-2.088089,38.875567],[-2.093826,38.872295],[-2.110357,38.858347],[-2.135707,38.853175],[-2.150812,38.852475],[-2.156812,38.849878],[-2.16637,38.848487],[-2.184637,38.849337],[-2.187442,38.851369],[-2.193113,38.853919],[-2.192356,38.857699],[-2.195172,38.861395],[-2.191507,38.866524],[-2.193379,38.872223],[-2.194944,38.871414],[-2.200434,38.872127],[-2.20251,38.873151],[-2.187563,38.895964],[-2.16766,38.9088],[-2.16421,38.91483],[-2.149128,38.916353],[-2.124085,38.927702],[-2.107106,38.930213]]]]}}
]
}
