{
"type": "FeatureCollection",
"name": "codigo_03043",
"crs": { "type": "name", "properties": { "name": "urn:ogc:def:crs:OGC:1.3:CRS84" } },
"xy_coordinate_resolution": 1e-15,
"features": [
{"type":"Feature","properties":{"fid":1357,"cartodb_id":181,"comautonom":"Comunitat Valenciana","cod_ccaa":"10","provincia":"Alicante","cod_prov":"03","texto":"Biar","codigo":"03043"},"geometry":{"type":"MultiPolygon","coordinates":[[[[-0.711639,38.70793],[-0.692763,38.685917],[-0.678431,38.658089],[-0.690126,38.648878],[-0.694774,38.640104],[-0.712303,38.630781],[-0.717906,38.625079],[-0.723108,38.614953],[-0.725483,38.612864],[-0.728232,38.603988],[-0.732593,38.596036],[-0.755535,38.584531],[-0.759674,38.58361],[-0.774451,38.57535],[-0.785242,38.582412],[-0.795192,38.591684],[-0.799762,38.599734],[-0.798494,38.607431],[-0.804359,38.625977],[-0.811601,38.639395],[-0.810222,38.646189],[-0.803112,38.652498],[-0.796998,38.661898],[-0.77833,38.671735],[-0.775454,38.671798],[-0.770239,38.675419],[-0.767754,38.679923],[-0.760597,38.686038],[-0.759166,38.692489],[-0.755254,38.696262],[-0.752752,38.696132],[-0.747836,38.700372],[-0.743804,38.700961],[-0.740203,38.703216],[-0.736396,38.703241],[-0.733635,38.705107],[-0.730209,38.704734],[-0.723887,38.707899],[-0.721326,38.707435],[-0.716052,38.710576],[-0.713286,38.710405],[-0.711639,38.70793]]]]}}
]
}
