{
"type": "FeatureCollection",
"name": "codigo_03902",
"crs": { "type": "name", "properties": { "name": "urn:ogc:def:crs:OGC:1.3:CRS84" } },
"xy_coordinate_resolution": 1e-15,
"features": [
{"type":"Feature","properties":{"fid":1449,"cartodb_id":277,"comautonom":"Comunitat Valenciana","cod_ccaa":"10","provincia":"Alicante","cod_prov":"03","texto":"Pilar de la Horadada","codigo":"03902"},"geometry":{"type":"MultiPolygon","coordinates":[[[[-0.877657,37.956274],[-0.865018,37.955297],[-0.865487,37.950106],[-0.861237,37.943244],[-0.861877,37.940768],[-0.852535,37.93648],[-0.849222,37.936536],[-0.845846,37.932924],[-0.847771,37.931689],[-0.847378,37.93033],[-0.844906,37.930059],[-0.835461,37.924325],[-0.829525,37.924216],[-0.824349,37.921516],[-0.820147,37.917446],[-0.809961,37.914166],[-0.809857,37.911145],[-0.8083,37.910747],[-0.803607,37.914768],[-0.798753,37.916201],[-0.785335,37.913038],[-0.785606,37.911196],[-0.780728,37.910022],[-0.783048,37.905858],[-0.782843,37.901718],[-0.778854,37.900462],[-0.777277,37.89772],[-0.77516,37.896995],[-0.770416,37.895562],[-0.764478,37.895621],[-0.75209,37.888311],[-0.753957,37.880732],[-0.75261,37.879057],[-0.754692,37.873014],[-0.753973,37.871973],[-0.756215,37.869673],[-0.755245,37.867528],[-0.758488,37.867806],[-0.761137,37.865153],[-0.762209,37.847015],[-0.771315,37.843899],[-0.781708,37.844807],[-0.790443,37.84836],[-0.797521,37.853007],[-0.803908,37.859146],[-0.809921,37.859907],[-0.830725,37.86442],[-0.841477,37.87225],[-0.851307,37.881748],[-0.857221,37.885217],[-0.90018,37.923129],[-0.922364,37.946466],[-0.915766,37.948882],[-0.907908,37.947462],[-0.89258,37.953821],[-0.877657,37.956274]]]]}}
]
}
