{
"type": "FeatureCollection",
"name": "codigo_03036",
"crs": { "type": "name", "properties": { "name": "urn:ogc:def:crs:OGC:1.3:CRS84" } },
"xy_coordinate_resolution": 1e-15,
"features": [
{"type":"Feature","properties":{"fid":1353,"cartodb_id":174,"comautonom":"Comunitat Valenciana","cod_ccaa":"10","provincia":"Alicante","cod_prov":"03","texto":"Benillup","codigo":"03036"},"geometry":{"type":"MultiPolygon","coordinates":[[[[-0.380839,38.764728],[-0.376309,38.764005],[-0.373847,38.761481],[-0.369687,38.760063],[-0.367737,38.754586],[-0.361533,38.750572],[-0.373632,38.747241],[-0.380964,38.747784],[-0.381393,38.750541],[-0.40214,38.761564],[-0.402051,38.764958],[-0.398684,38.763559],[-0.3926,38.763144],[-0.389573,38.761266],[-0.393419,38.758676],[-0.391927,38.75666],[-0.38806,38.758592],[-0.386359,38.762635],[-0.382214,38.765849],[-0.380839,38.764728]]]]}}
]
}
