{
"type": "FeatureCollection",
"name": "codigo_03068",
"crs": { "type": "name", "properties": { "name": "urn:ogc:def:crs:OGC:1.3:CRS84" } },
"xy_coordinate_resolution": 1e-15,
"features": [
{"type":"Feature","properties":{"fid":1386,"cartodb_id":206,"comautonom":"Comunitat Valenciana","cod_ccaa":"10","provincia":"Alicante","cod_prov":"03","texto":"Famorca","codigo":"03068"},"geometry":{"type":"MultiPolygon","coordinates":[[[[-0.224352,38.712562],[-0.235738,38.716111],[-0.238649,38.71427],[-0.241451,38.715859],[-0.247505,38.716029],[-0.257107,38.718444],[-0.259354,38.725254],[-0.257272,38.737881],[-0.249164,38.747412],[-0.237958,38.7504],[-0.235056,38.749295],[-0.231832,38.743398],[-0.221551,38.732325],[-0.221244,38.729254],[-0.225162,38.723419],[-0.221968,38.719496],[-0.22624,38.714895],[-0.224352,38.712562]]]]}}
]
}
