{
"type": "FeatureCollection",
"name": "codigo_03032",
"crs": { "type": "name", "properties": { "name": "urn:ogc:def:crs:OGC:1.3:CRS84" } },
"xy_coordinate_resolution": 1e-15,
"features": [
{"type":"Feature","properties":{"fid":1347,"cartodb_id":170,"comautonom":"Comunitat Valenciana","cod_ccaa":"10","provincia":"Alicante","cod_prov":"03","texto":"Benifallim","codigo":"03032"},"geometry":{"type":"MultiPolygon","coordinates":[[[[-0.400227,38.628366],[-0.407712,38.630694],[-0.409684,38.633036],[-0.407329,38.634002],[-0.407435,38.635527],[-0.412965,38.634424],[-0.417344,38.637881],[-0.420301,38.634541],[-0.422264,38.635224],[-0.427871,38.634212],[-0.428682,38.635942],[-0.4276,38.64082],[-0.428507,38.648543],[-0.430093,38.653668],[-0.432295,38.655726],[-0.430457,38.663416],[-0.426504,38.671429],[-0.422511,38.672846],[-0.420331,38.67596],[-0.411931,38.677486],[-0.405404,38.681585],[-0.403618,38.680761],[-0.406053,38.676986],[-0.404088,38.67506],[-0.404278,38.672037],[-0.400474,38.672033],[-0.398632,38.669893],[-0.394212,38.669137],[-0.38946,38.665174],[-0.391201,38.660915],[-0.396379,38.655976],[-0.391425,38.651253],[-0.39908,38.638485],[-0.400921,38.637436],[-0.400227,38.628366]]]]}}
]
}
