{
"type": "FeatureCollection",
"name": "codigo_03026",
"crs": { "type": "name", "properties": { "name": "urn:ogc:def:crs:OGC:1.3:CRS84" } },
"xy_coordinate_resolution": 1e-15,
"features": [
{"type":"Feature","properties":{"fid":1343,"cartodb_id":164,"comautonom":"Comunitat Valenciana","cod_ccaa":"10","provincia":"Alicante","cod_prov":"03","texto":"Beniarbeig","codigo":"03026"},"geometry":{"type":"MultiPolygon","coordinates":[[[[-0.007662,38.827663],[0.005659,38.828654],[0.005958,38.825349],[0.009219,38.821823],[-0.00096,38.816662],[-0.000181,38.812444],[0.003862,38.809178],[-0.009251,38.807055],[-0.006386,38.798747],[-0.006529,38.791481],[-0.008831,38.78681],[-0.015245,38.791956],[-0.013923,38.793841],[-0.017156,38.800248],[-0.012142,38.803688],[-0.013594,38.806977],[-0.016781,38.807013],[-0.019026,38.81144],[-0.017,38.819974],[-0.022339,38.825065],[-0.034252,38.826909],[-0.034659,38.830145],[-0.019275,38.838888],[-0.014741,38.831322],[-0.007662,38.827663]]]]}}
]
}
