{
"type": "FeatureCollection",
"name": "codigo_03058",
"crs": { "type": "name", "properties": { "name": "urn:ogc:def:crs:OGC:1.3:CRS84" } },
"xy_coordinate_resolution": 1e-15,
"features": [
{"type":"Feature","properties":{"fid":1369,"cartodb_id":196,"comautonom":"Comunitat Valenciana","cod_ccaa":"10","provincia":"Alicante","cod_prov":"03","texto":"Cox","codigo":"03058"},"geometry":{"type":"MultiPolygon","coordinates":[[[[-0.875891,38.161195],[-0.889967,38.161079],[-0.889685,38.158578],[-0.876822,38.158986],[-0.876994,38.157791],[-0.88945,38.157646],[-0.889683,38.156289],[-0.893966,38.155763],[-0.892753,38.149154],[-0.879892,38.149156],[-0.879241,38.151127],[-0.887903,38.151121],[-0.88753,38.152196],[-0.864775,38.154172],[-0.870455,38.147985],[-0.869684,38.146647],[-0.860486,38.154094],[-0.858407,38.154155],[-0.861624,38.149122],[-0.870461,38.141921],[-0.8727,38.138276],[-0.874615,38.138329],[-0.877615,38.132868],[-0.880512,38.132497],[-0.882156,38.130084],[-0.889583,38.127677],[-0.900557,38.12135],[-0.905459,38.122654],[-0.910629,38.126152],[-0.915447,38.1264],[-0.921457,38.128868],[-0.921647,38.132638],[-0.926288,38.138757],[-0.93053,38.154998],[-0.92067,38.158212],[-0.910227,38.159423],[-0.895749,38.165581],[-0.89735,38.149975],[-0.895731,38.150333],[-0.894909,38.165827],[-0.893746,38.166202],[-0.892633,38.164813],[-0.880923,38.162836],[-0.878239,38.162111],[-0.875801,38.162311],[-0.875891,38.161195]],[[-0.887685,38.144845],[-0.886865,38.143605],[-0.881762,38.144477],[-0.884138,38.145205],[-0.881408,38.145282],[-0.880621,38.146845],[-0.885528,38.146843],[-0.887685,38.144845]]],[[[-0.876779,38.159319],[-0.879854,38.159915],[-0.877158,38.16001],[-0.876779,38.159319]]]]}}
]
}
