{
"type": "FeatureCollection",
"name": "codigo_03033",
"crs": { "type": "name", "properties": { "name": "urn:ogc:def:crs:OGC:1.3:CRS84" } },
"xy_coordinate_resolution": 1e-15,
"features": [
{"type":"Feature","properties":{"fid":1348,"cartodb_id":171,"comautonom":"Comunitat Valenciana","cod_ccaa":"10","provincia":"Alicante","cod_prov":"03","texto":"Benifato","codigo":"03033"},"geometry":{"type":"MultiPolygon","coordinates":[[[[-0.222723,38.676206],[-0.223907,38.674423],[-0.22209,38.666739],[-0.221053,38.666508],[-0.223276,38.662506],[-0.227748,38.659774],[-0.232974,38.652988],[-0.227474,38.649929],[-0.229221,38.642745],[-0.234878,38.640825],[-0.237444,38.633867],[-0.247043,38.63904],[-0.255138,38.644573],[-0.254968,38.649002],[-0.261107,38.650128],[-0.261628,38.652726],[-0.257785,38.665213],[-0.249653,38.675608],[-0.247837,38.683107],[-0.244892,38.681956],[-0.242379,38.682744],[-0.2403,38.681199],[-0.231107,38.682342],[-0.227953,38.678582],[-0.222723,38.676206]]]]}}
]
}
