{
"type": "FeatureCollection",
"name": "codigo_03080",
"crs": { "type": "name", "properties": { "name": "urn:ogc:def:crs:OGC:1.3:CRS84" } },
"xy_coordinate_resolution": 1e-15,
"features": [
{"type":"Feature","properties":{"fid":1393,"cartodb_id":218,"comautonom":"Comunitat Valenciana","cod_ccaa":"10","provincia":"Alicante","cod_prov":"03","texto":"Jacarilla","codigo":"03080"},"geometry":{"type":"MultiPolygon","coordinates":[[[[-0.872964,38.071003],[-0.870265,38.069368],[-0.868287,38.071522],[-0.865066,38.069796],[-0.862189,38.070339],[-0.860817,38.066944],[-0.857987,38.06746],[-0.85272,38.059298],[-0.84197,38.05747],[-0.839922,38.05427],[-0.837591,38.054092],[-0.835392,38.050176],[-0.834995,38.048169],[-0.82561,38.040714],[-0.825131,38.038407],[-0.833187,38.023309],[-0.840102,38.019814],[-0.841196,38.021366],[-0.843279,38.021008],[-0.844663,38.025485],[-0.849864,38.029545],[-0.851726,38.028984],[-0.853365,38.031006],[-0.85457,38.030316],[-0.855036,38.03857],[-0.858974,38.046121],[-0.862564,38.04807],[-0.864087,38.050558],[-0.87444,38.05626],[-0.880854,38.061089],[-0.879988,38.06147],[-0.881826,38.067306],[-0.881131,38.071241],[-0.880155,38.071088],[-0.880491,38.074834],[-0.874869,38.073353],[-0.872964,38.071003]]]]}}
]
}
