{
"type": "FeatureCollection",
"name": "codigo_03118",
"crs": { "type": "name", "properties": { "name": "urn:ogc:def:crs:OGC:1.3:CRS84" } },
"xy_coordinate_resolution": 1e-15,
"features": [
{"type":"Feature","properties":{"fid":1384,"cartodb_id":254,"comautonom":"Comunitat Valenciana","cod_ccaa":"10","provincia":"Alicante","cod_prov":"03","texto":"San Fulgencio","codigo":"03118"},"geometry":{"type":"MultiPolygon","coordinates":[[[[-0.658218,38.139014],[-0.655593,38.128329],[-0.653078,38.121737],[-0.651291,38.11059],[-0.653871,38.109426],[-0.688139,38.117476],[-0.699157,38.115287],[-0.713416,38.112294],[-0.718842,38.111292],[-0.723153,38.112393],[-0.739038,38.116548],[-0.744049,38.117888],[-0.748091,38.120732],[-0.736566,38.126061],[-0.729258,38.132552],[-0.71584,38.136529],[-0.715809,38.136535],[-0.697594,38.13599],[-0.678907,38.142092],[-0.670545,38.143512],[-0.660814,38.142724],[-0.658218,38.139014]]]]}}
]
}
