{
"type": "FeatureCollection",
"name": "codigo_03055",
"crs": { "type": "name", "properties": { "name": "urn:ogc:def:crs:OGC:1.3:CRS84" } },
"xy_coordinate_resolution": 1e-15,
"features": [
{"type":"Feature","properties":{"fid":1368,"cartodb_id":193,"comautonom":"Comunitat Valenciana","cod_ccaa":"10","provincia":"Alicante","cod_prov":"03","texto":"Catral","codigo":"03055"},"geometry":{"type":"MultiPolygon","coordinates":[[[[-0.771572,38.172246],[-0.764635,38.168798],[-0.761055,38.165305],[-0.755177,38.16458],[-0.755895,38.163125],[-0.768763,38.158459],[-0.771497,38.155601],[-0.771083,38.151223],[-0.782222,38.144027],[-0.786981,38.137196],[-0.785578,38.133781],[-0.79429,38.130882],[-0.795012,38.129643],[-0.810808,38.128244],[-0.812139,38.130657],[-0.815725,38.130525],[-0.829399,38.13797],[-0.829461,38.147829],[-0.832844,38.155335],[-0.834499,38.158438],[-0.826664,38.155941],[-0.814383,38.158687],[-0.815686,38.161279],[-0.807322,38.165025],[-0.801861,38.17206],[-0.799548,38.171926],[-0.789195,38.175706],[-0.782829,38.175568],[-0.771572,38.172246]]]]}}
]
}
