{
"type": "FeatureCollection",
"name": "codigo_02014",
"crs": { "type": "name", "properties": { "name": "urn:ogc:def:crs:OGC:1.3:CRS84" } },
"xy_coordinate_resolution": 1e-15,
"features": [
{"type":"Feature","properties":{"fid":52,"cartodb_id":65,"comautonom":"Castilla - La Mancha","cod_ccaa":"08","provincia":"Albacete","cod_prov":"02","texto":"Ballestero (El)","codigo":"02014"},"geometry":{"type":"MultiPolygon","coordinates":[[[[-2.419577,38.897221],[-2.41034,38.893011],[-2.399803,38.885902],[-2.381019,38.867547],[-2.37972,38.864485],[-2.379607,38.853698],[-2.376346,38.849725],[-2.376399,38.83436],[-2.380851,38.837853],[-2.386188,38.838891],[-2.386003,38.842918],[-2.392708,38.837763],[-2.404513,38.831452],[-2.412273,38.829302],[-2.427054,38.817741],[-2.447624,38.804729],[-2.458425,38.800364],[-2.466828,38.793211],[-2.486766,38.790795],[-2.507756,38.790904],[-2.512985,38.790655],[-2.516828,38.792771],[-2.529485,38.794256],[-2.542282,38.800768],[-2.54778,38.801843],[-2.546907,38.80512],[-2.551981,38.805978],[-2.55988,38.804251],[-2.564954,38.806937],[-2.570618,38.8074],[-2.572165,38.812605],[-2.577167,38.81776],[-2.566054,38.830578],[-2.561928,38.845973],[-2.563138,38.859098],[-2.55663,38.864021],[-2.546726,38.868255],[-2.520914,38.872026],[-2.499374,38.877901],[-2.46744,38.893205],[-2.452723,38.904185],[-2.437419,38.902715],[-2.419577,38.897221]]]]}}
]
}
