{
"type": "FeatureCollection",
"name": "codigo_03008",
"crs": { "type": "name", "properties": { "name": "urn:ogc:def:crs:OGC:1.3:CRS84" } },
"xy_coordinate_resolution": 1e-15,
"features": [
{"type":"Feature","properties":{"fid":62,"cartodb_id":146,"comautonom":"Comunitat Valenciana","cod_ccaa":"10","provincia":"Alicante","cod_prov":"03","texto":"Alcoleja","codigo":"03008"},"geometry":{"type":"MultiPolygon","coordinates":[[[[-0.309126,38.682804],[-0.302963,38.680725],[-0.30223,38.678501],[-0.312678,38.676669],[-0.311044,38.673641],[-0.308216,38.673053],[-0.310838,38.663806],[-0.305616,38.650144],[-0.309397,38.642744],[-0.312165,38.641249],[-0.316576,38.641549],[-0.318465,38.643277],[-0.32553,38.644502],[-0.327558,38.646522],[-0.326123,38.648651],[-0.328804,38.651938],[-0.33561,38.654003],[-0.353434,38.649237],[-0.354369,38.661304],[-0.351755,38.663001],[-0.351221,38.667206],[-0.349437,38.668841],[-0.347017,38.667462],[-0.345207,38.672592],[-0.343476,38.672787],[-0.346062,38.680252],[-0.344937,38.682686],[-0.34276,38.681871],[-0.342068,38.684108],[-0.33209,38.683178],[-0.324861,38.686535],[-0.320862,38.686498],[-0.314293,38.684797],[-0.313577,38.683366],[-0.309126,38.682804]]]]}}
]
}
