{
"type": "FeatureCollection",
"name": "codigo_03010",
"crs": { "type": "name", "properties": { "name": "urn:ogc:def:crs:OGC:1.3:CRS84" } },
"xy_coordinate_resolution": 1e-15,
"features": [
{"type":"Feature","properties":{"fid":60,"cartodb_id":148,"comautonom":"Comunitat Valenciana","cod_ccaa":"10","provincia":"Alicante","cod_prov":"03","texto":"Alfafara","codigo":"03010"},"geometry":{"type":"MultiPolygon","coordinates":[[[[-0.548261,38.805653],[-0.545079,38.791017],[-0.53152,38.767225],[-0.54187,38.763803],[-0.541813,38.761766],[-0.556458,38.757505],[-0.556879,38.75528],[-0.559908,38.753856],[-0.563015,38.755534],[-0.565642,38.755427],[-0.571046,38.760972],[-0.576561,38.764285],[-0.584261,38.768364],[-0.588647,38.774482],[-0.590356,38.77841],[-0.589292,38.780262],[-0.591071,38.782812],[-0.589977,38.784538],[-0.591626,38.784797],[-0.592695,38.788252],[-0.596298,38.790317],[-0.593529,38.792215],[-0.59451,38.79456],[-0.596147,38.794805],[-0.580227,38.80087],[-0.567602,38.801705],[-0.560197,38.804119],[-0.548261,38.805653]]]]}}
]
}
