{
"type": "FeatureCollection",
"name": "codigo_02077",
"crs": { "type": "name", "properties": { "name": "urn:ogc:def:crs:OGC:1.3:CRS84" } },
"xy_coordinate_resolution": 1e-15,
"features": [
{"type":"Feature","properties":{"fid":1316,"cartodb_id":128,"comautonom":"Castilla - La Mancha","cod_ccaa":"08","provincia":"Albacete","cod_prov":"02","texto":"Villa de Ves","codigo":"02077"},"geometry":{"type":"MultiPolygon","coordinates":[[[[-1.189182,39.19942],[-1.192037,39.194652],[-1.194498,39.18041],[-1.197092,39.176729],[-1.210529,39.162222],[-1.226997,39.151707],[-1.270532,39.153055],[-1.268401,39.163998],[-1.269874,39.169552],[-1.281192,39.18009],[-1.28374,39.180506],[-1.284008,39.181898],[-1.286266,39.181877],[-1.28624,39.183408],[-1.289078,39.185712],[-1.287648,39.186934],[-1.288472,39.188298],[-1.293721,39.190015],[-1.299591,39.194858],[-1.300939,39.199428],[-1.300596,39.201198],[-1.298689,39.201972],[-1.300466,39.206079],[-1.293884,39.208172],[-1.290196,39.210785],[-1.286572,39.210714],[-1.284219,39.213653],[-1.283506,39.220112],[-1.286082,39.232782],[-1.277096,39.241596],[-1.244239,39.24425],[-1.232825,39.217975],[-1.235929,39.21149],[-1.240449,39.209053],[-1.237573,39.207361],[-1.237533,39.20618],[-1.234392,39.205358],[-1.227035,39.20639],[-1.222447,39.203698],[-1.214965,39.202394],[-1.209838,39.199063],[-1.202863,39.201037],[-1.189182,39.19942]]]]}}
]
}
