{
"type": "FeatureCollection",
"name": "codigo_03090",
"crs": { "type": "name", "properties": { "name": "urn:ogc:def:crs:OGC:1.3:CRS84" } },
"xy_coordinate_resolution": 1e-15,
"features": [
{"type":"Feature","properties":{"fid":1408,"cartodb_id":227,"comautonom":"Comunitat Valenciana","cod_ccaa":"10","provincia":"Alicante","cod_prov":"03","texto":"Mutxamel","codigo":"03090"},"geometry":{"type":"MultiPolygon","coordinates":[[[[-0.497149,38.451567],[-0.471387,38.461042],[-0.444093,38.448951],[-0.434546,38.451951],[-0.416726,38.453965],[-0.417387,38.441203],[-0.420661,38.430346],[-0.419476,38.427914],[-0.421517,38.422084],[-0.429162,38.414819],[-0.435936,38.413039],[-0.437833,38.410567],[-0.454003,38.40336],[-0.454823,38.396008],[-0.462525,38.395112],[-0.473754,38.401436],[-0.468411,38.40524],[-0.469289,38.408296],[-0.468153,38.410065],[-0.469261,38.411],[-0.475749,38.407931],[-0.475663,38.405118],[-0.48107,38.401441],[-0.484805,38.402693],[-0.498863,38.422033],[-0.506056,38.427007],[-0.518643,38.432374],[-0.552252,38.452048],[-0.545897,38.460034],[-0.527607,38.463397],[-0.497149,38.451567]]]]}}
]
}
