{
"type": "FeatureCollection",
"name": "codigo_02025",
"crs": { "type": "name", "properties": { "name": "urn:ogc:def:crs:OGC:1.3:CRS84" } },
"xy_coordinate_resolution": 1e-15,
"features": [
{"type":"Feature","properties":{"fid":2,"cartodb_id":76,"comautonom":"Castilla - La Mancha","cod_ccaa":"08","provincia":"Albacete","cod_prov":"02","texto":"Caudete","codigo":"02025"},"geometry":{"type":"MultiPolygon","coordinates":[[[[-0.945912,38.736721],[-0.939509,38.731742],[-0.937951,38.725912],[-0.934627,38.723123],[-0.927728,38.71308],[-0.928649,38.709466],[-0.927541,38.706815],[-0.915793,38.695965],[-0.929973,38.679899],[-0.962466,38.656925],[-0.991546,38.655068],[-1.009085,38.658269],[-1.010844,38.656569],[-1.014904,38.657296],[-1.026922,38.655503],[-1.034103,38.656566],[-1.042985,38.661256],[-1.072823,38.682522],[-1.081596,38.686775],[-1.1156,38.711387],[-1.116773,38.732401],[-1.119671,38.737719],[-1.098794,38.736237],[-1.0954,38.737983],[-1.080138,38.739103],[-1.067276,38.736548],[-1.050858,38.742925],[-1.007963,38.756258],[-0.997047,38.758162],[-0.983061,38.763625],[-0.967746,38.773253],[-0.961429,38.774792],[-0.955672,38.757913],[-0.947123,38.742211],[-0.945912,38.736721]]]]}}
]
}
