{
"type": "FeatureCollection",
"name": "codigo_03031",
"crs": { "type": "name", "properties": { "name": "urn:ogc:def:crs:OGC:1.3:CRS84" } },
"xy_coordinate_resolution": 1e-15,
"features": [
{"type":"Feature","properties":{"fid":1345,"cartodb_id":169,"comautonom":"Comunitat Valenciana","cod_ccaa":"10","provincia":"Alicante","cod_prov":"03","texto":"Benidorm","codigo":"03031"},"geometry":{"type":"MultiPolygon","coordinates":[[[[-0.12941,38.501148],[-0.132401,38.502068],[-0.130717,38.504054],[-0.128216,38.501776],[-0.12941,38.501148]]],[[[-0.173118,38.601174],[-0.164942,38.590155],[-0.160173,38.586211],[-0.140327,38.576339],[-0.13383,38.570612],[-0.132622,38.567213],[-0.119643,38.568939],[-0.115009,38.568311],[-0.099623,38.57166],[-0.094436,38.570216],[-0.081774,38.559251],[-0.078814,38.555294],[-0.068297,38.547283],[-0.068725,38.543798],[-0.073619,38.541362],[-0.07491,38.538683],[-0.079113,38.537697],[-0.085264,38.533941],[-0.089699,38.529222],[-0.094823,38.527286],[-0.097395,38.523512],[-0.104037,38.527479],[-0.105873,38.526596],[-0.10661,38.528525],[-0.108914,38.528852],[-0.107717,38.531534],[-0.109372,38.533152],[-0.126551,38.534981],[-0.129964,38.534245],[-0.131331,38.532467],[-0.131614,38.534285],[-0.134488,38.533554],[-0.132968,38.53485],[-0.133852,38.535682],[-0.141662,38.536603],[-0.149759,38.535765],[-0.153769,38.534133],[-0.161271,38.528882],[-0.161923,38.526898],[-0.160233,38.524965],[-0.163897,38.523333],[-0.175111,38.560904],[-0.159043,38.570597],[-0.167223,38.582931],[-0.179697,38.591485],[-0.179536,38.595608],[-0.186612,38.604914],[-0.186729,38.610133],[-0.174272,38.602202],[-0.173118,38.601174]]]]}}
]
}
