{
"type": "FeatureCollection",
"name": "codigo_03091",
"crs": { "type": "name", "properties": { "name": "urn:ogc:def:crs:OGC:1.3:CRS84" } },
"xy_coordinate_resolution": 1e-15,
"features": [
{"type":"Feature","properties":{"fid":590,"cartodb_id":228,"comautonom":"Comunitat Valenciana","cod_ccaa":"10","provincia":"Alicante","cod_prov":"03","texto":"Murla","codigo":"03091"},"geometry":{"type":"MultiPolygon","coordinates":[[[[-0.05049,38.759662],[-0.053072,38.759277],[-0.062796,38.756729],[-0.063277,38.755363],[-0.075723,38.756288],[-0.079393,38.757713],[-0.081259,38.756264],[-0.082712,38.757319],[-0.085273,38.756869],[-0.089838,38.763451],[-0.096144,38.765428],[-0.094946,38.768011],[-0.095581,38.769667],[-0.098603,38.771192],[-0.098061,38.77435],[-0.092314,38.777],[-0.089053,38.774549],[-0.085152,38.778758],[-0.07769,38.774049],[-0.066789,38.771875],[-0.064496,38.767439],[-0.054931,38.764702],[-0.053543,38.760964],[-0.05049,38.759662]]]]}}
]
}
