{
"type": "FeatureCollection",
"name": "codigo_03001",
"crs": { "type": "name", "properties": { "name": "urn:ogc:def:crs:OGC:1.3:CRS84" } },
"xy_coordinate_resolution": 1e-15,
"features": [
{"type":"Feature","properties":{"fid":1314,"cartodb_id":139,"comautonom":"Comunitat Valenciana","cod_ccaa":"10","provincia":"Alicante","cod_prov":"03","texto":"Adsubia","codigo":"03001"},"geometry":{"type":"MultiPolygon","coordinates":[[[[-0.15465,38.873629],[-0.153762,38.871886],[-0.155093,38.860477],[-0.148076,38.858431],[-0.146163,38.846637],[-0.148909,38.84365],[-0.147126,38.838687],[-0.153366,38.833569],[-0.15675,38.834489],[-0.160991,38.834124],[-0.169827,38.837591],[-0.172111,38.839836],[-0.170456,38.84294],[-0.172464,38.844889],[-0.177764,38.844297],[-0.17996,38.85635],[-0.194057,38.853312],[-0.196316,38.859438],[-0.197637,38.866318],[-0.180066,38.878758],[-0.167562,38.879888],[-0.162327,38.882833],[-0.160832,38.887391],[-0.15465,38.873629]]]]}}
]
}
