{
"type": "FeatureCollection",
"name": "codigo_03092",
"crs": { "type": "name", "properties": { "name": "urn:ogc:def:crs:OGC:1.3:CRS84" } },
"xy_coordinate_resolution": 1e-15,
"features": [
{"type":"Feature","properties":{"fid":591,"cartodb_id":229,"comautonom":"Comunitat Valenciana","cod_ccaa":"10","provincia":"Alicante","cod_prov":"03","texto":"Muro de Alcoy","codigo":"03092"},"geometry":{"type":"MultiPolygon","coordinates":[[[[-0.431877,38.821793],[-0.430938,38.814934],[-0.424037,38.806691],[-0.419245,38.804522],[-0.415757,38.800337],[-0.418242,38.79913],[-0.415593,38.787359],[-0.413076,38.786637],[-0.410465,38.787813],[-0.407642,38.786309],[-0.403165,38.785994],[-0.402639,38.765584],[-0.405344,38.766185],[-0.408558,38.768626],[-0.413067,38.767762],[-0.41264,38.765878],[-0.417655,38.765331],[-0.418395,38.76587],[-0.416769,38.768177],[-0.417243,38.771295],[-0.421296,38.771908],[-0.423412,38.77418],[-0.421526,38.776363],[-0.417038,38.776994],[-0.420185,38.778145],[-0.429408,38.775177],[-0.428588,38.773321],[-0.430082,38.771804],[-0.432451,38.768946],[-0.435691,38.770404],[-0.435405,38.768416],[-0.437162,38.767878],[-0.446932,38.766938],[-0.447878,38.7685],[-0.452757,38.766579],[-0.451657,38.765132],[-0.457518,38.761466],[-0.459232,38.762467],[-0.462825,38.75914],[-0.494525,38.773014],[-0.486483,38.776526],[-0.475397,38.784099],[-0.472813,38.798251],[-0.479462,38.804648],[-0.477539,38.805291],[-0.474493,38.803856],[-0.461876,38.807645],[-0.461361,38.810463],[-0.460618,38.814862],[-0.453541,38.817276],[-0.447455,38.819693],[-0.444305,38.820498],[-0.443342,38.81908],[-0.44027,38.823824],[-0.432242,38.826423],[-0.431877,38.821793]]]]}}
]
}
