{
"type": "FeatureCollection",
"name": "codigo_02006",
"crs": { "type": "name", "properties": { "name": "urn:ogc:def:crs:OGC:1.3:CRS84" } },
"xy_coordinate_resolution": 1e-15,
"features": [
{"type":"Feature","properties":{"fid":582,"cartodb_id":57,"comautonom":"Castilla - La Mancha","cod_ccaa":"08","provincia":"Albacete","cod_prov":"02","texto":"Alcadozo","codigo":"02006"},"geometry":{"type":"MultiPolygon","coordinates":[[[[-1.975559,38.687027],[-1.970807,38.674486],[-1.961384,38.665472],[-1.957571,38.658103],[-1.951539,38.652489],[-1.946929,38.642391],[-1.955005,38.640201],[-1.959368,38.64042],[-1.970539,38.637005],[-1.998194,38.623827],[-2.004783,38.619206],[-2.015983,38.620085],[-2.021972,38.618891],[-2.030489,38.619359],[-2.054898,38.622037],[-2.080647,38.627847],[-2.092205,38.633245],[-2.103355,38.642045],[-2.111502,38.643838],[-2.111166,38.647755],[-2.129439,38.660924],[-2.136049,38.677049],[-2.144766,38.699002],[-2.156369,38.710721],[-2.124685,38.711443],[-2.122505,38.714761],[-2.112038,38.717592],[-2.103318,38.707559],[-2.093168,38.707147],[-2.087792,38.705745],[-2.069803,38.693456],[-2.048911,38.695108],[-2.03657,38.689275],[-2.0394,38.684018],[-2.036704,38.680193],[-2.039976,38.675336],[-2.038461,38.672566],[-2.039836,38.671216],[-2.033345,38.660646],[-2.027549,38.655831],[-2.016514,38.656838],[-2.015712,38.658309],[-2.009743,38.661125],[-2.009244,38.667266],[-2.000877,38.669691],[-1.995328,38.675204],[-1.990858,38.676697],[-1.988919,38.673986],[-1.985797,38.672824],[-1.983969,38.676115],[-1.981408,38.67676],[-1.98121,38.680993],[-1.975559,38.687027]]]]}}
]
}
