{
"type": "FeatureCollection",
"name": "codigo_02017",
"crs": { "type": "name", "properties": { "name": "urn:ogc:def:crs:OGC:1.3:CRS84" } },
"xy_coordinate_resolution": 1e-15,
"features": [
{"type":"Feature","properties":{"fid":1266,"cartodb_id":68,"comautonom":"Castilla - La Mancha","cod_ccaa":"08","provincia":"Albacete","cod_prov":"02","texto":"Bogarra","codigo":"02017"},"geometry":{"type":"MultiPolygon","coordinates":[[[[-2.432706,38.557925],[-2.428401,38.552281],[-2.419382,38.555012],[-2.413436,38.546593],[-2.414651,38.542598],[-2.410913,38.539461],[-2.409737,38.535922],[-2.405984,38.536084],[-2.400704,38.533587],[-2.399251,38.534364],[-2.388415,38.526918],[-2.392119,38.525667],[-2.408387,38.520082],[-2.405884,38.525882],[-2.407306,38.527403],[-2.410799,38.525321],[-2.416208,38.524591],[-2.428738,38.517019],[-2.433528,38.520548],[-2.439133,38.522666],[-2.453235,38.523706],[-2.469347,38.51676],[-2.470344,38.515286],[-2.47148,38.515255],[-2.47122,38.519427],[-2.472341,38.526091],[-2.471533,38.531549],[-2.459151,38.534917],[-2.454689,38.537744],[-2.44497,38.549738],[-2.446643,38.551531],[-2.444264,38.553376],[-2.443745,38.556726],[-2.445539,38.557771],[-2.439485,38.561446],[-2.438538,38.562144],[-2.432706,38.557925]]],[[[-2.172492,38.645141],[-2.169994,38.643483],[-2.153438,38.643347],[-2.122157,38.635123],[-2.128797,38.628558],[-2.131013,38.621104],[-2.135284,38.615503],[-2.141302,38.602147],[-2.136448,38.596092],[-2.135709,38.59158],[-2.135419,38.576565],[-2.138057,38.565275],[-2.152418,38.551474],[-2.154832,38.546175],[-2.165418,38.546684],[-2.173849,38.548969],[-2.175748,38.547514],[-2.181509,38.547437],[-2.196345,38.543494],[-2.199258,38.540567],[-2.205512,38.538401],[-2.206601,38.536426],[-2.210213,38.536613],[-2.211452,38.533539],[-2.215013,38.534212],[-2.21778,38.532969],[-2.221282,38.530541],[-2.221729,38.527462],[-2.225603,38.527758],[-2.226639,38.523106],[-2.222782,38.521287],[-2.225217,38.51987],[-2.227834,38.520797],[-2.243775,38.522289],[-2.247975,38.524326],[-2.270439,38.52071],[-2.275933,38.521943],[-2.280202,38.524114],[-2.277095,38.526167],[-2.27886,38.533226],[-2.276059,38.534542],[-2.274782,38.537148],[-2.276705,38.536475],[-2.280808,38.541519],[-2.28249,38.547748],[-2.281653,38.553501],[-2.282761,38.557446],[-2.281041,38.561932],[-2.283904,38.589129],[-2.282932,38.593332],[-2.279616,38.596475],[-2.277119,38.602777],[-2.278185,38.609848],[-2.276869,38.61385],[-2.272788,38.618773],[-2.27419,38.619836],[-2.271878,38.623543],[-2.275511,38.628937],[-2.276128,38.635032],[-2.271671,38.640574],[-2.262187,38.641055],[-2.249616,38.638849],[-2.24483,38.636195],[-2.241246,38.640435],[-2.222458,38.645872],[-2.212581,38.647491],[-2.199588,38.646177],[-2.198208,38.647249],[-2.192403,38.647443],[-2.172492,38.645141]]]]}}
]
}
