{
"type": "FeatureCollection",
"name": "codigo_03139",
"crs": { "type": "name", "properties": { "name": "urn:ogc:def:crs:OGC:1.3:CRS84" } },
"xy_coordinate_resolution": 1e-15,
"features": [
{"type":"Feature","properties":{"fid":1444,"cartodb_id":274,"comautonom":"Comunitat Valenciana","cod_ccaa":"10","provincia":"Alicante","cod_prov":"03","texto":"Villajoyosa/Vila Joiosa (la)","codigo":"03139"},"geometry":{"type":"MultiPolygon","coordinates":[[[[-0.243971,38.562466],[-0.240769,38.560066],[-0.236237,38.560365],[-0.229873,38.558133],[-0.227324,38.552522],[-0.217018,38.550809],[-0.20849,38.544668],[-0.200786,38.544511],[-0.184827,38.535434],[-0.17281,38.531225],[-0.169868,38.531946],[-0.166546,38.527172],[-0.167714,38.523119],[-0.174097,38.515633],[-0.178598,38.515201],[-0.180244,38.516808],[-0.186754,38.513947],[-0.18862,38.515199],[-0.199648,38.514427],[-0.211604,38.510379],[-0.216845,38.506792],[-0.215299,38.508828],[-0.216745,38.509682],[-0.222857,38.508485],[-0.227351,38.506735],[-0.232121,38.502226],[-0.233279,38.502524],[-0.237597,38.499364],[-0.248474,38.49853],[-0.26517,38.494534],[-0.276975,38.489746],[-0.279021,38.48992],[-0.281313,38.487802],[-0.285878,38.48834],[-0.301444,38.481934],[-0.304589,38.485205],[-0.303481,38.487252],[-0.304678,38.488351],[-0.302911,38.488689],[-0.303227,38.491589],[-0.304602,38.492846],[-0.307311,38.492449],[-0.30782,38.496623],[-0.313528,38.498835],[-0.313904,38.497664],[-0.317407,38.497492],[-0.317137,38.498891],[-0.322091,38.500428],[-0.321973,38.504832],[-0.324595,38.508036],[-0.324304,38.509705],[-0.326719,38.508905],[-0.326959,38.510775],[-0.328538,38.511181],[-0.332187,38.513588],[-0.331858,38.516302],[-0.331857,38.516302],[-0.328768,38.515799],[-0.326714,38.519869],[-0.316071,38.523554],[-0.313568,38.525488],[-0.308092,38.52592],[-0.307458,38.527248],[-0.302165,38.528946],[-0.297761,38.527998],[-0.294568,38.529654],[-0.288256,38.529733],[-0.269569,38.538894],[-0.264906,38.538127],[-0.264617,38.540922],[-0.260813,38.540491],[-0.262536,38.542549],[-0.251222,38.550744],[-0.248814,38.559121],[-0.24498,38.562769],[-0.243971,38.562466]]]]}}
]
}
