{
"type": "FeatureCollection",
"name": "codigo_02030",
"crs": { "type": "name", "properties": { "name": "urn:ogc:def:crs:OGC:1.3:CRS84" } },
"xy_coordinate_resolution": 1e-15,
"features": [
{"type":"Feature","properties":{"fid":1283,"cartodb_id":81,"comautonom":"Castilla - La Mancha","cod_ccaa":"08","provincia":"Albacete","cod_prov":"02","texto":"Elche de la Sierra","codigo":"02030"},"geometry":{"type":"MultiPolygon","coordinates":[[[[-2.130523,38.521845],[-2.121687,38.51831],[-2.113758,38.51761],[-2.106717,38.518377],[-2.080127,38.510259],[-2.074843,38.51001],[-2.063015,38.506689],[-2.055362,38.503456],[-2.047091,38.50019],[-2.039029,38.485479],[-2.034836,38.481777],[-2.029421,38.479488],[-2.026819,38.481143],[-2.026229,38.484986],[-2.023678,38.484541],[-2.018607,38.489023],[-1.995932,38.493571],[-1.994094,38.497133],[-1.975124,38.494886],[-1.964693,38.489829],[-1.962088,38.491563],[-1.951071,38.487482],[-1.950381,38.486782],[-1.961491,38.474832],[-1.962875,38.453451],[-1.964883,38.446917],[-1.966796,38.445311],[-1.960951,38.444611],[-1.95737,38.441776],[-1.9521,38.443324],[-1.944459,38.442382],[-1.954192,38.439684],[-1.964783,38.419448],[-1.968997,38.420323],[-1.976499,38.419596],[-1.984427,38.421972],[-1.986545,38.414682],[-1.989275,38.411137],[-1.996117,38.408375],[-2.005732,38.411322],[-2.008977,38.411026],[-2.012847,38.409472],[-2.016603,38.404448],[-2.019671,38.403771],[-2.027039,38.405175],[-2.03065,38.409188],[-2.039092,38.40395],[-2.042095,38.405479],[-2.045875,38.404555],[-2.050077,38.405553],[-2.053241,38.411437],[-2.055317,38.41213],[-2.059923,38.410193],[-2.06188,38.405919],[-2.063249,38.40547],[-2.06568,38.407058],[-2.068648,38.413119],[-2.07069,38.413794],[-2.072596,38.411619],[-2.073981,38.406286],[-2.076798,38.40456],[-2.082287,38.405234],[-2.08575,38.408532],[-2.08975,38.407392],[-2.093278,38.403661],[-2.09555,38.403363],[-2.107934,38.409568],[-2.112267,38.406465],[-2.118653,38.405946],[-2.126207,38.407318],[-2.128765,38.402191],[-2.136284,38.403599],[-2.138112,38.400161],[-2.142399,38.402724],[-2.145565,38.399368],[-2.155538,38.398566],[-2.155838,38.395378],[-2.160802,38.394963],[-2.165038,38.400941],[-2.169206,38.398024],[-2.170821,38.399027],[-2.171101,38.401552],[-2.180672,38.402854],[-2.184844,38.399477],[-2.19015,38.401208],[-2.192467,38.396754],[-2.195519,38.395207],[-2.201565,38.397357],[-2.203784,38.394506],[-2.207064,38.397151],[-2.204965,38.401652],[-2.207075,38.403486],[-2.205829,38.405389],[-2.207183,38.4072],[-2.206531,38.410296],[-2.208945,38.414728],[-2.21222,38.415795],[-2.220562,38.413436],[-2.221708,38.417697],[-2.234484,38.429254],[-2.223106,38.432558],[-2.213309,38.443127],[-2.210373,38.444477],[-2.20748,38.452235],[-2.207357,38.453018],[-2.215823,38.454391],[-2.21506,38.458125],[-2.223088,38.464082],[-2.222414,38.468097],[-2.223866,38.469584],[-2.217827,38.471509],[-2.219748,38.474045],[-2.220302,38.47795],[-2.222718,38.480301],[-2.22238,38.484074],[-2.211085,38.489406],[-2.184006,38.495177],[-2.173323,38.495751],[-2.173581,38.505278],[-2.162835,38.506238],[-2.142879,38.517854],[-2.130523,38.521845]]]]}}
]
}
