{
"type": "FeatureCollection",
"name": "codigo_02003",
"crs": { "type": "name", "properties": { "name": "urn:ogc:def:crs:OGC:1.3:CRS84" } },
"xy_coordinate_resolution": 1e-15,
"features": [
{"type":"Feature","properties":{"fid":1258,"cartodb_id":54,"comautonom":"Castilla - La Mancha","cod_ccaa":"08","provincia":"Albacete","cod_prov":"02","texto":"Albacete","codigo":"02003"},"geometry":{"type":"MultiPolygon","coordinates":[[[[-1.965748,39.18099],[-1.962441,39.176014],[-1.956934,39.172613],[-1.948384,39.173824],[-1.943133,39.17739],[-1.935417,39.180068],[-1.93223,39.17875],[-1.927228,39.168928],[-1.923109,39.168034],[-1.920102,39.170105],[-1.919975,39.176123],[-1.908899,39.174479],[-1.906081,39.175525],[-1.897338,39.171217],[-1.890622,39.172108],[-1.884066,39.170874],[-1.871954,39.174704],[-1.865057,39.173141],[-1.857622,39.175438],[-1.8469,39.175567],[-1.83558,39.164948],[-1.834307,39.159988],[-1.831309,39.157949],[-1.826421,39.159531],[-1.825487,39.161432],[-1.826677,39.167805],[-1.824382,39.168701],[-1.821568,39.168051],[-1.821085,39.166523],[-1.818142,39.165322],[-1.804772,39.163275],[-1.799898,39.162009],[-1.796923,39.157923],[-1.799306,39.156659],[-1.804355,39.157189],[-1.812034,39.15615],[-1.814737,39.145437],[-1.813137,39.143511],[-1.80096,39.147197],[-1.793386,39.152291],[-1.790009,39.150121],[-1.77245,39.147657],[-1.768665,39.145734],[-1.759822,39.143874],[-1.756697,39.141931],[-1.748037,39.13699],[-1.74427,39.138662],[-1.739397,39.137465],[-1.733622,39.134303],[-1.721804,39.125667],[-1.71269,39.10714],[-1.70116,39.101408],[-1.693363,39.092806],[-1.686601,39.09145],[-1.679671,39.082965],[-1.668897,39.079842],[-1.684417,39.062762],[-1.748916,39.0001],[-1.819976,38.924148],[-1.815541,38.911939],[-1.810843,38.908061],[-1.796937,38.901034],[-1.782247,38.886122],[-1.78135,38.882571],[-1.783294,38.876552],[-1.787689,38.865759],[-1.794777,38.839854],[-1.796674,38.836692],[-1.805083,38.831967],[-1.808631,38.828525],[-1.805755,38.822782],[-1.806439,38.819744],[-1.816998,38.813696],[-1.829032,38.80469],[-1.843715,38.785525],[-1.815579,38.765148],[-1.796939,38.779853],[-1.792448,38.779275],[-1.786744,38.787019],[-1.780475,38.78872],[-1.780561,38.785027],[-1.782676,38.781183],[-1.781936,38.776625],[-1.77805,38.777674],[-1.762816,38.769251],[-1.761395,38.770173],[-1.759643,38.768334],[-1.75836,38.761346],[-1.756342,38.759567],[-1.756258,38.755781],[-1.753731,38.752889],[-1.753453,38.751642],[-1.755367,38.750798],[-1.754551,38.749401],[-1.750003,38.744919],[-1.739526,38.738066],[-1.725837,38.72496],[-1.724942,38.721598],[-1.72618,38.71861],[-1.744752,38.71099],[-1.750863,38.706829],[-1.750117,38.699441],[-1.740969,38.6939],[-1.729137,38.693276],[-1.718501,38.686816],[-1.709583,38.694287],[-1.694949,38.701045],[-1.692593,38.707895],[-1.692578,38.713112],[-1.696635,38.72407],[-1.695528,38.727392],[-1.690506,38.732778],[-1.678923,38.740093],[-1.676218,38.733977],[-1.674363,38.732866],[-1.67587,38.729766],[-1.674881,38.727852],[-1.66272,38.720541],[-1.655348,38.719266],[-1.651524,38.716447],[-1.641718,38.713143],[-1.634427,38.698605],[-1.629293,38.697103],[-1.622808,38.679852],[-1.655609,38.678306],[-1.667161,38.672175],[-1.690016,38.677705],[-1.70855,38.67373],[-1.722322,38.67563],[-1.731245,38.678728],[-1.733546,38.677311],[-1.748092,38.676449],[-1.774491,38.678198],[-1.79283,38.68211],[-1.805073,38.682182],[-1.827667,38.685547],[-1.844772,38.689294],[-1.848521,38.692819],[-1.85941,38.712399],[-1.880291,38.755441],[-1.88026,38.760143],[-1.888748,38.775572],[-1.894306,38.781662],[-1.920241,38.79106],[-1.947751,38.809676],[-1.963982,38.819824],[-1.970275,38.821961],[-1.983558,38.799153],[-2.001906,38.813756],[-2.028875,38.850669],[-2.042107,38.864196],[-2.056214,38.886956],[-2.048732,38.889463],[-2.059324,38.900281],[-2.053901,38.919548],[-2.058266,38.933199],[-2.078303,38.971675],[-2.080879,38.984959],[-2.092776,39.000822],[-2.120455,39.033627],[-2.129497,39.048103],[-2.146411,39.064745],[-2.150853,39.073167],[-2.159584,39.084521],[-2.169458,39.090467],[-2.180389,39.100132],[-2.107551,39.118808],[-2.089662,39.104874],[-2.058485,39.077711],[-2.044681,39.069984],[-2.020873,39.052981],[-2.014344,39.050394],[-2.010997,39.050141],[-1.993698,39.054967],[-1.941603,39.063967],[-1.926971,39.079133],[-1.920186,39.088118],[-1.931639,39.119139],[-1.928548,39.146792],[-1.955545,39.160895],[-1.958769,39.16752],[-1.965572,39.170887],[-1.969775,39.171618],[-1.975312,39.180966],[-1.976945,39.180918],[-1.978307,39.183588],[-1.976103,39.186263],[-1.968275,39.183193],[-1.965748,39.18099]]]]}}
]
}
