{
"type": "FeatureCollection",
"name": "codigo_02023",
"crs": { "type": "name", "properties": { "name": "urn:ogc:def:crs:OGC:1.3:CRS84" } },
"xy_coordinate_resolution": 1e-15,
"features": [
{"type":"Feature","properties":{"fid":1277,"cartodb_id":74,"comautonom":"Castilla - La Mancha","cod_ccaa":"08","provincia":"Albacete","cod_prov":"02","texto":"Casas de Ves","codigo":"02023"},"geometry":{"type":"MultiPolygon","coordinates":[[[[-1.285325,39.330818],[-1.284157,39.329251],[-1.281362,39.328706],[-1.277459,39.332711],[-1.273746,39.333197],[-1.271406,39.330243],[-1.268287,39.328746],[-1.262608,39.329914],[-1.259546,39.32803],[-1.254917,39.327113],[-1.250844,39.322502],[-1.249275,39.323082],[-1.248563,39.327432],[-1.247154,39.328574],[-1.244277,39.32161],[-1.238429,39.322594],[-1.227777,39.319504],[-1.223327,39.316112],[-1.219306,39.316447],[-1.214645,39.319078],[-1.2146,39.315861],[-1.227976,39.307046],[-1.231628,39.300651],[-1.237291,39.29725],[-1.240421,39.293126],[-1.246583,39.291065],[-1.248633,39.287447],[-1.254596,39.284023],[-1.26155,39.281775],[-1.265379,39.272255],[-1.262317,39.264352],[-1.249732,39.247486],[-1.244239,39.24425],[-1.277096,39.241596],[-1.286082,39.232782],[-1.283506,39.220112],[-1.284219,39.213653],[-1.286572,39.210714],[-1.290196,39.210785],[-1.293884,39.208172],[-1.300466,39.206079],[-1.298689,39.201972],[-1.300596,39.201198],[-1.300939,39.199428],[-1.299591,39.194858],[-1.293721,39.190015],[-1.288472,39.188298],[-1.287648,39.186934],[-1.289078,39.185712],[-1.28624,39.183408],[-1.286266,39.181877],[-1.284008,39.181898],[-1.28374,39.180506],[-1.281192,39.18009],[-1.269874,39.169552],[-1.268401,39.163998],[-1.270532,39.153055],[-1.288709,39.151792],[-1.294164,39.147745],[-1.304073,39.147124],[-1.310339,39.144917],[-1.318819,39.161538],[-1.330556,39.172735],[-1.33843,39.197698],[-1.347427,39.206106],[-1.352334,39.21415],[-1.36782,39.211656],[-1.370296,39.212258],[-1.3658,39.224845],[-1.363284,39.248354],[-1.363142,39.250487],[-1.354122,39.257604],[-1.347397,39.258239],[-1.332791,39.270104],[-1.33495,39.273883],[-1.334082,39.277718],[-1.33859,39.288568],[-1.337836,39.30036],[-1.334687,39.302577],[-1.313371,39.305504],[-1.311387,39.311819],[-1.298032,39.331158],[-1.293566,39.331597],[-1.291135,39.334724],[-1.285301,39.332287],[-1.285325,39.330818]]]]}}
]
}
