{
"type": "FeatureCollection",
"name": "codigo_03076",
"crs": { "type": "name", "properties": { "name": "urn:ogc:def:crs:OGC:1.3:CRS84" } },
"xy_coordinate_resolution": 1e-15,
"features": [
{"type":"Feature","properties":{"fid":1392,"cartodb_id":214,"comautonom":"Comunitat Valenciana","cod_ccaa":"10","provincia":"Alicante","cod_prov":"03","texto":"Guardamar del Segura","codigo":"03076"},"geometry":{"type":"MultiPolygon","coordinates":[[[[-0.638526,38.128374],[-0.646071,38.090941],[-0.650573,38.05469],[-0.65194,38.03401],[-0.650448,38.029583],[-0.666984,38.034193],[-0.673745,38.046266],[-0.693262,38.048156],[-0.693259,38.072189],[-0.695089,38.081073],[-0.694225,38.102016],[-0.699157,38.115287],[-0.688139,38.117476],[-0.653871,38.109426],[-0.651291,38.11059],[-0.653078,38.121737],[-0.655593,38.128329],[-0.638526,38.128374]]]]}}
]
}
