{
"type": "FeatureCollection",
"name": "codigo_03095",
"crs": { "type": "name", "properties": { "name": "urn:ogc:def:crs:OGC:1.3:CRS84" } },
"xy_coordinate_resolution": 1e-15,
"features": [
{"type":"Feature","properties":{"fid":1410,"cartodb_id":232,"comautonom":"Comunitat Valenciana","cod_ccaa":"10","provincia":"Alicante","cod_prov":"03","texto":"Ondara","codigo":"03095"},"geometry":{"type":"MultiPolygon","coordinates":[[[[0.036792,38.836316],[0.036514,38.834639],[0.039877,38.828938],[0.0368,38.822667],[0.034592,38.821653],[0.033508,38.819185],[0.031506,38.816769],[0.02717,38.81662],[0.029021,38.814653],[0.027748,38.813957],[0.028122,38.8111],[0.026178,38.80979],[0.023771,38.81169],[0.024345,38.81245],[0.021844,38.812948],[0.017134,38.810484],[0.01449,38.811687],[0.009104,38.809835],[0.007216,38.807929],[0.00562,38.809385],[0.003862,38.809178],[-0.000181,38.812444],[-0.00096,38.816662],[0.009219,38.821823],[0.005958,38.825349],[0.005659,38.828654],[-0.007662,38.827663],[-0.014741,38.831322],[-0.019275,38.838888],[-0.001027,38.837321],[0.011224,38.839375],[0.0123,38.838401],[0.01442,38.840599],[0.017612,38.841444],[0.021394,38.838806],[0.02698,38.836085],[0.030911,38.836145],[0.030778,38.841427],[0.0393,38.844908],[0.038326,38.842042],[0.036079,38.840398],[0.035507,38.837503],[0.036792,38.836316]]]]}}
]
}
