{
"type": "FeatureCollection",
"name": "codigo_03022",
"crs": { "type": "name", "properties": { "name": "urn:ogc:def:crs:OGC:1.3:CRS84" } },
"xy_coordinate_resolution": 1e-15,
"features": [
{"type":"Feature","properties":{"fid":1340,"cartodb_id":160,"comautonom":"Comunitat Valenciana","cod_ccaa":"10","provincia":"Alicante","cod_prov":"03","texto":"Benasau","codigo":"03022"},"geometry":{"type":"MultiPolygon","coordinates":[[[[-0.307192,38.699734],[-0.309126,38.682804],[-0.313577,38.683366],[-0.314293,38.684797],[-0.320862,38.686498],[-0.324861,38.686535],[-0.33209,38.683178],[-0.342068,38.684108],[-0.347557,38.684881],[-0.348049,38.685892],[-0.349615,38.684576],[-0.354836,38.685442],[-0.354597,38.691302],[-0.357054,38.69107],[-0.358016,38.697732],[-0.357112,38.698252],[-0.360052,38.702066],[-0.359473,38.704062],[-0.365408,38.70871],[-0.359669,38.708734],[-0.35291,38.712725],[-0.350448,38.711814],[-0.346689,38.714278],[-0.345233,38.711659],[-0.338815,38.70736],[-0.338441,38.705657],[-0.335564,38.704484],[-0.334107,38.701603],[-0.331034,38.700155],[-0.329238,38.696816],[-0.320083,38.695057],[-0.307192,38.699734]]]]}}
]
}
