{
"type": "FeatureCollection",
"name": "codigo_02057",
"crs": { "type": "name", "properties": { "name": "urn:ogc:def:crs:OGC:1.3:CRS84" } },
"xy_coordinate_resolution": 1e-15,
"features": [
{"type":"Feature","properties":{"fid":1299,"cartodb_id":108,"comautonom":"Castilla - La Mancha","cod_ccaa":"08","provincia":"Albacete","cod_prov":"02","texto":"Ossa de Montiel","codigo":"02057"},"geometry":{"type":"MultiPolygon","coordinates":[[[[-2.702875,39.057525],[-2.699456,39.057002],[-2.697931,39.054142],[-2.695761,39.053578],[-2.696569,39.051111],[-2.694538,39.050366],[-2.6976,39.045076],[-2.696443,39.042847],[-2.699699,39.037827],[-2.69748,39.024386],[-2.69392,39.022331],[-2.69619,39.020922],[-2.692013,39.017171],[-2.687449,39.006869],[-2.681066,39.003481],[-2.675065,38.994967],[-2.673305,38.983491],[-2.675499,38.980847],[-2.680956,38.979042],[-2.669444,38.967052],[-2.668195,38.962669],[-2.669235,38.959915],[-2.666446,38.954013],[-2.67035,38.941012],[-2.684692,38.925534],[-2.68789,38.919766],[-2.69624,38.9175],[-2.706735,38.912255],[-2.719693,38.90806],[-2.723796,38.902943],[-2.727865,38.894409],[-2.739651,38.881442],[-2.749946,38.87184],[-2.756404,38.86779],[-2.760922,38.867943],[-2.762309,38.880769],[-2.772176,38.88506],[-2.780416,38.886113],[-2.790651,38.891574],[-2.792962,38.897796],[-2.792466,38.905554],[-2.798221,38.905727],[-2.799287,38.908053],[-2.803162,38.908132],[-2.835808,38.905975],[-2.839954,38.908405],[-2.842821,38.915645],[-2.850719,38.923089],[-2.857666,38.927379],[-2.865693,38.929037],[-2.870197,38.926699],[-2.876221,38.925507],[-2.879329,38.936009],[-2.882891,38.938491],[-2.880942,38.951114],[-2.877402,38.956129],[-2.872594,38.959972],[-2.871206,38.961439],[-2.870968,38.965548],[-2.865506,38.966524],[-2.858656,38.975059],[-2.844593,38.986359],[-2.838145,39.003742],[-2.837463,39.013852],[-2.832266,39.023243],[-2.821211,39.023145],[-2.816769,39.025292],[-2.809934,39.02383],[-2.806912,39.043371],[-2.764735,39.049808],[-2.742204,39.05496],[-2.725485,39.056877],[-2.705671,39.063434],[-2.702623,39.059723],[-2.702875,39.057525]]]]}}
]
}
