{
"type": "FeatureCollection",
"name": "codigo_03074",
"crs": { "type": "name", "properties": { "name": "urn:ogc:def:crs:OGC:1.3:CRS84" } },
"xy_coordinate_resolution": 1e-15,
"features": [
{"type":"Feature","properties":{"fid":1388,"cartodb_id":212,"comautonom":"Comunitat Valenciana","cod_ccaa":"10","provincia":"Alicante","cod_prov":"03","texto":"Granja de Rocamora","codigo":"03074"},"geometry":{"type":"MultiPolygon","coordinates":[[[[-0.886865,38.143605],[-0.887685,38.144845],[-0.885528,38.146843],[-0.880621,38.146845],[-0.881408,38.145282],[-0.884138,38.145205],[-0.881762,38.144477],[-0.886865,38.143605]]],[[[-0.930971,38.142183],[-0.932,38.141318],[-0.935713,38.151269],[-0.934522,38.151807],[-0.930971,38.142183]]],[[[-0.940019,38.140991],[-0.942276,38.139426],[-0.949328,38.14064],[-0.956845,38.155009],[-0.954393,38.154975],[-0.95075,38.15748],[-0.946136,38.15521],[-0.944036,38.154389],[-0.940019,38.140991]]],[[[-0.848342,38.155313],[-0.861624,38.149122],[-0.858407,38.154155],[-0.860486,38.154094],[-0.869684,38.146647],[-0.870455,38.147985],[-0.864775,38.154172],[-0.88753,38.152196],[-0.887903,38.151121],[-0.879241,38.151127],[-0.879892,38.149156],[-0.892753,38.149154],[-0.893966,38.155763],[-0.889683,38.156289],[-0.88945,38.157646],[-0.876994,38.157791],[-0.876822,38.158986],[-0.889685,38.158578],[-0.889967,38.161079],[-0.875891,38.161195],[-0.875801,38.162311],[-0.878239,38.162111],[-0.880923,38.162836],[-0.849146,38.164474],[-0.843915,38.163036],[-0.845515,38.159857],[-0.848342,38.155313]],[[-0.879854,38.159915],[-0.876779,38.159319],[-0.877158,38.16001],[-0.879854,38.159915]]],[[[-0.943587,38.171565],[-0.928019,38.14451],[-0.929273,38.143352],[-0.945182,38.170873],[-0.943587,38.171565]]],[[[-0.895731,38.150333],[-0.89735,38.149975],[-0.895749,38.165581],[-0.894909,38.165827],[-0.895731,38.150333]]]]}}
]
}
