{
"type": "FeatureCollection",
"name": "codigo_03097",
"crs": { "type": "name", "properties": { "name": "urn:ogc:def:crs:OGC:1.3:CRS84" } },
"xy_coordinate_resolution": 1e-15,
"features": [
{"type":"Feature","properties":{"fid":1414,"cartodb_id":234,"comautonom":"Comunitat Valenciana","cod_ccaa":"10","provincia":"Alicante","cod_prov":"03","texto":"Orba","codigo":"03097"},"geometry":{"type":"MultiPolygon","coordinates":[[[[-0.043586,38.804236],[-0.043627,38.787354],[-0.03961,38.785973],[-0.026058,38.775268],[-0.032128,38.770701],[-0.041546,38.766157],[-0.044797,38.762383],[-0.05049,38.759662],[-0.053543,38.760964],[-0.054931,38.764702],[-0.064496,38.767439],[-0.066789,38.771875],[-0.07769,38.774049],[-0.085152,38.778758],[-0.088171,38.784906],[-0.093653,38.789943],[-0.107924,38.794298],[-0.113014,38.796838],[-0.13241,38.796893],[-0.132188,38.798996],[-0.118725,38.799096],[-0.115655,38.801291],[-0.110796,38.801585],[-0.099965,38.806046],[-0.096974,38.806251],[-0.093307,38.802421],[-0.087227,38.799063],[-0.086084,38.796034],[-0.077859,38.794441],[-0.074487,38.796113],[-0.071352,38.793963],[-0.064642,38.797857],[-0.060638,38.797216],[-0.058434,38.80126],[-0.052718,38.803647],[-0.051763,38.802226],[-0.050592,38.802431],[-0.050909,38.803673],[-0.049073,38.803231],[-0.043597,38.805092],[-0.043586,38.804236]]]]}}
]
}
