{
"type": "FeatureCollection",
"name": "codigo_02080",
"crs": { "type": "name", "properties": { "name": "urn:ogc:def:crs:OGC:1.3:CRS84" } },
"xy_coordinate_resolution": 1e-15,
"features": [
{"type":"Feature","properties":{"fid":59,"cartodb_id":131,"comautonom":"Castilla - La Mancha","cod_ccaa":"08","provincia":"Albacete","cod_prov":"02","texto":"Villapalacios","codigo":"02080"},"geometry":{"type":"MultiPolygon","coordinates":[[[[-2.631613,38.615307],[-2.629997,38.614635],[-2.620866,38.614434],[-2.612989,38.616211],[-2.604121,38.607872],[-2.590457,38.599219],[-2.584721,38.594188],[-2.569413,38.588653],[-2.571243,38.582036],[-2.570743,38.569643],[-2.572953,38.562892],[-2.565745,38.557143],[-2.565313,38.552698],[-2.562664,38.55039],[-2.559767,38.543747],[-2.560733,38.541588],[-2.56278,38.540757],[-2.56718,38.53433],[-2.576624,38.535987],[-2.586621,38.543466],[-2.601773,38.5426],[-2.6038,38.541173],[-2.61185,38.540101],[-2.617464,38.53738],[-2.625925,38.543157],[-2.645436,38.551824],[-2.65955,38.554543],[-2.664815,38.557658],[-2.668386,38.557416],[-2.689507,38.562088],[-2.706134,38.563284],[-2.727247,38.574132],[-2.730263,38.587305],[-2.724479,38.595276],[-2.711635,38.602455],[-2.699692,38.602191],[-2.686704,38.617747],[-2.667721,38.619209],[-2.66382,38.618035],[-2.659655,38.61942],[-2.651802,38.613873],[-2.642468,38.615412],[-2.631613,38.615307]]]]}}
]
}
