{
"type": "FeatureCollection",
"name": "codigo_03009",
"crs": { "type": "name", "properties": { "name": "urn:ogc:def:crs:OGC:1.3:CRS84" } },
"xy_coordinate_resolution": 1e-15,
"features": [
{"type":"Feature","properties":{"fid":1330,"cartodb_id":147,"comautonom":"Comunitat Valenciana","cod_ccaa":"10","provincia":"Alicante","cod_prov":"03","texto":"Alcoy/Alcoi","codigo":"03009"},"geometry":{"type":"MultiPolygon","coordinates":[[[[-0.51141,38.743219],[-0.507115,38.742975],[-0.493989,38.738342],[-0.494224,38.733933],[-0.475165,38.724072],[-0.473786,38.721429],[-0.466694,38.718059],[-0.464902,38.715705],[-0.462082,38.715121],[-0.458756,38.716166],[-0.450559,38.713843],[-0.447809,38.7058],[-0.449328,38.70286],[-0.44397,38.701554],[-0.436404,38.688072],[-0.429412,38.691324],[-0.436403,38.688072],[-0.437689,38.685208],[-0.435838,38.679446],[-0.437489,38.673112],[-0.430457,38.663416],[-0.432295,38.655726],[-0.430093,38.653668],[-0.428507,38.648543],[-0.4276,38.64082],[-0.428682,38.635942],[-0.43651,38.628068],[-0.444823,38.625917],[-0.450641,38.62799],[-0.460184,38.636514],[-0.459727,38.640027],[-0.464521,38.642509],[-0.467417,38.641833],[-0.468151,38.648724],[-0.466989,38.649437],[-0.468639,38.650852],[-0.473266,38.64669],[-0.483178,38.642516],[-0.484505,38.630552],[-0.486666,38.629509],[-0.491105,38.623117],[-0.495615,38.620249],[-0.524193,38.658177],[-0.534209,38.657984],[-0.543714,38.659274],[-0.5503,38.658538],[-0.559066,38.655568],[-0.563346,38.658108],[-0.585499,38.658162],[-0.589685,38.65259],[-0.599273,38.651057],[-0.603223,38.652157],[-0.606608,38.657479],[-0.614281,38.657239],[-0.622973,38.665778],[-0.625609,38.663903],[-0.631417,38.663066],[-0.634095,38.66376],[-0.634419,38.669974],[-0.634673,38.672727],[-0.621774,38.68116],[-0.618051,38.686653],[-0.616801,38.689691],[-0.608929,38.694422],[-0.603735,38.695388],[-0.596657,38.69973],[-0.593788,38.699887],[-0.590704,38.704094],[-0.587857,38.704279],[-0.58416,38.708563],[-0.577863,38.710803],[-0.571484,38.711049],[-0.551234,38.717113],[-0.537448,38.731401],[-0.530286,38.734619],[-0.524548,38.735552],[-0.523311,38.738057],[-0.515869,38.739701],[-0.514168,38.742305],[-0.51141,38.743219]]]]}}
]
}
