{
"type": "FeatureCollection",
"name": "codigo_02072",
"crs": { "type": "name", "properties": { "name": "urn:ogc:def:crs:OGC:1.3:CRS84" } },
"xy_coordinate_resolution": 1e-15,
"features": [
{"type":"Feature","properties":{"fid":1308,"cartodb_id":123,"comautonom":"Castilla - La Mancha","cod_ccaa":"08","provincia":"Albacete","cod_prov":"02","texto":"Socovos","codigo":"02072"},"geometry":{"type":"MultiPolygon","coordinates":[[[[-1.830254,38.413081],[-1.812983,38.408095],[-1.803962,38.398829],[-1.802332,38.386556],[-1.799276,38.379622],[-1.795748,38.376251],[-1.795756,38.370268],[-1.796955,38.364927],[-1.790613,38.359446],[-1.784304,38.356154],[-1.79484,38.353037],[-1.811027,38.351373],[-1.821903,38.336252],[-1.827297,38.333864],[-1.843102,38.334292],[-1.854242,38.33022],[-1.868718,38.317509],[-1.893224,38.30299],[-1.907538,38.297961],[-1.938611,38.292389],[-1.948856,38.289318],[-1.96286,38.287919],[-1.969494,38.284598],[-1.982631,38.28137],[-2.000157,38.283963],[-2.01031,38.291556],[-2.011332,38.293782],[-2.013929,38.293714],[-2.021032,38.300352],[-2.02678,38.300706],[-2.030058,38.2993],[-2.048992,38.305782],[-2.048109,38.314697],[-2.039208,38.317373],[-2.035393,38.320397],[-2.031674,38.321366],[-2.023696,38.329375],[-2.016072,38.333024],[-2.006957,38.335281],[-1.99911,38.339225],[-1.994767,38.339701],[-1.988304,38.343674],[-1.974947,38.345504],[-1.972595,38.349179],[-1.967976,38.350481],[-1.965072,38.352645],[-1.958559,38.352705],[-1.951161,38.348322],[-1.941886,38.347103],[-1.92577,38.354283],[-1.911667,38.356018],[-1.909868,38.363004],[-1.899334,38.366258],[-1.891003,38.372109],[-1.872271,38.373832],[-1.858056,38.380147],[-1.854912,38.384234],[-1.847572,38.38792],[-1.848025,38.392539],[-1.84607,38.395935],[-1.848799,38.396458],[-1.851432,38.40226],[-1.861919,38.407607],[-1.857913,38.412525],[-1.854242,38.413624],[-1.841171,38.422309],[-1.833659,38.417873],[-1.833012,38.413271],[-1.830254,38.413081]]]]}}
]
}
