{
"type": "FeatureCollection",
"name": "codigo_03069",
"crs": { "type": "name", "properties": { "name": "urn:ogc:def:crs:OGC:1.3:CRS84" } },
"xy_coordinate_resolution": 1e-15,
"features": [
{"type":"Feature","properties":{"fid":1387,"cartodb_id":207,"comautonom":"Comunitat Valenciana","cod_ccaa":"10","provincia":"Alicante","cod_prov":"03","texto":"Finestrat","codigo":"03069"},"geometry":{"type":"MultiPolygon","coordinates":[[[[-0.209588,38.60933],[-0.192051,38.608234],[-0.186729,38.610133],[-0.186612,38.604914],[-0.179536,38.595608],[-0.179697,38.591485],[-0.167223,38.582931],[-0.159043,38.570597],[-0.175111,38.560904],[-0.163897,38.523333],[-0.166209,38.524028],[-0.167714,38.523119],[-0.166546,38.527172],[-0.169868,38.531946],[-0.17281,38.531225],[-0.184827,38.535434],[-0.200786,38.544511],[-0.20849,38.544668],[-0.217018,38.550809],[-0.227324,38.552522],[-0.229873,38.558133],[-0.236237,38.560365],[-0.240769,38.560066],[-0.243971,38.562466],[-0.24498,38.562769],[-0.245612,38.575956],[-0.240954,38.591469],[-0.240917,38.595135],[-0.23326,38.602297],[-0.226123,38.607237],[-0.217262,38.610432],[-0.209588,38.60933]]]]}}
]
}
