{
"type": "FeatureCollection",
"name": "codigo_02068",
"crs": { "type": "name", "properties": { "name": "urn:ogc:def:crs:OGC:1.3:CRS84" } },
"xy_coordinate_resolution": 1e-15,
"features": [
{"type":"Feature","properties":{"fid":1260,"cartodb_id":119,"comautonom":"Castilla - La Mancha","cod_ccaa":"08","provincia":"Albacete","cod_prov":"02","texto":"Robledo","codigo":"02068"},"geometry":{"type":"MultiPolygon","coordinates":[[[[-2.366631,38.809409],[-2.35724,38.812503],[-2.3419,38.812201],[-2.331126,38.805354],[-2.329664,38.802832],[-2.329992,38.801095],[-2.336757,38.798015],[-2.336129,38.791244],[-2.336133,38.789595],[-2.342669,38.788722],[-2.348289,38.78231],[-2.35366,38.78042],[-2.356261,38.777984],[-2.36057,38.767293],[-2.358608,38.76529],[-2.358118,38.758286],[-2.359916,38.755403],[-2.362725,38.754012],[-2.362766,38.752057],[-2.366252,38.750832],[-2.379392,38.748416],[-2.391145,38.750757],[-2.403203,38.745557],[-2.416137,38.737043],[-2.425752,38.72889],[-2.448793,38.726316],[-2.458751,38.72383],[-2.458234,38.726747],[-2.463528,38.734179],[-2.472173,38.736769],[-2.49292,38.736401],[-2.503539,38.734888],[-2.522389,38.735976],[-2.525708,38.754337],[-2.529612,38.766176],[-2.529763,38.7677],[-2.524965,38.769212],[-2.527004,38.777583],[-2.516939,38.779759],[-2.5125,38.782381],[-2.509158,38.78626],[-2.507756,38.790904],[-2.486766,38.790795],[-2.466828,38.793211],[-2.458425,38.800364],[-2.447624,38.804729],[-2.427054,38.817741],[-2.412273,38.829302],[-2.404513,38.831452],[-2.392708,38.837763],[-2.386003,38.842918],[-2.386188,38.838891],[-2.380851,38.837853],[-2.376399,38.83436],[-2.377425,38.830356],[-2.371752,38.816466],[-2.366631,38.809409]]]]}}
]
}
