{
"type": "FeatureCollection",
"name": "codigo_03029",
"crs": { "type": "name", "properties": { "name": "urn:ogc:def:crs:OGC:1.3:CRS84" } },
"xy_coordinate_resolution": 1e-15,
"features": [
{"type":"Feature","properties":{"fid":1290,"cartodb_id":167,"comautonom":"Comunitat Valenciana","cod_ccaa":"10","provincia":"Alicante","cod_prov":"03","texto":"Benigembla","codigo":"03029"},"geometry":{"type":"MultiPolygon","coordinates":[[[[-0.081259,38.756264],[-0.079379,38.753839],[-0.080829,38.751848],[-0.084227,38.752032],[-0.086259,38.748182],[-0.090272,38.745984],[-0.096613,38.739124],[-0.098254,38.734678],[-0.097632,38.730437],[-0.120752,38.723829],[-0.123794,38.724553],[-0.127191,38.728177],[-0.138142,38.726987],[-0.142522,38.735986],[-0.143209,38.737516],[-0.141085,38.745483],[-0.141396,38.749788],[-0.14382,38.754793],[-0.141636,38.759911],[-0.136332,38.763646],[-0.130248,38.764992],[-0.100548,38.764394],[-0.096144,38.765428],[-0.089838,38.763451],[-0.085273,38.756869],[-0.082712,38.757319],[-0.081259,38.756264]]]]}}
]
}
