{
"type": "FeatureCollection",
"name": "codigo_02063",
"crs": { "type": "name", "properties": { "name": "urn:ogc:def:crs:OGC:1.3:CRS84" } },
"xy_coordinate_resolution": 1e-15,
"features": [
{"type":"Feature","properties":{"fid":1303,"cartodb_id":114,"comautonom":"Castilla - La Mancha","cod_ccaa":"08","provincia":"Albacete","cod_prov":"02","texto":"Pozohondo","codigo":"02063"},"geometry":{"type":"MultiPolygon","coordinates":[[[[-1.88026,38.760143],[-1.880291,38.755441],[-1.85941,38.712399],[-1.848521,38.692819],[-1.844772,38.689294],[-1.84265,38.680379],[-1.84873,38.655397],[-1.861325,38.646761],[-1.876069,38.643065],[-1.880614,38.643379],[-1.889126,38.648777],[-1.89217,38.651058],[-1.896056,38.651717],[-1.92185,38.645902],[-1.939513,38.645072],[-1.946929,38.642391],[-1.951539,38.652489],[-1.957571,38.658103],[-1.961384,38.665472],[-1.970807,38.674486],[-1.975559,38.687027],[-1.973844,38.686363],[-1.970749,38.687336],[-1.965416,38.691182],[-1.950121,38.715665],[-1.962066,38.730388],[-1.964865,38.735747],[-1.980526,38.751781],[-1.976767,38.757885],[-1.977641,38.763561],[-1.976164,38.766251],[-1.959063,38.780257],[-1.945716,38.787544],[-1.920241,38.79106],[-1.894306,38.781662],[-1.888748,38.775572],[-1.88026,38.760143]]]]}}
]
}
