{
"type": "FeatureCollection",
"name": "codigo_02016",
"crs": { "type": "name", "properties": { "name": "urn:ogc:def:crs:OGC:1.3:CRS84" } },
"xy_coordinate_resolution": 1e-15,
"features": [
{"type":"Feature","properties":{"fid":1269,"cartodb_id":67,"comautonom":"Castilla - La Mancha","cod_ccaa":"08","provincia":"Albacete","cod_prov":"02","texto":"Bienservida","codigo":"02016"},"geometry":{"type":"MultiPolygon","coordinates":[[[[-2.706134,38.563284],[-2.689507,38.562088],[-2.668386,38.557416],[-2.664815,38.557658],[-2.65955,38.554543],[-2.645436,38.551824],[-2.625925,38.543157],[-2.617464,38.53738],[-2.61185,38.540101],[-2.6038,38.541173],[-2.601773,38.5426],[-2.586621,38.543466],[-2.576624,38.535987],[-2.56718,38.53433],[-2.56278,38.540757],[-2.560733,38.541588],[-2.55341,38.534449],[-2.548895,38.53171],[-2.545418,38.531823],[-2.540414,38.528604],[-2.534741,38.529456],[-2.529963,38.526724],[-2.525391,38.520614],[-2.523945,38.515516],[-2.52506,38.511754],[-2.528713,38.509092],[-2.528098,38.506647],[-2.529327,38.506373],[-2.526654,38.50483],[-2.535444,38.502315],[-2.537402,38.502791],[-2.546957,38.495277],[-2.556898,38.493584],[-2.5641,38.489664],[-2.566629,38.490467],[-2.580084,38.503547],[-2.58513,38.503475],[-2.587539,38.507449],[-2.593722,38.511291],[-2.603536,38.5129],[-2.6043,38.512887],[-2.618605,38.512565],[-2.636215,38.50752],[-2.64398,38.507399],[-2.658182,38.502053],[-2.664058,38.501222],[-2.664993,38.499837],[-2.672726,38.496624],[-2.697436,38.500196],[-2.699416,38.506446],[-2.695102,38.512293],[-2.695177,38.51624],[-2.704465,38.519824],[-2.709158,38.525216],[-2.718796,38.524942],[-2.728854,38.528706],[-2.736387,38.533166],[-2.749326,38.530878],[-2.752661,38.531895],[-2.753205,38.533824],[-2.755606,38.533],[-2.755554,38.534676],[-2.757357,38.534185],[-2.758627,38.535395],[-2.755166,38.537605],[-2.752127,38.543609],[-2.74896,38.543458],[-2.746791,38.546815],[-2.752287,38.550459],[-2.75229,38.552748],[-2.756348,38.55437],[-2.755662,38.557],[-2.757008,38.559273],[-2.753743,38.560772],[-2.746956,38.568228],[-2.739398,38.569554],[-2.727247,38.574132],[-2.706134,38.563284]]]]}}
]
}
