{
"type": "FeatureCollection",
"name": "codigo_02035",
"crs": { "type": "name", "properties": { "name": "urn:ogc:def:crs:OGC:1.3:CRS84" } },
"xy_coordinate_resolution": 1e-15,
"features": [
{"type":"Feature","properties":{"fid":583,"cartodb_id":86,"comautonom":"Castilla - La Mancha","cod_ccaa":"08","provincia":"Albacete","cod_prov":"02","texto":"Gineta (La)","codigo":"02035"},"geometry":{"type":"MultiPolygon","coordinates":[[[[-1.976945,39.180918],[-1.975312,39.180966],[-1.969775,39.171618],[-1.965572,39.170887],[-1.958769,39.16752],[-1.955545,39.160895],[-1.928548,39.146792],[-1.931639,39.119139],[-1.920186,39.088118],[-1.926971,39.079133],[-1.941603,39.063967],[-1.993698,39.054967],[-2.010997,39.050141],[-2.014344,39.050394],[-2.020873,39.052981],[-2.044681,39.069984],[-2.058485,39.077711],[-2.089662,39.104874],[-2.107551,39.118808],[-2.067963,39.128716],[-2.055721,39.135808],[-2.045552,39.134878],[-2.037532,39.136705],[-2.005953,39.168166],[-2.00246,39.173714],[-1.994453,39.179917],[-1.982591,39.192411],[-1.979395,39.187616],[-1.976103,39.186263],[-1.978307,39.183588],[-1.976945,39.180918]]]]}}
]
}
