{
"type": "FeatureCollection",
"name": "codigo_03016",
"crs": { "type": "name", "properties": { "name": "urn:ogc:def:crs:OGC:1.3:CRS84" } },
"xy_coordinate_resolution": 1e-15,
"features": [
{"type":"Feature","properties":{"fid":1334,"cartodb_id":154,"comautonom":"Comunitat Valenciana","cod_ccaa":"10","provincia":"Alicante","cod_prov":"03","texto":"Almudaina","codigo":"03016"},"geometry":{"type":"MultiPolygon","coordinates":[[[[-0.332056,38.7592],[-0.333348,38.756653],[-0.353661,38.748457],[-0.356132,38.747909],[-0.359419,38.749245],[-0.361533,38.750572],[-0.367737,38.754586],[-0.369687,38.760063],[-0.373847,38.761481],[-0.376309,38.764005],[-0.380839,38.764728],[-0.382214,38.765849],[-0.382505,38.767937],[-0.378213,38.773589],[-0.377184,38.778106],[-0.368931,38.778434],[-0.36439,38.776728],[-0.358016,38.777611],[-0.355079,38.77704],[-0.352936,38.77491],[-0.34526,38.773349],[-0.344474,38.770934],[-0.332056,38.7592]]]]}}
]
}
