{
"type": "FeatureCollection",
"name": "codigo_02069",
"crs": { "type": "name", "properties": { "name": "urn:ogc:def:crs:OGC:1.3:CRS84" } },
"xy_coordinate_resolution": 1e-15,
"features": [
{"type":"Feature","properties":{"fid":1302,"cartodb_id":120,"comautonom":"Castilla - La Mancha","cod_ccaa":"08","provincia":"Albacete","cod_prov":"02","texto":"Roda (La)","codigo":"02069"},"geometry":{"type":"MultiPolygon","coordinates":[[[[-2.136537,39.27492],[-2.121493,39.274618],[-2.095101,39.269704],[-2.090617,39.261406],[-2.099795,39.256161],[-2.095457,39.255542],[-2.095034,39.25416],[-2.090644,39.252198],[-2.094188,39.252342],[-2.094319,39.250298],[-2.101674,39.251562],[-2.104661,39.250837],[-2.096336,39.239474],[-2.097226,39.234228],[-2.094107,39.235267],[-2.092896,39.233951],[-2.095629,39.233152],[-2.095568,39.230656],[-2.091311,39.22837],[-2.089123,39.229155],[-2.08428,39.223809],[-2.081607,39.226212],[-2.075633,39.225913],[-2.076272,39.221358],[-2.082799,39.214778],[-2.07603,39.213319],[-2.073975,39.214564],[-2.066727,39.215218],[-2.045633,39.214398],[-2.039157,39.21621],[-2.032942,39.22171],[-2.019147,39.219089],[-2.019698,39.211985],[-2.005855,39.196504],[-2.010416,39.187523],[-2.014797,39.18474],[-2.030745,39.18773],[-2.037587,39.192058],[-2.044688,39.193558],[-2.063277,39.183743],[-2.065946,39.179782],[-2.056853,39.164544],[-2.066203,39.153355],[-2.037532,39.136705],[-2.045552,39.134878],[-2.055721,39.135808],[-2.067963,39.128716],[-2.107551,39.118808],[-2.180389,39.100132],[-2.198138,39.1024],[-2.213841,39.10466],[-2.240445,39.110802],[-2.276239,39.082916],[-2.300401,39.071376],[-2.326883,39.067927],[-2.33547,39.064471],[-2.350407,39.061627],[-2.365242,39.057131],[-2.369714,39.062363],[-2.36856,39.06871],[-2.360956,39.076085],[-2.350474,39.089525],[-2.347474,39.097654],[-2.340955,39.108431],[-2.337805,39.120001],[-2.347983,39.130268],[-2.363282,39.141301],[-2.376319,39.148328],[-2.380456,39.153044],[-2.381758,39.154998],[-2.354539,39.16359],[-2.345901,39.176374],[-2.345886,39.182979],[-2.339896,39.19829],[-2.327905,39.19149],[-2.304325,39.181278],[-2.291792,39.172705],[-2.265811,39.146242],[-2.249177,39.126042],[-2.255362,39.140733],[-2.268012,39.195085],[-2.27453,39.206488],[-2.284563,39.217616],[-2.288677,39.226661],[-2.280756,39.23082],[-2.278869,39.230718],[-2.245395,39.244914],[-2.218928,39.261517],[-2.208055,39.261624],[-2.205972,39.266422],[-2.181851,39.269309],[-2.181929,39.273482],[-2.178627,39.27827],[-2.168682,39.281074],[-2.152154,39.27581],[-2.136537,39.27492]]]]}}
]
}
