{
"type": "FeatureCollection",
"name": "codigo_02038",
"crs": { "type": "name", "properties": { "name": "urn:ogc:def:crs:OGC:1.3:CRS84" } },
"xy_coordinate_resolution": 1e-15,
"features": [
{"type":"Feature","properties":{"fid":1285,"cartodb_id":89,"comautonom":"Castilla - La Mancha","cod_ccaa":"08","provincia":"Albacete","cod_prov":"02","texto":"Herrera (La)","codigo":"02038"},"geometry":{"type":"MultiPolygon","coordinates":[[[[-2.058266,38.933199],[-2.053901,38.919548],[-2.059324,38.900281],[-2.048732,38.889463],[-2.056214,38.886956],[-2.088089,38.875567],[-2.078781,38.888488],[-2.07982,38.898192],[-2.085642,38.914458],[-2.089145,38.919261],[-2.107106,38.930213],[-2.124085,38.927702],[-2.149128,38.916353],[-2.16421,38.91483],[-2.155078,38.935878],[-2.15002,38.973003],[-2.092776,39.000822],[-2.080879,38.984959],[-2.078303,38.971675],[-2.058266,38.933199]]]]}}
]
}
