{
"type": "FeatureCollection",
"name": "codigo_02083",
"crs": { "type": "name", "properties": { "name": "urn:ogc:def:crs:OGC:1.3:CRS84" } },
"xy_coordinate_resolution": 1e-15,
"features": [
{"type":"Feature","properties":{"fid":1319,"cartodb_id":134,"comautonom":"Castilla - La Mancha","cod_ccaa":"08","provincia":"Albacete","cod_prov":"02","texto":"Villavaliente","codigo":"02083"},"geometry":{"type":"MultiPolygon","coordinates":[[[[-1.415969,39.093925],[-1.41971,39.092624],[-1.427472,39.095054],[-1.433538,39.095775],[-1.437969,39.089401],[-1.43641,39.0872],[-1.437215,39.085318],[-1.441526,39.089061],[-1.441169,39.092688],[-1.443111,39.093732],[-1.446404,39.093325],[-1.450822,39.085338],[-1.455124,39.08371],[-1.455822,39.088828],[-1.466862,39.089974],[-1.468819,39.092505],[-1.485287,39.102091],[-1.498651,39.102849],[-1.498458,39.105379],[-1.501653,39.111781],[-1.506167,39.11548],[-1.508451,39.121258],[-1.511787,39.120498],[-1.513158,39.121291],[-1.522189,39.126965],[-1.523178,39.130041],[-1.518022,39.12985],[-1.518335,39.131448],[-1.516994,39.131422],[-1.502946,39.128819],[-1.505189,39.137678],[-1.500922,39.140254],[-1.500896,39.141479],[-1.503126,39.143283],[-1.50314,39.145905],[-1.495446,39.147464],[-1.492404,39.144713],[-1.478944,39.150205],[-1.47254,39.14986],[-1.458871,39.142589],[-1.451145,39.13134],[-1.44611,39.134058],[-1.416711,39.09799],[-1.415969,39.093925]]]]}}
]
}
