{
"type": "FeatureCollection",
"name": "codigo_03002",
"crs": { "type": "name", "properties": { "name": "urn:ogc:def:crs:OGC:1.3:CRS84" } },
"xy_coordinate_resolution": 1e-15,
"features": [
{"type":"Feature","properties":{"fid":1324,"cartodb_id":140,"comautonom":"Comunitat Valenciana","cod_ccaa":"10","provincia":"Alicante","cod_prov":"03","texto":"Agost","codigo":"03002"},"geometry":{"type":"MultiPolygon","coordinates":[[[[-0.631374,38.498494],[-0.630398,38.493662],[-0.626748,38.489246],[-0.626465,38.485645],[-0.621485,38.4823],[-0.619686,38.478452],[-0.614759,38.476324],[-0.609679,38.473256],[-0.608614,38.470468],[-0.595468,38.461828],[-0.591426,38.456231],[-0.595948,38.449449],[-0.596383,38.446016],[-0.602079,38.443213],[-0.608344,38.434241],[-0.60823,38.431121],[-0.610658,38.428702],[-0.608197,38.424822],[-0.608945,38.423693],[-0.605863,38.421269],[-0.604954,38.417258],[-0.596366,38.408919],[-0.584925,38.401737],[-0.579396,38.401273],[-0.577461,38.398961],[-0.57788,38.397709],[-0.597732,38.399211],[-0.600517,38.398021],[-0.61262,38.396962],[-0.624221,38.399685],[-0.636305,38.396379],[-0.646381,38.401682],[-0.663619,38.407208],[-0.676021,38.417565],[-0.686925,38.42398],[-0.705757,38.452139],[-0.68783,38.459499],[-0.673604,38.463894],[-0.669597,38.466256],[-0.668546,38.465812],[-0.665722,38.469495],[-0.662709,38.470534],[-0.65875,38.475627],[-0.65593,38.483779],[-0.653307,38.485834],[-0.654355,38.493433],[-0.655605,38.494134],[-0.653908,38.495208],[-0.64874,38.496546],[-0.643108,38.49591],[-0.635495,38.498],[-0.631434,38.502261],[-0.631374,38.498494]]]]}}
]
}
