{
"type": "FeatureCollection",
"name": "codigo_02053",
"crs": { "type": "name", "properties": { "name": "urn:ogc:def:crs:OGC:1.3:CRS84" } },
"xy_coordinate_resolution": 1e-15,
"features": [
{"type":"Feature","properties":{"fid":1264,"cartodb_id":104,"comautonom":"Castilla - La Mancha","cod_ccaa":"08","provincia":"Albacete","cod_prov":"02","texto":"Munera","codigo":"02053"},"geometry":{"type":"MultiPolygon","coordinates":[[[[-2.380456,39.153044],[-2.376319,39.148328],[-2.363282,39.141301],[-2.347983,39.130268],[-2.337805,39.120001],[-2.340955,39.108431],[-2.347474,39.097654],[-2.350474,39.089525],[-2.360956,39.076085],[-2.36856,39.06871],[-2.369714,39.062363],[-2.365242,39.057131],[-2.377612,39.052818],[-2.384898,39.052226],[-2.38906,39.050671],[-2.402913,39.040127],[-2.412069,39.036786],[-2.427096,39.0231],[-2.433747,39.014833],[-2.453396,39.005709],[-2.474168,39.000091],[-2.492159,38.998756],[-2.52233,39.011319],[-2.531491,39.021665],[-2.535952,39.035398],[-2.534273,39.041222],[-2.533922,39.050799],[-2.535981,39.055691],[-2.541386,39.061741],[-2.549942,39.079472],[-2.555922,39.088182],[-2.558006,39.093371],[-2.555885,39.108808],[-2.548628,39.113277],[-2.527492,39.122483],[-2.516934,39.125269],[-2.497974,39.136399],[-2.489413,39.139534],[-2.476553,39.147875],[-2.472555,39.151749],[-2.461779,39.157918],[-2.438652,39.16107],[-2.426343,39.164534],[-2.407693,39.167585],[-2.402345,39.16207],[-2.381758,39.154998],[-2.380456,39.153044]]]]}}
]
}
