{
"type": "FeatureCollection",
"name": "codigo_03050",
"crs": { "type": "name", "properties": { "name": "urn:ogc:def:crs:OGC:1.3:CRS84" } },
"xy_coordinate_resolution": 1e-15,
"features": [
{"type":"Feature","properties":{"fid":1365,"cartodb_id":188,"comautonom":"Comunitat Valenciana","cod_ccaa":"10","provincia":"Alicante","cod_prov":"03","texto":"Campello (el)","codigo":"03050"},"geometry":{"type":"MultiPolygon","coordinates":[[[[-0.382864,38.431849],[-0.382825,38.432623],[-0.380992,38.431339],[-0.382864,38.431849]]],[[[-0.326959,38.510775],[-0.326719,38.508905],[-0.324304,38.509705],[-0.324595,38.508036],[-0.321973,38.504832],[-0.322091,38.500428],[-0.317137,38.498891],[-0.317407,38.497492],[-0.313904,38.497664],[-0.313528,38.498835],[-0.30782,38.496623],[-0.307311,38.492449],[-0.304602,38.492846],[-0.303227,38.491589],[-0.302911,38.488689],[-0.304678,38.488351],[-0.303481,38.487252],[-0.304589,38.485205],[-0.301444,38.481934],[-0.316284,38.474626],[-0.31887,38.471045],[-0.334012,38.462886],[-0.341075,38.4581],[-0.342913,38.455493],[-0.352145,38.452458],[-0.357374,38.448585],[-0.360596,38.448496],[-0.362019,38.446861],[-0.363346,38.447557],[-0.363719,38.446124],[-0.372478,38.443753],[-0.377381,38.439647],[-0.375988,38.438904],[-0.376771,38.437822],[-0.381455,38.436918],[-0.38355,38.431883],[-0.386719,38.431683],[-0.38935,38.427012],[-0.391357,38.421867],[-0.39025,38.418571],[-0.391902,38.41468],[-0.401271,38.412086],[-0.405147,38.401053],[-0.408882,38.382276],[-0.417689,38.387446],[-0.418938,38.390933],[-0.416251,38.404669],[-0.407183,38.414559],[-0.410116,38.421724],[-0.411857,38.425097],[-0.419476,38.427914],[-0.420661,38.430346],[-0.417387,38.441203],[-0.416726,38.453965],[-0.434546,38.451951],[-0.432268,38.456713],[-0.429606,38.458105],[-0.427116,38.463024],[-0.425305,38.46402],[-0.42395,38.468594],[-0.411227,38.470891],[-0.410321,38.473772],[-0.407419,38.474491],[-0.405679,38.476994],[-0.402289,38.477549],[-0.399194,38.482328],[-0.392459,38.487899],[-0.392962,38.491749],[-0.388241,38.492022],[-0.381119,38.49526],[-0.378702,38.493944],[-0.376108,38.49467],[-0.372737,38.491522],[-0.37275,38.487368],[-0.368096,38.480759],[-0.365031,38.480554],[-0.355326,38.485769],[-0.353256,38.494732],[-0.338553,38.500786],[-0.341463,38.50988],[-0.335067,38.515717],[-0.331858,38.516302],[-0.332187,38.513588],[-0.328538,38.511181],[-0.326959,38.510775]]]]}}
]
}
