{
"type": "FeatureCollection",
"name": "codigo_03046",
"crs": { "type": "name", "properties": { "name": "urn:ogc:def:crs:OGC:1.3:CRS84" } },
"xy_coordinate_resolution": 1e-15,
"features": [
{"type":"Feature","properties":{"fid":1362,"cartodb_id":184,"comautonom":"Comunitat Valenciana","cod_ccaa":"10","provincia":"Alicante","cod_prov":"03","texto":"Busot","codigo":"03046"},"geometry":{"type":"MultiPolygon","coordinates":[[[[-0.398421,38.538803],[-0.394546,38.532708],[-0.395333,38.527762],[-0.384202,38.515547],[-0.382211,38.51289],[-0.387375,38.508032],[-0.392962,38.491749],[-0.392459,38.487899],[-0.399194,38.482328],[-0.402289,38.477549],[-0.405679,38.476994],[-0.407419,38.474491],[-0.410321,38.473772],[-0.411227,38.470891],[-0.42395,38.468594],[-0.425305,38.46402],[-0.427116,38.463024],[-0.429606,38.458105],[-0.432268,38.456713],[-0.443854,38.463499],[-0.443454,38.465076],[-0.441627,38.46554],[-0.444583,38.467524],[-0.444186,38.473561],[-0.45156,38.478975],[-0.450998,38.486775],[-0.443972,38.494848],[-0.446631,38.495519],[-0.447436,38.496762],[-0.448427,38.496945],[-0.448321,38.498304],[-0.445698,38.500832],[-0.448197,38.505392],[-0.441128,38.509103],[-0.438515,38.511667],[-0.43969,38.511819],[-0.439248,38.512656],[-0.437446,38.513995],[-0.435429,38.513627],[-0.432955,38.517411],[-0.432944,38.519663],[-0.434892,38.520679],[-0.434576,38.523438],[-0.430827,38.525653],[-0.432577,38.526115],[-0.431372,38.527098],[-0.432838,38.527806],[-0.431955,38.533598],[-0.428381,38.533141],[-0.420266,38.539684],[-0.411369,38.538902],[-0.399845,38.540682],[-0.398421,38.538803]]]]}}
]
}
