{
"type": "FeatureCollection",
"name": "codigo_02065",
"crs": { "type": "name", "properties": { "name": "urn:ogc:def:crs:OGC:1.3:CRS84" } },
"xy_coordinate_resolution": 1e-15,
"features": [
{"type":"Feature","properties":{"fid":1305,"cartodb_id":116,"comautonom":"Castilla - La Mancha","cod_ccaa":"08","provincia":"Albacete","cod_prov":"02","texto":"Pozuelo","codigo":"02065"},"geometry":{"type":"MultiPolygon","coordinates":[[[[-2.034437,38.793862],[-2.036749,38.788078],[-2.040859,38.788959],[-2.039725,38.773045],[-2.056388,38.761294],[-2.073481,38.754979],[-2.075736,38.752375],[-2.081205,38.753905],[-2.085903,38.750094],[-2.109619,38.744726],[-2.11703,38.745593],[-2.12838,38.744344],[-2.136956,38.747913],[-2.135007,38.750089],[-2.137936,38.761068],[-2.135513,38.769224],[-2.137053,38.790421],[-2.142317,38.798922],[-2.14826,38.803678],[-2.161019,38.825317],[-2.165262,38.833854],[-2.16637,38.848487],[-2.156812,38.849878],[-2.150812,38.852475],[-2.135707,38.853175],[-2.110357,38.858347],[-2.093826,38.872295],[-2.088089,38.875567],[-2.056214,38.886956],[-2.042107,38.864196],[-2.028875,38.850669],[-2.001906,38.813756],[-2.031324,38.800127],[-2.034437,38.793862]]]]}}
]
}
