{
"type": "FeatureCollection",
"name": "codigo_02001",
"crs": { "type": "name", "properties": { "name": "urn:ogc:def:crs:OGC:1.3:CRS84" } },
"xy_coordinate_resolution": 1e-15,
"features": [
{"type":"Feature","properties":{"fid":581,"cartodb_id":52,"comautonom":"Castilla - La Mancha","cod_ccaa":"08","provincia":"Albacete","cod_prov":"02","texto":"Abengibre","codigo":"02001"},"geometry":{"type":"MultiPolygon","coordinates":[[[[-1.484971,39.230079],[-1.487314,39.220217],[-1.485136,39.209448],[-1.486522,39.203708],[-1.493736,39.202144],[-1.503798,39.203265],[-1.518373,39.203514],[-1.534225,39.193596],[-1.543547,39.195263],[-1.552545,39.19524],[-1.574019,39.196703],[-1.581734,39.201141],[-1.583185,39.204438],[-1.586214,39.209304],[-1.588929,39.210229],[-1.594767,39.215977],[-1.595708,39.218745],[-1.601129,39.222838],[-1.597664,39.225842],[-1.562611,39.226883],[-1.534141,39.232178],[-1.484971,39.230079]]]]}}
]
}
