{
"type": "FeatureCollection",
"name": "codigo_02028",
"crs": { "type": "name", "properties": { "name": "urn:ogc:def:crs:OGC:1.3:CRS84" } },
"xy_coordinate_resolution": 1e-15,
"features": [
{"type":"Feature","properties":{"fid":1220,"cartodb_id":79,"comautonom":"Castilla - La Mancha","cod_ccaa":"08","provincia":"Albacete","cod_prov":"02","texto":"Cotillas","codigo":"02028"},"geometry":{"type":"MultiPolygon","coordinates":[[[[-2.538884,38.412857],[-2.534041,38.410666],[-2.518349,38.410693],[-2.51756,38.408815],[-2.511313,38.404427],[-2.513167,38.401182],[-2.512167,38.40006],[-2.515831,38.400174],[-2.520363,38.404059],[-2.524239,38.405147],[-2.531364,38.404978],[-2.534917,38.406254],[-2.54421,38.405659],[-2.544758,38.408806],[-2.5495,38.409865],[-2.549313,38.40636],[-2.545585,38.405562],[-2.550056,38.403104],[-2.554848,38.404051],[-2.558156,38.406334],[-2.558048,38.408966],[-2.563786,38.412898],[-2.561796,38.414212],[-2.545136,38.416748],[-2.538884,38.412857]]],[[[-2.472712,38.425321],[-2.471467,38.423225],[-2.481221,38.414644],[-2.486675,38.406305],[-2.492586,38.404564],[-2.505833,38.405225],[-2.515487,38.412195],[-2.524632,38.416684],[-2.530368,38.417239],[-2.535396,38.426208],[-2.526642,38.43341],[-2.516373,38.435504],[-2.514392,38.436947],[-2.505289,38.437765],[-2.495782,38.435588],[-2.491786,38.436869],[-2.481231,38.435516],[-2.473019,38.439841],[-2.473216,38.436399],[-2.472712,38.425321]]]]}}
]
}
