{
"type": "FeatureCollection",
"name": "codigo_02039",
"crs": { "type": "name", "properties": { "name": "urn:ogc:def:crs:OGC:1.3:CRS84" } },
"xy_coordinate_resolution": 1e-15,
"features": [
{"type":"Feature","properties":{"fid":1286,"cartodb_id":90,"comautonom":"Castilla - La Mancha","cod_ccaa":"08","provincia":"Albacete","cod_prov":"02","texto":"Higueruela","codigo":"02039"},"geometry":{"type":"MultiPolygon","coordinates":[[[[-1.508807,39.025858],[-1.465376,39.023538],[-1.429294,39.025932],[-1.414275,39.030684],[-1.407897,39.031228],[-1.398873,39.033835],[-1.396254,39.032672],[-1.390084,39.032731],[-1.378531,39.003918],[-1.367717,38.983052],[-1.363247,38.978132],[-1.343738,38.966224],[-1.324997,38.957298],[-1.30019,38.950821],[-1.290057,38.938878],[-1.281176,38.935873],[-1.269437,38.93378],[-1.225394,38.935461],[-1.236598,38.928413],[-1.249997,38.925335],[-1.253211,38.919878],[-1.273489,38.926983],[-1.281822,38.927746],[-1.294437,38.926525],[-1.323735,38.931491],[-1.33263,38.931006],[-1.337942,38.927784],[-1.343142,38.926398],[-1.370054,38.922398],[-1.384561,38.917473],[-1.372059,38.912415],[-1.390825,38.897015],[-1.398716,38.892212],[-1.401778,38.889353],[-1.401932,38.887634],[-1.43073,38.897135],[-1.447045,38.898795],[-1.448902,38.899846],[-1.451514,38.899043],[-1.465213,38.900134],[-1.481712,38.909406],[-1.492061,38.927201],[-1.49491,38.92995],[-1.498109,38.945084],[-1.503189,38.955908],[-1.498072,38.962673],[-1.495025,38.969788],[-1.49647,38.981701],[-1.499215,38.983998],[-1.494202,38.988988],[-1.511584,38.986544],[-1.516642,38.991997],[-1.536097,39.002686],[-1.543078,39.008018],[-1.549523,39.010261],[-1.556006,39.010657],[-1.571726,39.014599],[-1.579654,39.017804],[-1.587499,39.026991],[-1.576635,39.035888],[-1.573398,39.044571],[-1.559926,39.040549],[-1.554009,39.036664],[-1.544785,39.032891],[-1.526423,39.028128],[-1.508807,39.025858]]]]}}
]
}
