{
"type": "FeatureCollection",
"name": "codigo_03066",
"crs": { "type": "name", "properties": { "name": "urn:ogc:def:crs:OGC:1.3:CRS84" } },
"xy_coordinate_resolution": 1e-15,
"features": [
{"type":"Feature","properties":{"fid":1383,"cartodb_id":204,"comautonom":"Comunitat Valenciana","cod_ccaa":"10","provincia":"Alicante","cod_prov":"03","texto":"Elda","codigo":"03066"},"geometry":{"type":"MultiPolygon","coordinates":[[[[-0.839217,38.508917],[-0.823466,38.511379],[-0.806332,38.510626],[-0.798395,38.498619],[-0.78308,38.494393],[-0.785122,38.492125],[-0.788379,38.49133],[-0.78995,38.489071],[-0.789028,38.482778],[-0.787471,38.482508],[-0.787323,38.48093],[-0.782948,38.476639],[-0.788118,38.47288],[-0.787016,38.471805],[-0.789125,38.469935],[-0.781833,38.46103],[-0.781715,38.458523],[-0.784086,38.456342],[-0.780263,38.449845],[-0.781875,38.447704],[-0.782829,38.437495],[-0.792024,38.435398],[-0.79589,38.432587],[-0.798535,38.434142],[-0.806483,38.43384],[-0.807458,38.430777],[-0.82952,38.44875],[-0.843239,38.456734],[-0.859941,38.470881],[-0.874287,38.475306],[-0.849413,38.509615],[-0.85578,38.513029],[-0.839217,38.508917]]]]}}
]
}
