{
"type": "FeatureCollection",
"name": "codigo_03062",
"crs": { "type": "name", "properties": { "name": "urn:ogc:def:crs:OGC:1.3:CRS84" } },
"xy_coordinate_resolution": 1e-15,
"features": [
{"type":"Feature","properties":{"fid":68,"cartodb_id":200,"comautonom":"Comunitat Valenciana","cod_ccaa":"10","provincia":"Alicante","cod_prov":"03","texto":"Daya Vieja","codigo":"03062"},"geometry":{"type":"MultiPolygon","coordinates":[[[[-0.72837,38.097491],[-0.749279,38.098002],[-0.742879,38.106989],[-0.742132,38.110156],[-0.739038,38.116548],[-0.723153,38.112393],[-0.72837,38.097491]]]]}}
]
}
