{
"type": "FeatureCollection",
"name": "codigo_03079",
"crs": { "type": "name", "properties": { "name": "urn:ogc:def:crs:OGC:1.3:CRS84" } },
"xy_coordinate_resolution": 1e-15,
"features": [
{"type":"Feature","properties":{"fid":1391,"cartodb_id":217,"comautonom":"Comunitat Valenciana","cod_ccaa":"10","provincia":"Alicante","cod_prov":"03","texto":"Ibi","codigo":"03079"},"geometry":{"type":"MultiPolygon","coordinates":[[[[-0.543714,38.659274],[-0.534209,38.657984],[-0.524193,38.658177],[-0.495615,38.620249],[-0.513391,38.607366],[-0.531527,38.601876],[-0.537106,38.598903],[-0.543309,38.598466],[-0.564578,38.591189],[-0.570967,38.5917],[-0.574982,38.589756],[-0.605567,38.590746],[-0.606824,38.59161],[-0.608969,38.59096],[-0.616463,38.602484],[-0.617424,38.607801],[-0.618675,38.611296],[-0.619648,38.616605],[-0.613362,38.633335],[-0.611049,38.648677],[-0.603223,38.652157],[-0.599273,38.651057],[-0.589685,38.65259],[-0.585499,38.658162],[-0.563346,38.658108],[-0.559066,38.655568],[-0.5503,38.658538],[-0.543714,38.659274]]]]}}
]
}
