{
"type": "FeatureCollection",
"name": "codigo_02005",
"crs": { "type": "name", "properties": { "name": "urn:ogc:def:crs:OGC:1.3:CRS84" } },
"xy_coordinate_resolution": 1e-15,
"features": [
{"type":"Feature","properties":{"fid":1252,"cartodb_id":56,"comautonom":"Castilla - La Mancha","cod_ccaa":"08","provincia":"Albacete","cod_prov":"02","texto":"Alborea","codigo":"02005"},"geometry":{"type":"MultiPolygon","coordinates":[[[[-1.372463,39.355893],[-1.366834,39.355895],[-1.362111,39.348936],[-1.360528,39.338714],[-1.356815,39.331769],[-1.3565,39.321457],[-1.358776,39.320858],[-1.358837,39.309795],[-1.355674,39.308678],[-1.353707,39.305523],[-1.349123,39.30217],[-1.337836,39.30036],[-1.33859,39.288568],[-1.334082,39.277718],[-1.33495,39.273883],[-1.332791,39.270104],[-1.347397,39.258239],[-1.354122,39.257604],[-1.363142,39.250487],[-1.371327,39.247809],[-1.377485,39.247616],[-1.384029,39.245238],[-1.407312,39.246099],[-1.426294,39.245006],[-1.429522,39.259781],[-1.438138,39.273106],[-1.432697,39.289414],[-1.427003,39.293617],[-1.426566,39.307955],[-1.419958,39.315047],[-1.409254,39.319064],[-1.409986,39.321551],[-1.397769,39.33789],[-1.393981,39.348759],[-1.385174,39.354277],[-1.3775,39.356405],[-1.372463,39.355893]]]]}}
]
}
