{
"type": "FeatureCollection",
"name": "codigo_03060",
"crs": { "type": "name", "properties": { "name": "urn:ogc:def:crs:OGC:1.3:CRS84" } },
"xy_coordinate_resolution": 1e-15,
"features": [
{"type":"Feature","properties":{"fid":1374,"cartodb_id":198,"comautonom":"Comunitat Valenciana","cod_ccaa":"10","provincia":"Alicante","cod_prov":"03","texto":"Quatretondeta","codigo":"03060"},"geometry":{"type":"MultiPolygon","coordinates":[[[[-0.303364,38.734882],[-0.304111,38.734278],[-0.301412,38.734161],[-0.297653,38.73075],[-0.296922,38.728472],[-0.290159,38.726027],[-0.280967,38.712443],[-0.307192,38.699734],[-0.320083,38.695057],[-0.329238,38.696816],[-0.331034,38.700155],[-0.334107,38.701603],[-0.335564,38.704484],[-0.338441,38.705657],[-0.338815,38.70736],[-0.345233,38.711659],[-0.346689,38.714278],[-0.347791,38.715582],[-0.345176,38.716622],[-0.346207,38.717357],[-0.341487,38.721196],[-0.33731,38.722489],[-0.337153,38.72517],[-0.333058,38.726104],[-0.331456,38.729896],[-0.328173,38.729425],[-0.328393,38.730313],[-0.326937,38.73018],[-0.323552,38.732716],[-0.320978,38.73235],[-0.318098,38.73369],[-0.318618,38.738242],[-0.316197,38.74052],[-0.31171,38.739931],[-0.312328,38.742774],[-0.309275,38.741361],[-0.30776,38.738804],[-0.303873,38.737552],[-0.303364,38.734882]]]]}}
]
}
