{
"type": "FeatureCollection",
"name": "codigo_03064",
"crs": { "type": "name", "properties": { "name": "urn:ogc:def:crs:OGC:1.3:CRS84" } },
"xy_coordinate_resolution": 1e-15,
"features": [
{"type":"Feature","properties":{"fid":1382,"cartodb_id":202,"comautonom":"Comunitat Valenciana","cod_ccaa":"10","provincia":"Alicante","cod_prov":"03","texto":"Dolores","codigo":"03064"},"geometry":{"type":"MultiPolygon","coordinates":[[[[-0.71584,38.136529],[-0.729258,38.132552],[-0.736566,38.126061],[-0.748091,38.120732],[-0.744049,38.117888],[-0.739038,38.116548],[-0.742132,38.110156],[-0.751588,38.117186],[-0.78046,38.125737],[-0.779939,38.127854],[-0.78174,38.130185],[-0.787197,38.129649],[-0.79035,38.130636],[-0.795012,38.129643],[-0.79429,38.130882],[-0.785578,38.133781],[-0.786981,38.137196],[-0.782222,38.144027],[-0.771083,38.151223],[-0.771497,38.155601],[-0.768763,38.158459],[-0.755895,38.163125],[-0.755177,38.16458],[-0.751903,38.163418],[-0.715809,38.136535],[-0.71584,38.136529]]]]}}
]
}
