{
"type": "FeatureCollection",
"name": "codigo_02041",
"crs": { "type": "name", "properties": { "name": "urn:ogc:def:crs:OGC:1.3:CRS84" } },
"xy_coordinate_resolution": 1e-15,
"features": [
{"type":"Feature","properties":{"fid":1289,"cartodb_id":92,"comautonom":"Castilla - La Mancha","cod_ccaa":"08","provincia":"Albacete","cod_prov":"02","texto":"Jorquera","codigo":"02041"},"geometry":{"type":"MultiPolygon","coordinates":[[[[-1.41971,39.092624],[-1.415969,39.093925],[-1.412411,39.087082],[-1.40506,39.079801],[-1.404538,39.077307],[-1.409637,39.075737],[-1.417111,39.077496],[-1.434228,39.082359],[-1.444386,39.080963],[-1.448104,39.082779],[-1.455124,39.08371],[-1.450822,39.085338],[-1.446404,39.093325],[-1.443111,39.093732],[-1.441169,39.092688],[-1.441526,39.089061],[-1.437215,39.085318],[-1.43641,39.0872],[-1.437969,39.089401],[-1.433538,39.095775],[-1.427472,39.095054],[-1.41971,39.092624]]],[[[-1.543547,39.195263],[-1.534225,39.193596],[-1.518373,39.203514],[-1.503798,39.203265],[-1.502906,39.197865],[-1.506055,39.18967],[-1.506192,39.183743],[-1.504829,39.177049],[-1.497803,39.167245],[-1.497568,39.15652],[-1.496304,39.15444],[-1.478944,39.150205],[-1.492404,39.144713],[-1.495446,39.147464],[-1.50314,39.145905],[-1.503126,39.143283],[-1.500896,39.141479],[-1.500922,39.140254],[-1.505189,39.137678],[-1.502946,39.128819],[-1.516994,39.131422],[-1.518335,39.131448],[-1.518022,39.12985],[-1.523178,39.130041],[-1.530172,39.134157],[-1.534961,39.135308],[-1.53996,39.139218],[-1.540502,39.140964],[-1.546246,39.142405],[-1.560894,39.144732],[-1.566123,39.143093],[-1.57107,39.139334],[-1.57899,39.140791],[-1.584768,39.143447],[-1.592774,39.144112],[-1.596416,39.146003],[-1.599775,39.146386],[-1.60593,39.14409],[-1.609245,39.146184],[-1.609151,39.147435],[-1.610676,39.152824],[-1.614168,39.154199],[-1.618818,39.153696],[-1.618935,39.150696],[-1.622024,39.150129],[-1.625217,39.153762],[-1.62464,39.157206],[-1.626217,39.158829],[-1.634139,39.15739],[-1.644305,39.177611],[-1.631175,39.174151],[-1.624853,39.176582],[-1.605722,39.1763],[-1.598946,39.179985],[-1.581909,39.185537],[-1.583185,39.204438],[-1.581734,39.201141],[-1.574019,39.196703],[-1.552545,39.19524],[-1.543547,39.195263]]]]}}
]
}
