{
"type": "FeatureCollection",
"name": "codigo_02026",
"crs": { "type": "name", "properties": { "name": "urn:ogc:def:crs:OGC:1.3:CRS84" } },
"xy_coordinate_resolution": 1e-15,
"features": [
{"type":"Feature","properties":{"fid":54,"cartodb_id":77,"comautonom":"Castilla - La Mancha","cod_ccaa":"08","provincia":"Albacete","cod_prov":"02","texto":"Cenizate","codigo":"02026"},"geometry":{"type":"MultiPolygon","coordinates":[[[[-1.638155,39.33028],[-1.633516,39.328517],[-1.631037,39.322406],[-1.628396,39.322772],[-1.623915,39.32116],[-1.622534,39.316485],[-1.607195,39.310275],[-1.607743,39.306623],[-1.602866,39.304565],[-1.611196,39.302087],[-1.608816,39.297536],[-1.617548,39.273961],[-1.615672,39.270929],[-1.630516,39.26759],[-1.6323,39.259926],[-1.633725,39.258771],[-1.640851,39.258854],[-1.646929,39.253771],[-1.650199,39.253088],[-1.658845,39.248223],[-1.665002,39.248646],[-1.67116,39.252699],[-1.678214,39.246093],[-1.681823,39.251405],[-1.682451,39.252521],[-1.687739,39.270385],[-1.686723,39.282528],[-1.693279,39.292883],[-1.708454,39.305036],[-1.716603,39.32494],[-1.696264,39.337589],[-1.674002,39.345519],[-1.67373,39.342507],[-1.67031,39.342323],[-1.664675,39.339646],[-1.654448,39.332654],[-1.645415,39.337802],[-1.64507,39.332779],[-1.638155,39.33028]]]]}}
]
}
