{
"type": "FeatureCollection",
"name": "codigo_03019",
"crs": { "type": "name", "properties": { "name": "urn:ogc:def:crs:OGC:1.3:CRS84" } },
"xy_coordinate_resolution": 1e-15,
"features": [
{"type":"Feature","properties":{"fid":1337,"cartodb_id":157,"comautonom":"Comunitat Valenciana","cod_ccaa":"10","provincia":"Alicante","cod_prov":"03","texto":"Aspe","codigo":"03019"},"geometry":{"type":"MultiPolygon","coordinates":[[[[-0.748301,38.361849],[-0.738028,38.360246],[-0.735475,38.354772],[-0.727545,38.350032],[-0.712384,38.336554],[-0.706113,38.326817],[-0.735018,38.312539],[-0.740975,38.312212],[-0.745789,38.307817],[-0.761322,38.298789],[-0.781807,38.294844],[-0.795936,38.289686],[-0.802359,38.293167],[-0.825486,38.290588],[-0.828627,38.308705],[-0.834002,38.313715],[-0.835624,38.319161],[-0.840098,38.3241],[-0.840205,38.325886],[-0.836708,38.326543],[-0.846467,38.331516],[-0.847003,38.333121],[-0.852904,38.332418],[-0.858506,38.334864],[-0.858648,38.3382],[-0.870006,38.343354],[-0.873836,38.347776],[-0.855845,38.350611],[-0.851192,38.352779],[-0.832351,38.357189],[-0.822039,38.350357],[-0.816085,38.350859],[-0.814066,38.35257],[-0.772235,38.362099],[-0.748301,38.361849]]]]}}
]
}
