{
"type": "FeatureCollection",
"name": "codigo_02013",
"crs": { "type": "name", "properties": { "name": "urn:ogc:def:crs:OGC:1.3:CRS84" } },
"xy_coordinate_resolution": 1e-15,
"features": [
{"type":"Feature","properties":{"fid":50,"cartodb_id":64,"comautonom":"Castilla - La Mancha","cod_ccaa":"08","provincia":"Albacete","cod_prov":"02","texto":"Balsa de Ves","codigo":"02013"},"geometry":{"type":"MultiPolygon","coordinates":[[[[-1.197647,39.313577],[-1.194216,39.316015],[-1.191555,39.314397],[-1.188579,39.315576],[-1.168465,39.312513],[-1.165003,39.310512],[-1.161889,39.305418],[-1.166496,39.293336],[-1.174736,39.279239],[-1.17447,39.268468],[-1.175853,39.26566],[-1.17689,39.246666],[-1.176376,39.23025],[-1.180663,39.212297],[-1.189182,39.19942],[-1.202863,39.201037],[-1.209838,39.199063],[-1.214965,39.202394],[-1.222447,39.203698],[-1.227035,39.20639],[-1.234392,39.205358],[-1.237533,39.20618],[-1.237573,39.207361],[-1.240449,39.209053],[-1.235929,39.21149],[-1.232825,39.217975],[-1.244239,39.24425],[-1.249732,39.247486],[-1.262317,39.264352],[-1.265379,39.272255],[-1.26155,39.281775],[-1.254596,39.284023],[-1.248633,39.287447],[-1.246583,39.291065],[-1.240421,39.293126],[-1.237291,39.29725],[-1.231628,39.300651],[-1.227976,39.307046],[-1.2146,39.315861],[-1.214645,39.319078],[-1.213315,39.323491],[-1.210684,39.326117],[-1.207909,39.326237],[-1.203556,39.320917],[-1.20382,39.317839],[-1.197647,39.313577]]]]}}
]
}
