{
"type": "FeatureCollection",
"name": "codigo_02036",
"crs": { "type": "name", "properties": { "name": "urn:ogc:def:crs:OGC:1.3:CRS84" } },
"xy_coordinate_resolution": 1e-15,
"features": [
{"type":"Feature","properties":{"fid":1265,"cartodb_id":87,"comautonom":"Castilla - La Mancha","cod_ccaa":"08","provincia":"Albacete","cod_prov":"02","texto":"Golosalvo","codigo":"02036"},"geometry":{"type":"MultiPolygon","coordinates":[[[[-1.65705,39.200141],[-1.657298,39.204181],[-1.654842,39.20845],[-1.656449,39.220137],[-1.665947,39.231807],[-1.670307,39.239579],[-1.678214,39.246093],[-1.67116,39.252699],[-1.665002,39.248646],[-1.658845,39.248223],[-1.650199,39.253088],[-1.646929,39.253771],[-1.640851,39.258854],[-1.633725,39.258771],[-1.6323,39.259926],[-1.630516,39.26759],[-1.615672,39.270929],[-1.602048,39.268748],[-1.605218,39.262055],[-1.60528,39.249559],[-1.608637,39.24094],[-1.612553,39.235076],[-1.613075,39.228009],[-1.615955,39.22233],[-1.62114,39.214913],[-1.630555,39.207266],[-1.631545,39.204575],[-1.6492,39.197654],[-1.65705,39.200141]]]]}}
]
}
