{
"type": "FeatureCollection",
"name": "codigo_03121",
"crs": { "type": "name", "properties": { "name": "urn:ogc:def:crs:OGC:1.3:CRS84" } },
"xy_coordinate_resolution": 1e-15,
"features": [
{"type":"Feature","properties":{"fid":1425,"cartodb_id":257,"comautonom":"Comunitat Valenciana","cod_ccaa":"10","provincia":"Alicante","cod_prov":"03","texto":"Santa Pola","codigo":"03121"},"geometry":{"type":"MultiPolygon","coordinates":[[[[-0.543169,38.246646],[-0.523618,38.238945],[-0.519391,38.235937],[-0.515203,38.229424],[-0.514072,38.225084],[-0.510434,38.224241],[-0.507453,38.218222],[-0.507814,38.2083],[-0.509959,38.202011],[-0.516457,38.195256],[-0.525351,38.191227],[-0.536691,38.18878],[-0.538474,38.185673],[-0.537589,38.188204],[-0.538603,38.188955],[-0.548555,38.189749],[-0.556436,38.18895],[-0.56078,38.185021],[-0.556703,38.19019],[-0.561231,38.191198],[-0.59344,38.188543],[-0.600854,38.184577],[-0.612558,38.175417],[-0.617603,38.165968],[-0.62601,38.154478],[-0.631348,38.152117],[-0.633935,38.153251],[-0.631271,38.16082],[-0.635601,38.161746],[-0.637802,38.16534],[-0.65327,38.165227],[-0.659609,38.167219],[-0.667829,38.167157],[-0.670565,38.175492],[-0.657342,38.178491],[-0.647402,38.188348],[-0.635225,38.195934],[-0.630691,38.201267],[-0.6304,38.204586],[-0.623992,38.202555],[-0.616666,38.204497],[-0.607841,38.213157],[-0.602102,38.212644],[-0.595392,38.216624],[-0.590206,38.222546],[-0.583157,38.223617],[-0.578161,38.226154],[-0.571156,38.234128],[-0.560898,38.241285],[-0.561145,38.244156],[-0.543169,38.246646]]]]}}
]
}
