{
"type": "FeatureCollection",
"name": "codigo_03054",
"crs": { "type": "name", "properties": { "name": "urn:ogc:def:crs:OGC:1.3:CRS84" } },
"xy_coordinate_resolution": 1e-15,
"features": [
{"type":"Feature","properties":{"fid":67,"cartodb_id":192,"comautonom":"Comunitat Valenciana","cod_ccaa":"10","provincia":"Alicante","cod_prov":"03","texto":"Castell de Castells","codigo":"03054"},"geometry":{"type":"MultiPolygon","coordinates":[[[[-0.143209,38.737516],[-0.144422,38.729014],[-0.149271,38.72334],[-0.150367,38.713123],[-0.149526,38.704201],[-0.148966,38.700638],[-0.153437,38.700674],[-0.154074,38.698528],[-0.164655,38.699866],[-0.178237,38.702123],[-0.182499,38.700163],[-0.184631,38.701502],[-0.193224,38.702844],[-0.21253,38.710496],[-0.224352,38.712562],[-0.22624,38.714895],[-0.221968,38.719496],[-0.225162,38.723419],[-0.221244,38.729254],[-0.221551,38.732325],[-0.231832,38.743398],[-0.235056,38.749295],[-0.237958,38.7504],[-0.231784,38.755056],[-0.230124,38.758413],[-0.226477,38.758407],[-0.214334,38.762929],[-0.209628,38.765853],[-0.20505,38.76641],[-0.203839,38.767949],[-0.195691,38.769997],[-0.187544,38.769684],[-0.1758,38.773319],[-0.165115,38.760375],[-0.158207,38.756405],[-0.154297,38.752292],[-0.151246,38.745974],[-0.143209,38.737516]]]]}}
]
}
