{
"type": "FeatureCollection",
"name": "codigo_02045",
"crs": { "type": "name", "properties": { "name": "urn:ogc:def:crs:OGC:1.3:CRS84" } },
"xy_coordinate_resolution": 1e-15,
"features": [
{"type":"Feature","properties":{"fid":584,"cartodb_id":96,"comautonom":"Castilla - La Mancha","cod_ccaa":"08","provincia":"Albacete","cod_prov":"02","texto":"Madrigueras","codigo":"02045"},"geometry":{"type":"MultiPolygon","coordinates":[[[[-1.816436,39.286199],[-1.786382,39.283484],[-1.769854,39.280508],[-1.772159,39.27336],[-1.773985,39.253034],[-1.781464,39.212033],[-1.796533,39.183491],[-1.800214,39.171293],[-1.804772,39.163275],[-1.818142,39.165322],[-1.821085,39.166523],[-1.821568,39.168051],[-1.824382,39.168701],[-1.837578,39.191874],[-1.8472,39.202521],[-1.851723,39.219938],[-1.857054,39.23265],[-1.85744,39.24097],[-1.850634,39.257528],[-1.845192,39.286118],[-1.816436,39.286199]]]]}}
]
}
