{
"type": "FeatureCollection",
"name": "codigo_02042",
"crs": { "type": "name", "properties": { "name": "urn:ogc:def:crs:OGC:1.3:CRS84" } },
"xy_coordinate_resolution": 1e-15,
"features": [
{"type":"Feature","properties":{"fid":1291,"cartodb_id":93,"comautonom":"Castilla - La Mancha","cod_ccaa":"08","provincia":"Albacete","cod_prov":"02","texto":"Letur","codigo":"02042"},"geometry":{"type":"MultiPolygon","coordinates":[[[[-1.996117,38.408375],[-2.010564,38.397981],[-2.014816,38.3885],[-2.014389,38.381972],[-2.021205,38.37837],[-2.023153,38.373087],[-2.022346,38.370116],[-2.025293,38.36294],[-2.035548,38.353553],[-2.04437,38.341531],[-2.05447,38.33918],[-2.060073,38.335981],[-2.048109,38.314697],[-2.048992,38.305782],[-2.063772,38.297592],[-2.07622,38.282776],[-2.083526,38.265539],[-2.099298,38.250052],[-2.113728,38.238202],[-2.139173,38.231605],[-2.149308,38.230625],[-2.152138,38.228978],[-2.159694,38.228645],[-2.169054,38.22644],[-2.175251,38.223988],[-2.186794,38.214389],[-2.197282,38.211153],[-2.20347,38.207221],[-2.206659,38.207026],[-2.213523,38.201809],[-2.220835,38.205815],[-2.222342,38.209132],[-2.22,38.213416],[-2.214342,38.215901],[-2.214185,38.220875],[-2.216571,38.228462],[-2.216016,38.232315],[-2.218067,38.234969],[-2.217343,38.237434],[-2.221822,38.243881],[-2.220048,38.252692],[-2.22117,38.261009],[-2.222174,38.265522],[-2.219343,38.277859],[-2.22344,38.301002],[-2.225794,38.304415],[-2.232099,38.307404],[-2.234314,38.310996],[-2.229801,38.318122],[-2.224316,38.322836],[-2.215611,38.326977],[-2.211611,38.330799],[-2.211122,38.333715],[-2.206718,38.33574],[-2.205383,38.338498],[-2.201038,38.341362],[-2.201109,38.344237],[-2.199262,38.345684],[-2.202618,38.346419],[-2.202337,38.349139],[-2.19909,38.350928],[-2.200107,38.35208],[-2.199194,38.354984],[-2.196133,38.357505],[-2.190568,38.36692],[-2.186189,38.370576],[-2.181637,38.370147],[-2.177999,38.372979],[-2.179205,38.373663],[-2.178408,38.377298],[-2.176033,38.377759],[-2.174937,38.382573],[-2.173383,38.383265],[-2.171796,38.381875],[-2.170677,38.383597],[-2.173028,38.384299],[-2.173254,38.385571],[-2.166196,38.387954],[-2.163237,38.390385],[-2.166838,38.391888],[-2.160802,38.394963],[-2.155838,38.395378],[-2.155538,38.398566],[-2.145565,38.399368],[-2.142399,38.402724],[-2.138112,38.400161],[-2.136284,38.403599],[-2.128765,38.402191],[-2.126207,38.407318],[-2.118653,38.405946],[-2.112267,38.406465],[-2.107934,38.409568],[-2.09555,38.403363],[-2.093278,38.403661],[-2.08975,38.407392],[-2.08575,38.408532],[-2.082287,38.405234],[-2.076798,38.40456],[-2.073981,38.406286],[-2.072596,38.411619],[-2.07069,38.413794],[-2.068648,38.413119],[-2.06568,38.407058],[-2.063249,38.40547],[-2.06188,38.405919],[-2.059923,38.410193],[-2.055317,38.41213],[-2.053241,38.411437],[-2.050077,38.405553],[-2.045875,38.404555],[-2.042095,38.405479],[-2.039092,38.40395],[-2.03065,38.409188],[-2.027039,38.405175],[-2.019671,38.403771],[-2.016603,38.404448],[-2.012847,38.409472],[-2.008977,38.411026],[-2.005732,38.411322],[-1.996117,38.408375]]]]}}
]
}
