{
"type": "FeatureCollection",
"name": "codigo_03101",
"crs": { "type": "name", "properties": { "name": "urn:ogc:def:crs:OGC:1.3:CRS84" } },
"xy_coordinate_resolution": 1e-15,
"features": [
{"type":"Feature","properties":{"fid":1429,"cartodb_id":238,"comautonom":"Comunitat Valenciana","cod_ccaa":"10","provincia":"Alicante","cod_prov":"03","texto":"Pedreguer","codigo":"03101"},"geometry":{"type":"MultiPolygon","coordinates":[[[[0.061617,38.814875],[0.071047,38.800375],[0.072687,38.793521],[0.069204,38.786937],[0.069299,38.78352],[0.054368,38.780479],[0.039598,38.775],[0.037688,38.766329],[0.033693,38.763568],[0.006306,38.769267],[0.004323,38.777697],[-0.007711,38.782755],[-0.008831,38.78681],[-0.006529,38.791481],[-0.006386,38.798747],[-0.009251,38.807055],[0.003862,38.809178],[0.00562,38.809385],[0.007216,38.807929],[0.009104,38.809835],[0.01449,38.811687],[0.017134,38.810484],[0.021844,38.812948],[0.024345,38.81245],[0.023771,38.81169],[0.026178,38.80979],[0.028122,38.8111],[0.027748,38.813957],[0.029021,38.814653],[0.02717,38.81662],[0.031506,38.816769],[0.033508,38.819185],[0.036751,38.818002],[0.037212,38.814476],[0.047302,38.822385],[0.051275,38.821308],[0.061617,38.814875]]]]}}
]
}
