{
"type": "FeatureCollection",
"name": "codigo_03099",
"crs": { "type": "name", "properties": { "name": "urn:ogc:def:crs:OGC:1.3:CRS84" } },
"xy_coordinate_resolution": 1e-15,
"features": [
{"type":"Feature","properties":{"fid":1428,"cartodb_id":236,"comautonom":"Comunitat Valenciana","cod_ccaa":"10","provincia":"Alicante","cod_prov":"03","texto":"Orihuela","codigo":"03099"},"geometry":{"type":"MultiPolygon","coordinates":[[[[-0.980275,38.131832],[-0.972937,38.136436],[-0.967132,38.136769],[-0.959051,38.139746],[-0.947798,38.131341],[-0.941802,38.123053],[-0.932661,38.12438],[-0.932584,38.131146],[-0.931446,38.130252],[-0.928916,38.126539],[-0.928619,38.122506],[-0.918311,38.1055],[-0.907867,38.110198],[-0.905351,38.106459],[-0.90812,38.10376],[-0.906501,38.10173],[-0.90791,38.101107],[-0.909298,38.102834],[-0.912484,38.101476],[-0.910263,38.09858],[-0.907629,38.099786],[-0.904769,38.103267],[-0.902027,38.099866],[-0.899931,38.099811],[-0.900942,38.102712],[-0.899243,38.10352],[-0.894378,38.101748],[-0.89123,38.103376],[-0.895391,38.108596],[-0.893865,38.109308],[-0.894825,38.111227],[-0.893498,38.111761],[-0.892182,38.110332],[-0.890387,38.11048],[-0.886892,38.10629],[-0.883014,38.106689],[-0.876349,38.104117],[-0.855304,38.111277],[-0.853601,38.11531],[-0.849523,38.119011],[-0.839294,38.125501],[-0.832356,38.125959],[-0.825481,38.128913],[-0.815725,38.130525],[-0.812139,38.130657],[-0.810808,38.128244],[-0.814517,38.127043],[-0.827505,38.104531],[-0.825095,38.096205],[-0.828401,38.09623],[-0.83507,38.099759],[-0.845004,38.093859],[-0.84181,38.088088],[-0.849172,38.081617],[-0.840124,38.067917],[-0.837591,38.054092],[-0.839922,38.05427],[-0.84197,38.05747],[-0.85272,38.059298],[-0.857987,38.06746],[-0.860817,38.066944],[-0.862189,38.070339],[-0.865066,38.069796],[-0.868287,38.071522],[-0.870265,38.069368],[-0.872964,38.071003],[-0.874869,38.073353],[-0.880491,38.074834],[-0.880155,38.071088],[-0.881131,38.071241],[-0.881826,38.067306],[-0.879988,38.06147],[-0.880854,38.061089],[-0.882083,38.061553],[-0.886858,38.061549],[-0.888663,38.057472],[-0.885307,38.055285],[-0.88016,38.054327],[-0.87444,38.05626],[-0.864087,38.050558],[-0.862564,38.04807],[-0.858974,38.046121],[-0.855036,38.03857],[-0.85457,38.030316],[-0.853365,38.031006],[-0.851726,38.028984],[-0.849864,38.029545],[-0.844663,38.025485],[-0.843279,38.021008],[-0.841196,38.021366],[-0.840102,38.019814],[-0.833187,38.023309],[-0.825131,38.038407],[-0.82561,38.040714],[-0.834995,38.048169],[-0.835392,38.050176],[-0.831594,38.050314],[-0.828893,38.047614],[-0.817599,38.055723],[-0.813909,38.042606],[-0.815686,38.038043],[-0.810411,38.022337],[-0.827783,38.020803],[-0.840297,37.994171],[-0.844879,37.952001],[-0.8089,37.93189],[-0.789816,37.935443],[-0.784299,37.936926],[-0.770743,37.94386],[-0.757782,37.973423],[-0.740523,37.962658],[-0.734284,37.957433],[-0.733004,37.957773],[-0.732502,37.956317],[-0.727007,37.954467],[-0.71584,37.947695],[-0.716476,37.946685],[-0.71314,37.946057],[-0.711328,37.944958],[-0.711752,37.944025],[-0.705798,37.9416],[-0.705091,37.940759],[-0.710447,37.941611],[-0.717067,37.93728],[-0.718363,37.935106],[-0.722493,37.920723],[-0.719231,37.91218],[-0.720113,37.91089],[-0.724161,37.910897],[-0.728984,37.913838],[-0.732127,37.912628],[-0.736076,37.908856],[-0.740805,37.90892],[-0.745458,37.902926],[-0.746533,37.899388],[-0.748236,37.900204],[-0.750508,37.898058],[-0.75209,37.888311],[-0.764478,37.895621],[-0.770416,37.895562],[-0.77516,37.896995],[-0.777277,37.89772],[-0.778854,37.900462],[-0.782843,37.901718],[-0.783048,37.905858],[-0.780728,37.910022],[-0.785606,37.911196],[-0.785335,37.913038],[-0.798753,37.916201],[-0.803607,37.914768],[-0.8083,37.910747],[-0.809857,37.911145],[-0.809961,37.914166],[-0.820147,37.917446],[-0.824349,37.921516],[-0.829525,37.924216],[-0.835461,37.924325],[-0.844906,37.930059],[-0.847378,37.93033],[-0.847771,37.931689],[-0.845846,37.932924],[-0.849222,37.936536],[-0.852535,37.93648],[-0.861877,37.940768],[-0.861237,37.943244],[-0.865487,37.950106],[-0.865018,37.955297],[-0.877657,37.956274],[-0.89258,37.953821],[-0.907908,37.947462],[-0.915766,37.948882],[-0.922364,37.946466],[-0.934187,37.968888],[-0.957711,37.996965],[-0.966022,38.01269],[-0.981946,38.029275],[-0.981863,38.030643],[-0.998626,38.051422],[-1.000713,38.051773],[-1.0019,38.053803],[-1.006609,38.054973],[-1.010417,38.059544],[-1.022599,38.075691],[-1.025936,38.088101],[-1.030335,38.097079],[-1.030607,38.115845],[-1.036762,38.13772],[-1.025923,38.147432],[-1.008812,38.166914],[-1.008234,38.163858],[-1.005369,38.160935],[-1.004536,38.151306],[-1.000673,38.147771],[-0.996119,38.146134],[-0.99648,38.141698],[-0.9922,38.13966],[-0.989878,38.136106],[-0.984563,38.132416],[-0.982754,38.131316],[-0.980275,38.131832]],[[-0.907795,38.066357],[-0.908289,38.064221],[-0.906077,38.06146],[-0.902541,38.060775],[-0.902163,38.054046],[-0.899338,38.05359],[-0.896595,38.046332],[-0.893284,38.046552],[-0.890718,38.04465],[-0.884714,38.044992],[-0.888611,38.051343],[-0.892599,38.054938],[-0.892491,38.057117],[-0.88966,38.060851],[-0.891049,38.062084],[-0.891091,38.064977],[-0.893179,38.064519],[-0.893984,38.072986],[-0.899762,38.072242],[-0.907245,38.073268],[-0.909574,38.07194],[-0.911566,38.066433],[-0.907795,38.066357]],[[-0.842564,38.101618],[-0.84381,38.104209],[-0.846603,38.105027],[-0.843152,38.107198],[-0.838422,38.107498],[-0.840384,38.111364],[-0.843787,38.113923],[-0.846847,38.114979],[-0.848566,38.114704],[-0.84881,38.113384],[-0.852152,38.113752],[-0.85265,38.105345],[-0.856007,38.10519],[-0.856503,38.103441],[-0.855492,38.099395],[-0.850988,38.099015],[-0.842564,38.101618]]],[[[-0.823178,38.073164],[-0.828491,38.077768],[-0.83116,38.085413],[-0.823742,38.08606],[-0.823894,38.08554],[-0.819991,38.072627],[-0.823178,38.073164]]],[[[-0.948682,38.283609],[-0.95156,38.280046],[-0.952823,38.274553],[-0.962438,38.257329],[-0.95403,38.258048],[-0.944002,38.25543],[-0.940698,38.251416],[-0.940289,38.242425],[-0.943072,38.240591],[-0.946655,38.240726],[-0.948261,38.23523],[-0.944668,38.230959],[-0.942263,38.22997],[-0.94265,38.222741],[-0.941378,38.220043],[-0.934286,38.216341],[-0.930378,38.210378],[-0.923354,38.207569],[-0.915702,38.200377],[-0.893746,38.166202],[-0.894909,38.165827],[-0.895749,38.165581],[-0.910227,38.159423],[-0.92067,38.158212],[-0.93053,38.154998],[-0.932184,38.161867],[-0.938513,38.173423],[-0.943587,38.171565],[-0.945182,38.170873],[-0.950033,38.16802],[-0.946136,38.15521],[-0.95075,38.15748],[-0.954393,38.154975],[-0.956845,38.155009],[-0.961999,38.154792],[-0.966616,38.151673],[-0.973202,38.152418],[-0.985271,38.17],[-0.988176,38.169797],[-0.99223,38.173065],[-0.999154,38.172832],[-1.001351,38.173915],[-1.004893,38.17211],[-0.99946,38.18352],[-0.997563,38.184682],[-0.991688,38.196143],[-0.988546,38.199532],[-0.977812,38.238302],[-0.968597,38.25576],[-0.967677,38.27564],[-0.971492,38.290088],[-0.984489,38.307127],[-0.989035,38.320551],[-0.979637,38.324111],[-0.977254,38.327133],[-0.971465,38.329611],[-0.971282,38.329211],[-0.956987,38.29727],[-0.948682,38.283609]]]]}}
]
}
