{
"type": "FeatureCollection",
"name": "codigo_03107",
"crs": { "type": "name", "properties": { "name": "urn:ogc:def:crs:OGC:1.3:CRS84" } },
"xy_coordinate_resolution": 1e-15,
"features": [
{"type":"Feature","properties":{"fid":1421,"cartodb_id":244,"comautonom":"Comunitat Valenciana","cod_ccaa":"10","provincia":"Alicante","cod_prov":"03","texto":"Polop","codigo":"03107"},"geometry":{"type":"MultiPolygon","coordinates":[[[[-0.150848,38.64223],[-0.146102,38.641141],[-0.132566,38.641224],[-0.126176,38.638428],[-0.125541,38.640502],[-0.11262,38.629579],[-0.118091,38.625778],[-0.118199,38.624501],[-0.122466,38.623218],[-0.127311,38.619806],[-0.131058,38.620015],[-0.132631,38.621738],[-0.134867,38.621838],[-0.133134,38.618354],[-0.135321,38.611317],[-0.134344,38.603572],[-0.135961,38.60245],[-0.137358,38.597637],[-0.141597,38.593533],[-0.141254,38.59175],[-0.146924,38.594681],[-0.151944,38.594885],[-0.154852,38.593037],[-0.165012,38.597112],[-0.168641,38.600876],[-0.173118,38.601174],[-0.174272,38.602202],[-0.186729,38.610133],[-0.181936,38.619054],[-0.177876,38.620948],[-0.17383,38.62485],[-0.174258,38.627689],[-0.178535,38.631667],[-0.179798,38.636076],[-0.17558,38.635821],[-0.174189,38.63731],[-0.172111,38.637296],[-0.16691,38.644224],[-0.156232,38.647253],[-0.150848,38.64223]]]]}}
]
}
