{
"type": "FeatureCollection",
"name": "codigo_03025",
"crs": { "type": "name", "properties": { "name": "urn:ogc:def:crs:OGC:1.3:CRS84" } },
"xy_coordinate_resolution": 1e-15,
"features": [
{"type":"Feature","properties":{"fid":1342,"cartodb_id":163,"comautonom":"Comunitat Valenciana","cod_ccaa":"10","provincia":"Alicante","cod_prov":"03","texto":"Benferri","codigo":"03025"},"geometry":{"type":"MultiPolygon","coordinates":[[[[-0.999154,38.172832],[-0.99223,38.173065],[-0.988176,38.169797],[-0.985271,38.17],[-0.973202,38.152418],[-0.966616,38.151673],[-0.961999,38.154792],[-0.956845,38.155009],[-0.949328,38.14064],[-0.955576,38.140785],[-0.959051,38.139746],[-0.967132,38.136769],[-0.972937,38.136436],[-0.980275,38.131832],[-0.982754,38.131316],[-0.984563,38.132416],[-0.989878,38.136106],[-0.9922,38.13966],[-0.99648,38.141698],[-0.996119,38.146134],[-1.000673,38.147771],[-1.004536,38.151306],[-1.005369,38.160935],[-1.008234,38.163858],[-1.008812,38.166914],[-1.004893,38.17211],[-1.001351,38.173915],[-0.999154,38.172832]]]]}}
]
}
