{
"type": "FeatureCollection",
"name": "codigo_02084",
"crs": { "type": "name", "properties": { "name": "urn:ogc:def:crs:OGC:1.3:CRS84" } },
"xy_coordinate_resolution": 1e-15,
"features": [
{"type":"Feature","properties":{"fid":1321,"cartodb_id":135,"comautonom":"Castilla - La Mancha","cod_ccaa":"08","provincia":"Albacete","cod_prov":"02","texto":"Villaverde de Guadalimar","codigo":"02084"},"geometry":{"type":"MultiPolygon","coordinates":[[[[-2.545585,38.405562],[-2.549313,38.40636],[-2.5495,38.409865],[-2.544758,38.408806],[-2.54421,38.405659],[-2.545573,38.405565],[-2.545585,38.405562]]],[[[-2.507353,38.49956],[-2.496328,38.495205],[-2.492628,38.491341],[-2.486949,38.488532],[-2.486148,38.485122],[-2.481489,38.484146],[-2.47816,38.478273],[-2.468357,38.475282],[-2.460935,38.471319],[-2.453028,38.46337],[-2.452523,38.458898],[-2.450021,38.456408],[-2.450566,38.447975],[-2.45406,38.445225],[-2.460059,38.436691],[-2.458986,38.428602],[-2.460378,38.426266],[-2.462985,38.422285],[-2.4651,38.421313],[-2.471467,38.423225],[-2.472712,38.425321],[-2.473216,38.436399],[-2.473019,38.439841],[-2.481231,38.435516],[-2.491786,38.436869],[-2.495782,38.435588],[-2.505289,38.437765],[-2.514392,38.436947],[-2.516373,38.435504],[-2.526642,38.43341],[-2.535396,38.426208],[-2.539286,38.421546],[-2.538884,38.412857],[-2.545136,38.416748],[-2.561796,38.414212],[-2.563786,38.412898],[-2.571888,38.414127],[-2.575542,38.420025],[-2.577384,38.426187],[-2.575316,38.431073],[-2.576982,38.434287],[-2.569438,38.440812],[-2.568961,38.441909],[-2.571,38.443963],[-2.57036,38.447475],[-2.566967,38.453464],[-2.567405,38.460658],[-2.57332,38.468277],[-2.576797,38.477319],[-2.575721,38.482894],[-2.572608,38.487704],[-2.566629,38.490467],[-2.5641,38.489664],[-2.556898,38.493584],[-2.546957,38.495277],[-2.537402,38.502791],[-2.535444,38.502315],[-2.526654,38.50483],[-2.514952,38.506999],[-2.509764,38.502517],[-2.507353,38.49956]]]]}}
]
}
