{
"type": "FeatureCollection",
"name": "codigo_02009",
"crs": { "type": "name", "properties": { "name": "urn:ogc:def:crs:OGC:1.3:CRS84" } },
"xy_coordinate_resolution": 1e-15,
"features": [
{"type":"Feature","properties":{"fid":1261,"cartodb_id":60,"comautonom":"Castilla - La Mancha","cod_ccaa":"08","provincia":"Albacete","cod_prov":"02","texto":"Almansa","codigo":"02009"},"geometry":{"type":"MultiPolygon","coordinates":[[[[-0.998794,38.949355],[-0.991825,38.94728],[-0.987774,38.947724],[-0.9773,38.942767],[-0.95941,38.944582],[-0.957548,38.933097],[-0.958646,38.928206],[-0.955973,38.923267],[-0.956524,38.920123],[-0.953429,38.919474],[-0.950487,38.911475],[-0.946668,38.908345],[-0.940855,38.899619],[-0.924537,38.891753],[-0.927585,38.884896],[-0.931932,38.879675],[-0.932574,38.867883],[-0.93075,38.863616],[-0.935697,38.855937],[-0.932297,38.841649],[-0.931189,38.829781],[-0.924879,38.823362],[-0.927784,38.815719],[-0.932796,38.811267],[-0.933848,38.793976],[-0.929013,38.786808],[-0.928938,38.783834],[-0.950009,38.77606],[-0.961429,38.774792],[-0.967746,38.773253],[-0.983061,38.763625],[-0.997047,38.758162],[-1.007963,38.756258],[-1.050858,38.742925],[-1.067276,38.736548],[-1.080138,38.739103],[-1.0954,38.737983],[-1.098794,38.736237],[-1.119671,38.737719],[-1.149851,38.746067],[-1.183634,38.755085],[-1.222459,38.784373],[-1.254251,38.810992],[-1.263321,38.816425],[-1.277821,38.828408],[-1.285082,38.832074],[-1.28765,38.834058],[-1.298352,38.837918],[-1.291862,38.842878],[-1.278765,38.866645],[-1.27256,38.87014],[-1.270518,38.869262],[-1.268299,38.870464],[-1.265675,38.881211],[-1.261862,38.887732],[-1.258071,38.890955],[-1.240204,38.891723],[-1.213252,38.899801],[-1.201056,38.900118],[-1.190105,38.909068],[-1.171845,38.920019],[-1.162805,38.921688],[-1.161319,38.923394],[-1.149508,38.926046],[-1.146654,38.929352],[-1.138325,38.927589],[-1.129105,38.929451],[-1.10592,38.928527],[-1.091123,38.931404],[-1.06992,38.933966],[-1.054215,38.934543],[-1.042628,38.9368],[-1.034595,38.934448],[-1.013443,38.939181],[-1.007076,38.946136],[-0.998794,38.949355]]]]}}
]
}
