{
"type": "FeatureCollection",
"name": "codigo_02034",
"crs": { "type": "name", "properties": { "name": "urn:ogc:def:crs:OGC:1.3:CRS84" } },
"xy_coordinate_resolution": 1e-15,
"features": [
{"type":"Feature","properties":{"fid":1282,"cartodb_id":85,"comautonom":"Castilla - La Mancha","cod_ccaa":"08","provincia":"Albacete","cod_prov":"02","texto":"Fuentealbilla","codigo":"02034"},"geometry":{"type":"MultiPolygon","coordinates":[[[[-1.532166,39.316273],[-1.530985,39.317294],[-1.522334,39.312797],[-1.518191,39.307932],[-1.512288,39.296405],[-1.512085,39.29014],[-1.506024,39.268132],[-1.480414,39.246896],[-1.477747,39.241104],[-1.477985,39.234908],[-1.478902,39.229469],[-1.484971,39.230079],[-1.534141,39.232178],[-1.562611,39.226883],[-1.597664,39.225842],[-1.601129,39.222838],[-1.595708,39.218745],[-1.594767,39.215977],[-1.588929,39.210229],[-1.586214,39.209304],[-1.583185,39.204438],[-1.581909,39.185537],[-1.598946,39.179985],[-1.605722,39.1763],[-1.624853,39.176582],[-1.631175,39.174151],[-1.644305,39.177611],[-1.634139,39.15739],[-1.635445,39.156261],[-1.641728,39.162336],[-1.640512,39.163601],[-1.643945,39.166245],[-1.64478,39.165534],[-1.647881,39.16621],[-1.647863,39.168363],[-1.649938,39.170586],[-1.649255,39.174236],[-1.651301,39.18227],[-1.65705,39.200141],[-1.6492,39.197654],[-1.631545,39.204575],[-1.630555,39.207266],[-1.62114,39.214913],[-1.615955,39.22233],[-1.613075,39.228009],[-1.612553,39.235076],[-1.608637,39.24094],[-1.60528,39.249559],[-1.605218,39.262055],[-1.602048,39.268748],[-1.615672,39.270929],[-1.617548,39.273961],[-1.608816,39.297536],[-1.611196,39.302087],[-1.602866,39.304565],[-1.596856,39.306429],[-1.585874,39.302909],[-1.585209,39.300828],[-1.574492,39.304293],[-1.568294,39.303982],[-1.549813,39.308763],[-1.54234,39.312283],[-1.540719,39.3172],[-1.532166,39.316273]]]]}}
]
}
