{
"type": "FeatureCollection",
"name": "codigo_02082",
"crs": { "type": "name", "properties": { "name": "urn:ogc:def:crs:OGC:1.3:CRS84" } },
"xy_coordinate_resolution": 1e-15,
"features": [
{"type":"Feature","properties":{"fid":586,"cartodb_id":133,"comautonom":"Castilla - La Mancha","cod_ccaa":"08","provincia":"Albacete","cod_prov":"02","texto":"Villatoya","codigo":"02082"},"geometry":{"type":"MultiPolygon","coordinates":[[[[-1.350972,39.33948],[-1.342718,39.340174],[-1.338524,39.33742],[-1.339095,39.33586],[-1.336297,39.333973],[-1.333738,39.335738],[-1.330058,39.336307],[-1.330909,39.338068],[-1.334842,39.339539],[-1.333996,39.340509],[-1.328163,39.342308],[-1.321805,39.339369],[-1.318429,39.343186],[-1.312744,39.343167],[-1.309829,39.340394],[-1.299137,39.337743],[-1.299007,39.335921],[-1.301688,39.333978],[-1.298032,39.331158],[-1.311387,39.311819],[-1.313371,39.305504],[-1.334687,39.302577],[-1.337836,39.30036],[-1.349123,39.30217],[-1.353707,39.305523],[-1.355674,39.308678],[-1.358837,39.309795],[-1.358776,39.320858],[-1.3565,39.321457],[-1.356815,39.331769],[-1.360528,39.338714],[-1.362111,39.348936],[-1.357564,39.347349],[-1.355549,39.342202],[-1.350972,39.33948]]]]}}
]
}
