{
"type": "FeatureCollection",
"name": "codigo_03023",
"crs": { "type": "name", "properties": { "name": "urn:ogc:def:crs:OGC:1.3:CRS84" } },
"xy_coordinate_resolution": 1e-15,
"features": [
{"type":"Feature","properties":{"fid":1341,"cartodb_id":161,"comautonom":"Comunitat Valenciana","cod_ccaa":"10","provincia":"Alicante","cod_prov":"03","texto":"Beneixama","codigo":"03023"},"geometry":{"type":"MultiPolygon","coordinates":[[[[-0.742823,38.75475],[-0.733675,38.741301],[-0.725851,38.725742],[-0.717119,38.713525],[-0.713286,38.710405],[-0.716052,38.710576],[-0.721326,38.707435],[-0.723887,38.707899],[-0.730209,38.704734],[-0.733635,38.705107],[-0.736396,38.703241],[-0.740203,38.703216],[-0.743804,38.700961],[-0.747836,38.700372],[-0.752752,38.696132],[-0.755254,38.696262],[-0.759166,38.692489],[-0.760597,38.686038],[-0.767754,38.679923],[-0.772535,38.6866],[-0.776584,38.696183],[-0.785456,38.693711],[-0.786997,38.696308],[-0.786255,38.703953],[-0.789376,38.710139],[-0.791055,38.718361],[-0.796547,38.722276],[-0.800334,38.729664],[-0.801059,38.737165],[-0.792657,38.739169],[-0.787586,38.746543],[-0.783733,38.748353],[-0.779585,38.746688],[-0.770477,38.750614],[-0.765746,38.751047],[-0.761458,38.749063],[-0.758062,38.750224],[-0.756502,38.752635],[-0.752078,38.75538],[-0.747232,38.754709],[-0.74336,38.755635],[-0.742823,38.75475]]]]}}
]
}
