{
"type": "FeatureCollection",
"name": "codigo_03125",
"crs": { "type": "name", "properties": { "name": "urn:ogc:def:crs:OGC:1.3:CRS84" } },
"xy_coordinate_resolution": 1e-15,
"features": [
{"type":"Feature","properties":{"fid":595,"cartodb_id":261,"comautonom":"Comunitat Valenciana","cod_ccaa":"10","provincia":"Alicante","cod_prov":"03","texto":"Senija","codigo":"03125"},"geometry":{"type":"MultiPolygon","coordinates":[[[[0.055317,38.749508],[0.054215,38.747402],[0.050983,38.745792],[0.05478,38.741234],[0.052761,38.736773],[0.055648,38.722499],[0.053488,38.720646],[0.051256,38.721983],[0.05062,38.72082],[0.044796,38.720801],[0.042025,38.723243],[0.034111,38.724187],[0.030878,38.729334],[0.033203,38.731274],[0.034053,38.734504],[0.029767,38.734156],[0.031217,38.737164],[0.036418,38.737731],[0.038489,38.739389],[0.040787,38.743924],[0.039629,38.74645],[0.040541,38.750038],[0.055265,38.749657],[0.055317,38.749508]]]]}}
]
}
