{
"type": "FeatureCollection",
"name": "codigo_02054",
"crs": { "type": "name", "properties": { "name": "urn:ogc:def:crs:OGC:1.3:CRS84" } },
"xy_coordinate_resolution": 1e-15,
"features": [
{"type":"Feature","properties":{"fid":56,"cartodb_id":105,"comautonom":"Castilla - La Mancha","cod_ccaa":"08","provincia":"Albacete","cod_prov":"02","texto":"Navas de Jorquera","codigo":"02054"},"geometry":{"type":"MultiPolygon","coordinates":[[[[-1.682451,39.252521],[-1.681823,39.251405],[-1.689896,39.251658],[-1.702429,39.248834],[-1.70834,39.249414],[-1.713928,39.251863],[-1.720478,39.251701],[-1.723786,39.252062],[-1.749062,39.26186],[-1.759235,39.267312],[-1.770919,39.269328],[-1.772159,39.27336],[-1.769854,39.280508],[-1.766659,39.293476],[-1.763108,39.301494],[-1.739282,39.32116],[-1.735185,39.321944],[-1.716603,39.32494],[-1.708454,39.305036],[-1.693279,39.292883],[-1.686723,39.282528],[-1.687739,39.270385],[-1.682451,39.252521]]]]}}
]
}
