{
"type": "FeatureCollection",
"name": "codigo_02018",
"crs": { "type": "name", "properties": { "name": "urn:ogc:def:crs:OGC:1.3:CRS84" } },
"xy_coordinate_resolution": 1e-15,
"features": [
{"type":"Feature","properties":{"fid":579,"cartodb_id":69,"comautonom":"Castilla - La Mancha","cod_ccaa":"08","provincia":"Albacete","cod_prov":"02","texto":"Bonete","codigo":"02018"},"geometry":{"type":"MultiPolygon","coordinates":[[[[-1.191767,38.924907],[-1.177209,38.92222],[-1.171845,38.920019],[-1.190105,38.909068],[-1.201056,38.900118],[-1.213252,38.899801],[-1.240204,38.891723],[-1.258071,38.890955],[-1.261862,38.887732],[-1.265675,38.881211],[-1.268299,38.870464],[-1.270518,38.869262],[-1.27256,38.87014],[-1.278765,38.866645],[-1.291862,38.842878],[-1.298352,38.837918],[-1.310078,38.833168],[-1.316306,38.83188],[-1.332237,38.831937],[-1.339273,38.828109],[-1.358821,38.821199],[-1.362954,38.830262],[-1.36175,38.833517],[-1.371593,38.839386],[-1.372319,38.845938],[-1.378762,38.855516],[-1.379584,38.858915],[-1.386752,38.868106],[-1.389305,38.873458],[-1.394066,38.874469],[-1.39636,38.881133],[-1.40213,38.884456],[-1.401932,38.887634],[-1.401778,38.889353],[-1.398716,38.892212],[-1.390825,38.897015],[-1.372059,38.912415],[-1.384561,38.917473],[-1.370054,38.922398],[-1.343142,38.926398],[-1.337942,38.927784],[-1.33263,38.931006],[-1.323735,38.931491],[-1.294437,38.926525],[-1.281822,38.927746],[-1.273489,38.926983],[-1.253211,38.919878],[-1.249997,38.925335],[-1.236598,38.928413],[-1.225394,38.935461],[-1.191767,38.924907]]]]}}
]
}
