{
"type": "FeatureCollection",
"name": "codigo_02011",
"crs": { "type": "name", "properties": { "name": "urn:ogc:def:crs:OGC:1.3:CRS84" } },
"xy_coordinate_resolution": 1e-15,
"features": [
{"type":"Feature","properties":{"fid":1267,"cartodb_id":62,"comautonom":"Castilla - La Mancha","cod_ccaa":"08","provincia":"Albacete","cod_prov":"02","texto":"Ayna","codigo":"02011"},"geometry":{"type":"MultiPolygon","coordinates":[[[[-2.030489,38.619359],[-2.021972,38.618891],[-2.015983,38.620085],[-2.004783,38.619206],[-2.010158,38.613412],[-2.011719,38.609379],[-2.014616,38.607448],[-2.034331,38.573557],[-2.033368,38.565754],[-2.038824,38.555147],[-2.041348,38.555222],[-2.042876,38.551639],[-2.045142,38.550405],[-2.045522,38.539053],[-2.048425,38.533769],[-2.055362,38.503456],[-2.063015,38.506689],[-2.074843,38.51001],[-2.080127,38.510259],[-2.106717,38.518377],[-2.113758,38.51761],[-2.121687,38.51831],[-2.130523,38.521845],[-2.142879,38.517854],[-2.162835,38.506238],[-2.173581,38.505278],[-2.178649,38.504413],[-2.185136,38.500646],[-2.189371,38.501405],[-2.190489,38.502963],[-2.201565,38.507338],[-2.211103,38.512972],[-2.211337,38.507305],[-2.233485,38.511507],[-2.235611,38.51436],[-2.225402,38.516564],[-2.228347,38.518944],[-2.227834,38.520797],[-2.225217,38.51987],[-2.222782,38.521287],[-2.226639,38.523106],[-2.225603,38.527758],[-2.221729,38.527462],[-2.221282,38.530541],[-2.21778,38.532969],[-2.215013,38.534212],[-2.211452,38.533539],[-2.210213,38.536613],[-2.206601,38.536426],[-2.205512,38.538401],[-2.199258,38.540567],[-2.196345,38.543494],[-2.181509,38.547437],[-2.175748,38.547514],[-2.173849,38.548969],[-2.165418,38.546684],[-2.154832,38.546175],[-2.152418,38.551474],[-2.138057,38.565275],[-2.135419,38.576565],[-2.135709,38.59158],[-2.136448,38.596092],[-2.141302,38.602147],[-2.135284,38.615503],[-2.131013,38.621104],[-2.128797,38.628558],[-2.122157,38.635123],[-2.111502,38.643838],[-2.103355,38.642045],[-2.092205,38.633245],[-2.080647,38.627847],[-2.054898,38.622037],[-2.030489,38.619359]]]]}}
]
}
