{
"type": "FeatureCollection",
"name": "codigo_02019",
"crs": { "type": "name", "properties": { "name": "urn:ogc:def:crs:OGC:1.3:CRS84" } },
"xy_coordinate_resolution": 1e-15,
"features": [
{"type":"Feature","properties":{"fid":1273,"cartodb_id":70,"comautonom":"Castilla - La Mancha","cod_ccaa":"08","provincia":"Albacete","cod_prov":"02","texto":"Bonillo (El)","codigo":"02019"},"geometry":{"type":"MultiPolygon","coordinates":[[[[-2.549942,39.079472],[-2.541386,39.061741],[-2.535981,39.055691],[-2.533922,39.050799],[-2.534273,39.041222],[-2.535952,39.035398],[-2.531491,39.021665],[-2.52233,39.011319],[-2.492159,38.998756],[-2.474168,39.000091],[-2.453396,39.005709],[-2.447763,38.994968],[-2.436927,38.980931],[-2.41786,38.967536],[-2.415824,38.96248],[-2.417487,38.93978],[-2.407388,38.922157],[-2.400562,38.914922],[-2.391473,38.908171],[-2.381875,38.907093],[-2.374644,38.904441],[-2.368476,38.904255],[-2.367354,38.898067],[-2.360789,38.885569],[-2.361558,38.880815],[-2.35985,38.874669],[-2.361607,38.863847],[-2.357711,38.856157],[-2.35855,38.853882],[-2.371355,38.843282],[-2.376399,38.83436],[-2.376346,38.849725],[-2.379607,38.853698],[-2.37972,38.864485],[-2.381019,38.867547],[-2.399803,38.885902],[-2.41034,38.893011],[-2.419577,38.897221],[-2.437419,38.902715],[-2.452723,38.904185],[-2.46744,38.893205],[-2.499374,38.877901],[-2.520914,38.872026],[-2.546726,38.868255],[-2.55221,38.870384],[-2.564795,38.870846],[-2.569336,38.87152],[-2.579677,38.87409],[-2.58637,38.880792],[-2.592682,38.881823],[-2.606396,38.887097],[-2.622426,38.898162],[-2.637138,38.889639],[-2.642081,38.876425],[-2.637109,38.872661],[-2.632464,38.865771],[-2.629466,38.863824],[-2.621093,38.853894],[-2.617232,38.845329],[-2.60542,38.834936],[-2.605021,38.834204],[-2.608209,38.836946],[-2.613766,38.838505],[-2.616166,38.837765],[-2.617681,38.832543],[-2.62707,38.82823],[-2.629966,38.829645],[-2.633493,38.829386],[-2.636277,38.832341],[-2.64124,38.830599],[-2.643392,38.833328],[-2.645892,38.8311],[-2.651385,38.829224],[-2.654598,38.829594],[-2.657114,38.828575],[-2.659075,38.830473],[-2.663697,38.827693],[-2.66663,38.828611],[-2.668598,38.82658],[-2.673651,38.827487],[-2.696501,38.815572],[-2.702198,38.811189],[-2.717284,38.794411],[-2.722116,38.783807],[-2.732244,38.781848],[-2.732762,38.790969],[-2.73452,38.795289],[-2.743622,38.803294],[-2.750277,38.807111],[-2.752681,38.814731],[-2.752387,38.823156],[-2.749328,38.831531],[-2.751147,38.84835],[-2.755236,38.858884],[-2.756404,38.86779],[-2.749946,38.87184],[-2.739651,38.881442],[-2.727865,38.894409],[-2.723796,38.902943],[-2.719693,38.90806],[-2.706735,38.912255],[-2.69624,38.9175],[-2.68789,38.919766],[-2.684692,38.925534],[-2.67035,38.941012],[-2.666446,38.954013],[-2.669235,38.959915],[-2.668195,38.962669],[-2.669444,38.967052],[-2.680956,38.979042],[-2.675499,38.980847],[-2.673305,38.983491],[-2.675065,38.994967],[-2.681066,39.003481],[-2.687449,39.006869],[-2.692013,39.017171],[-2.69619,39.020922],[-2.69392,39.022331],[-2.69748,39.024386],[-2.699699,39.037827],[-2.696443,39.042847],[-2.6976,39.045076],[-2.694538,39.050366],[-2.696569,39.051111],[-2.695761,39.053578],[-2.697931,39.054142],[-2.699456,39.057002],[-2.702875,39.057525],[-2.702623,39.059723],[-2.705671,39.063434],[-2.685542,39.06449],[-2.677673,39.066496],[-2.672662,39.065347],[-2.670435,39.061898],[-2.655885,39.056621],[-2.646534,39.05698],[-2.628282,39.050778],[-2.614523,39.047687],[-2.595674,39.043866],[-2.573558,39.04166],[-2.570938,39.048878],[-2.580961,39.065693],[-2.581897,39.069742],[-2.580898,39.072451],[-2.585782,39.075568],[-2.587004,39.078033],[-2.588925,39.077742],[-2.588562,39.084553],[-2.586422,39.086762],[-2.589823,39.094344],[-2.587994,39.098662],[-2.590783,39.106386],[-2.57951,39.103868],[-2.555922,39.088182],[-2.549942,39.079472]]]]}}
]
}
