{
"type": "FeatureCollection",
"name": "codigo_02047",
"crs": { "type": "name", "properties": { "name": "urn:ogc:def:crs:OGC:1.3:CRS84" } },
"xy_coordinate_resolution": 1e-15,
"features": [
{"type":"Feature","properties":{"fid":1294,"cartodb_id":98,"comautonom":"Castilla - La Mancha","cod_ccaa":"08","provincia":"Albacete","cod_prov":"02","texto":"Masegoso","codigo":"02047"},"geometry":{"type":"MultiPolygon","coordinates":[[[[-2.329734,38.790442],[-2.327864,38.790944],[-2.317535,38.787442],[-2.309147,38.780887],[-2.301066,38.778351],[-2.294978,38.772322],[-2.297319,38.769552],[-2.302491,38.766879],[-2.301955,38.763929],[-2.292955,38.754557],[-2.285729,38.750954],[-2.274432,38.748253],[-2.255358,38.73667],[-2.253051,38.730645],[-2.244623,38.721417],[-2.245405,38.715952],[-2.247463,38.712784],[-2.250279,38.704133],[-2.249428,38.694305],[-2.255377,38.690576],[-2.262081,38.683761],[-2.273623,38.675984],[-2.281239,38.673075],[-2.288365,38.667486],[-2.302297,38.667354],[-2.306325,38.670433],[-2.324616,38.667737],[-2.3279,38.670559],[-2.339503,38.670084],[-2.347031,38.67155],[-2.352831,38.67844],[-2.351695,38.6833],[-2.367325,38.69575],[-2.37025,38.70184],[-2.376024,38.703132],[-2.37518,38.704921],[-2.37147,38.707055],[-2.368964,38.714738],[-2.369609,38.718571],[-2.366791,38.723692],[-2.363328,38.726341],[-2.362725,38.730753],[-2.366235,38.737198],[-2.366234,38.743776],[-2.368936,38.746657],[-2.368393,38.749528],[-2.366252,38.750832],[-2.362766,38.752057],[-2.362725,38.754012],[-2.359916,38.755403],[-2.358118,38.758286],[-2.358608,38.76529],[-2.36057,38.767293],[-2.356261,38.777984],[-2.35366,38.78042],[-2.348289,38.78231],[-2.342669,38.788722],[-2.336133,38.789595],[-2.336129,38.791244],[-2.329734,38.790442]]]]}}
]
}
