{
"type": "FeatureCollection",
"name": "codigo_02058",
"crs": { "type": "name", "properties": { "name": "urn:ogc:def:crs:OGC:1.3:CRS84" } },
"xy_coordinate_resolution": 1e-15,
"features": [
{"type":"Feature","properties":{"fid":1297,"cartodb_id":109,"comautonom":"Castilla - La Mancha","cod_ccaa":"08","provincia":"Albacete","cod_prov":"02","texto":"Paterna del Madera","codigo":"02058"},"geometry":{"type":"MultiPolygon","coordinates":[[[[-2.275801,38.654955],[-2.268877,38.652064],[-2.262187,38.641055],[-2.271671,38.640574],[-2.276128,38.635032],[-2.275511,38.628937],[-2.271878,38.623543],[-2.27419,38.619836],[-2.272788,38.618773],[-2.276869,38.61385],[-2.278185,38.609848],[-2.277119,38.602777],[-2.279616,38.596475],[-2.282932,38.593332],[-2.283904,38.589129],[-2.281041,38.561932],[-2.282761,38.557446],[-2.281653,38.553501],[-2.28249,38.547748],[-2.286567,38.546313],[-2.291881,38.546219],[-2.294049,38.552144],[-2.299341,38.556744],[-2.304379,38.555594],[-2.313049,38.557438],[-2.321557,38.553442],[-2.324225,38.55407],[-2.330516,38.558783],[-2.33336,38.557898],[-2.33649,38.554464],[-2.34223,38.553055],[-2.351503,38.544095],[-2.353946,38.544279],[-2.360286,38.541043],[-2.360988,38.539434],[-2.369463,38.536073],[-2.37396,38.530825],[-2.388415,38.526918],[-2.399251,38.534364],[-2.400704,38.533587],[-2.405984,38.536084],[-2.409737,38.535922],[-2.410913,38.539461],[-2.414651,38.542598],[-2.413436,38.546593],[-2.419382,38.555012],[-2.428401,38.552281],[-2.432706,38.557925],[-2.438538,38.562144],[-2.430439,38.570261],[-2.420377,38.57396],[-2.416896,38.578539],[-2.411899,38.581713],[-2.408398,38.589941],[-2.386799,38.604853],[-2.381055,38.611717],[-2.382046,38.615318],[-2.380776,38.61742],[-2.378992,38.617888],[-2.377857,38.61626],[-2.373215,38.61774],[-2.37019,38.619598],[-2.369853,38.621318],[-2.363751,38.624178],[-2.361638,38.629276],[-2.35096,38.633624],[-2.34721,38.636658],[-2.343018,38.635166],[-2.33697,38.636889],[-2.328499,38.636083],[-2.325456,38.637066],[-2.322493,38.635715],[-2.316517,38.637041],[-2.311065,38.636433],[-2.307,38.638572],[-2.297239,38.640442],[-2.295358,38.647117],[-2.292272,38.647702],[-2.290491,38.651152],[-2.285136,38.653517],[-2.281111,38.65716],[-2.275801,38.654955]]]]}}
]
}
