{
"type": "FeatureCollection",
"name": "codigo_03049",
"crs": { "type": "name", "properties": { "name": "urn:ogc:def:crs:OGC:1.3:CRS84" } },
"xy_coordinate_resolution": 1e-15,
"features": [
{"type":"Feature","properties":{"fid":1361,"cartodb_id":187,"comautonom":"Comunitat Valenciana","cod_ccaa":"10","provincia":"Alicante","cod_prov":"03","texto":"Callosa de Segura","codigo":"03049"},"geometry":{"type":"MultiPolygon","coordinates":[[[[-0.829461,38.147829],[-0.829399,38.13797],[-0.815725,38.130525],[-0.825481,38.128913],[-0.832356,38.125959],[-0.839294,38.125501],[-0.849523,38.119011],[-0.853601,38.11531],[-0.855304,38.111277],[-0.876349,38.104117],[-0.883014,38.106689],[-0.886892,38.10629],[-0.890387,38.11048],[-0.892182,38.110332],[-0.893498,38.111761],[-0.890863,38.11175],[-0.899072,38.117439],[-0.900557,38.12135],[-0.889583,38.127677],[-0.882156,38.130084],[-0.880512,38.132497],[-0.877615,38.132868],[-0.874615,38.138329],[-0.8727,38.138276],[-0.870461,38.141921],[-0.861624,38.149122],[-0.848342,38.155313],[-0.845515,38.159857],[-0.834499,38.158438],[-0.832844,38.155335],[-0.829461,38.147829]]],[[[-0.935211,38.139545],[-0.940019,38.140991],[-0.944036,38.154389],[-0.946136,38.15521],[-0.950033,38.16802],[-0.945182,38.170873],[-0.929273,38.143352],[-0.928019,38.14451],[-0.943587,38.171565],[-0.938513,38.173423],[-0.932184,38.161867],[-0.93053,38.154998],[-0.926288,38.138757],[-0.931493,38.139876],[-0.932,38.141318],[-0.935211,38.139545]],[[-0.930971,38.142183],[-0.934522,38.151807],[-0.935713,38.151269],[-0.932,38.141318],[-0.930971,38.142183]]]]}}
]
}
