{
"type": "FeatureCollection",
"name": "codigo_03053",
"crs": { "type": "name", "properties": { "name": "urn:ogc:def:crs:OGC:1.3:CRS84" } },
"xy_coordinate_resolution": 1e-15,
"features": [
{"type":"Feature","properties":{"fid":1366,"cartodb_id":191,"comautonom":"Comunitat Valenciana","cod_ccaa":"10","provincia":"Alicante","cod_prov":"03","texto":"Castalla","codigo":"03053"},"geometry":{"type":"MultiPolygon","coordinates":[[[[-0.617424,38.607801],[-0.616463,38.602484],[-0.608969,38.59096],[-0.606824,38.59161],[-0.605567,38.590746],[-0.574982,38.589756],[-0.567318,38.586885],[-0.557078,38.586879],[-0.558528,38.582719],[-0.556662,38.578842],[-0.560487,38.573011],[-0.562104,38.571009],[-0.567112,38.569878],[-0.573618,38.566148],[-0.577306,38.567081],[-0.579536,38.565595],[-0.588847,38.569229],[-0.590533,38.567561],[-0.59261,38.567928],[-0.595066,38.566195],[-0.596725,38.566346],[-0.605528,38.558381],[-0.611666,38.556686],[-0.632824,38.543817],[-0.641594,38.534191],[-0.648642,38.530198],[-0.649361,38.526419],[-0.66037,38.524738],[-0.659881,38.518583],[-0.655271,38.517149],[-0.653814,38.511173],[-0.650869,38.510744],[-0.64067,38.50525],[-0.636497,38.505238],[-0.631434,38.502261],[-0.635495,38.498],[-0.643108,38.49591],[-0.64874,38.496546],[-0.653908,38.495208],[-0.656954,38.503442],[-0.660335,38.507753],[-0.668147,38.512621],[-0.698001,38.525503],[-0.716911,38.538335],[-0.744167,38.551613],[-0.749212,38.551747],[-0.774451,38.57535],[-0.759674,38.58361],[-0.755535,38.584531],[-0.732593,38.596036],[-0.707842,38.608555],[-0.686939,38.607585],[-0.675825,38.609662],[-0.667323,38.608366],[-0.641412,38.608864],[-0.633499,38.607515],[-0.618675,38.611296],[-0.617424,38.607801]]]]}}
]
}
