{
"type": "FeatureCollection",
"name": "codigo_02032",
"crs": { "type": "name", "properties": { "name": "urn:ogc:def:crs:OGC:1.3:CRS84" } },
"xy_coordinate_resolution": 1e-15,
"features": [
{"type":"Feature","properties":{"fid":1278,"cartodb_id":83,"comautonom":"Castilla - La Mancha","cod_ccaa":"08","provincia":"Albacete","cod_prov":"02","texto":"Fuensanta","codigo":"02032"},"geometry":{"type":"MultiPolygon","coordinates":[[[[-2.075001,39.266041],[-2.055265,39.265765],[-2.050964,39.266676],[-2.050963,39.266676],[-2.050467,39.255355],[-2.048136,39.248596],[-2.046136,39.24657],[-2.046459,39.242401],[-2.044421,39.240564],[-2.046111,39.238145],[-2.044896,39.234594],[-2.043394,39.232582],[-2.036615,39.230949],[-2.038968,39.228373],[-2.035897,39.225861],[-2.032892,39.225385],[-2.032942,39.22171],[-2.039157,39.21621],[-2.045633,39.214398],[-2.066727,39.215218],[-2.073975,39.214564],[-2.07603,39.213319],[-2.082799,39.214778],[-2.076272,39.221358],[-2.075633,39.225913],[-2.081607,39.226212],[-2.08428,39.223809],[-2.089123,39.229155],[-2.091311,39.22837],[-2.095568,39.230656],[-2.095629,39.233152],[-2.092896,39.233951],[-2.094107,39.235267],[-2.097226,39.234228],[-2.096336,39.239474],[-2.104661,39.250837],[-2.101674,39.251562],[-2.094319,39.250298],[-2.094188,39.252342],[-2.090644,39.252198],[-2.095034,39.25416],[-2.095457,39.255542],[-2.099795,39.256161],[-2.090617,39.261406],[-2.095101,39.269704],[-2.075001,39.266041]]]]}}
]
}
