{
"type": "FeatureCollection",
"name": "codigo_02086",
"crs": { "type": "name", "properties": { "name": "urn:ogc:def:crs:OGC:1.3:CRS84" } },
"xy_coordinate_resolution": 1e-15,
"features": [
{"type":"Feature","properties":{"fid":1320,"cartodb_id":137,"comautonom":"Castilla - La Mancha","cod_ccaa":"08","provincia":"Albacete","cod_prov":"02","texto":"Yeste","codigo":"02086"},"geometry":{"type":"MultiPolygon","coordinates":[[[[-2.332577,38.45159],[-2.324485,38.452877],[-2.31836,38.449733],[-2.305433,38.447404],[-2.301036,38.448243],[-2.300202,38.450302],[-2.296215,38.448998],[-2.291661,38.449466],[-2.280006,38.440311],[-2.260016,38.430878],[-2.250404,38.428545],[-2.234484,38.429254],[-2.221708,38.417697],[-2.220562,38.413436],[-2.21222,38.415795],[-2.208945,38.414728],[-2.206531,38.410296],[-2.207183,38.4072],[-2.205829,38.405389],[-2.207075,38.403486],[-2.204965,38.401652],[-2.207064,38.397151],[-2.203784,38.394506],[-2.201565,38.397357],[-2.195519,38.395207],[-2.192467,38.396754],[-2.19015,38.401208],[-2.184844,38.399477],[-2.180672,38.402854],[-2.171101,38.401552],[-2.170821,38.399027],[-2.169206,38.398024],[-2.165038,38.400941],[-2.160802,38.394963],[-2.166838,38.391888],[-2.163237,38.390385],[-2.166196,38.387954],[-2.173254,38.385571],[-2.173028,38.384299],[-2.170677,38.383597],[-2.171796,38.381875],[-2.173383,38.383265],[-2.174937,38.382573],[-2.176033,38.377759],[-2.178408,38.377298],[-2.179205,38.373663],[-2.177999,38.372979],[-2.181637,38.370147],[-2.186189,38.370576],[-2.190568,38.36692],[-2.196133,38.357505],[-2.199194,38.354984],[-2.200107,38.35208],[-2.19909,38.350928],[-2.202337,38.349139],[-2.202618,38.346419],[-2.199262,38.345684],[-2.201109,38.344237],[-2.201038,38.341362],[-2.205383,38.338498],[-2.206718,38.33574],[-2.211122,38.333715],[-2.211611,38.330799],[-2.215611,38.326977],[-2.224316,38.322836],[-2.229801,38.318122],[-2.234314,38.310996],[-2.232099,38.307404],[-2.225794,38.304415],[-2.22344,38.301002],[-2.219343,38.277859],[-2.222174,38.265522],[-2.22117,38.261009],[-2.224044,38.260577],[-2.225187,38.258386],[-2.226777,38.258333],[-2.227086,38.259381],[-2.228925,38.25841],[-2.228856,38.260618],[-2.230728,38.260865],[-2.231237,38.262409],[-2.233241,38.263161],[-2.233127,38.261998],[-2.235112,38.261299],[-2.239119,38.265128],[-2.246641,38.260616],[-2.246536,38.263076],[-2.249471,38.263275],[-2.248786,38.264352],[-2.253367,38.267941],[-2.256675,38.26753],[-2.258171,38.272126],[-2.267253,38.270579],[-2.270715,38.274161],[-2.279526,38.274485],[-2.299621,38.271246],[-2.311592,38.263863],[-2.32208,38.253389],[-2.324405,38.254078],[-2.342515,38.250909],[-2.359482,38.24492],[-2.361806,38.232774],[-2.364115,38.228776],[-2.363159,38.225716],[-2.371459,38.217091],[-2.372659,38.211753],[-2.376876,38.206223],[-2.409388,38.188529],[-2.420147,38.183905],[-2.429788,38.176138],[-2.433884,38.175031],[-2.435445,38.172479],[-2.439936,38.17196],[-2.447497,38.168508],[-2.453981,38.163933],[-2.468459,38.172804],[-2.467083,38.173636],[-2.463171,38.17315],[-2.457965,38.176253],[-2.4557,38.179884],[-2.44946,38.182198],[-2.446274,38.185193],[-2.447577,38.191121],[-2.445576,38.204937],[-2.447302,38.207784],[-2.452993,38.210469],[-2.454341,38.214972],[-2.4537,38.21825],[-2.453257,38.219465],[-2.450154,38.220342],[-2.442862,38.231267],[-2.4406,38.232644],[-2.44259,38.235457],[-2.442239,38.242503],[-2.443414,38.244239],[-2.446325,38.244586],[-2.442738,38.247507],[-2.444262,38.251399],[-2.43981,38.258182],[-2.440206,38.260112],[-2.436459,38.259905],[-2.437143,38.26309],[-2.43539,38.265019],[-2.436604,38.272127],[-2.439084,38.273752],[-2.44078,38.285106],[-2.441894,38.285905],[-2.446499,38.287783],[-2.473692,38.292396],[-2.481484,38.294945],[-2.485253,38.300387],[-2.48416,38.315884],[-2.484758,38.320149],[-2.481044,38.324459],[-2.480087,38.328636],[-2.481243,38.333454],[-2.478958,38.348809],[-2.486039,38.354131],[-2.490919,38.363272],[-2.490033,38.365449],[-2.492385,38.3713],[-2.481593,38.39308],[-2.457081,38.410759],[-2.443808,38.41933],[-2.422759,38.430124],[-2.419901,38.433553],[-2.412978,38.433897],[-2.409184,38.43541],[-2.392731,38.444932],[-2.381639,38.448912],[-2.377036,38.453691],[-2.364111,38.452062],[-2.356752,38.451013],[-2.354606,38.455156],[-2.332577,38.45159]]]]}}
]
}
