{
"type": "FeatureCollection",
"name": "codigo_03102",
"crs": { "type": "name", "properties": { "name": "urn:ogc:def:crs:OGC:1.3:CRS84" } },
"xy_coordinate_resolution": 1e-15,
"features": [
{"type":"Feature","properties":{"fid":1420,"cartodb_id":239,"comautonom":"Comunitat Valenciana","cod_ccaa":"10","provincia":"Alicante","cod_prov":"03","texto":"Pego","codigo":"03102"},"geometry":{"type":"MultiPolygon","coordinates":[[[[-0.069697,38.885183],[-0.067988,38.883572],[-0.067525,38.879705],[-0.06523,38.878629],[-0.06489,38.874846],[-0.056957,38.869061],[-0.045895,38.864583],[-0.042152,38.856452],[-0.041325,38.851936],[-0.042372,38.850051],[-0.045636,38.845189],[-0.057704,38.841115],[-0.065878,38.837033],[-0.074579,38.826242],[-0.085929,38.81594],[-0.089098,38.813614],[-0.092527,38.808033],[-0.096974,38.806251],[-0.099965,38.806046],[-0.110796,38.801585],[-0.115655,38.801291],[-0.118725,38.799096],[-0.132188,38.798996],[-0.124502,38.805771],[-0.123716,38.809562],[-0.125735,38.812342],[-0.136607,38.817456],[-0.152939,38.828667],[-0.15675,38.834489],[-0.153366,38.833569],[-0.147126,38.838687],[-0.148909,38.84365],[-0.146163,38.846637],[-0.148076,38.858431],[-0.102096,38.875028],[-0.095441,38.874872],[-0.092085,38.871527],[-0.090734,38.872736],[-0.092173,38.874466],[-0.089706,38.875891],[-0.089789,38.879235],[-0.086158,38.88037],[-0.082698,38.879851],[-0.0801,38.881381],[-0.07828,38.880515],[-0.078697,38.88412],[-0.076596,38.883635],[-0.070944,38.885701],[-0.069697,38.885183]]]]}}
]
}
