{
"type": "FeatureCollection",
"name": "codigo_03059",
"crs": { "type": "name", "properties": { "name": "urn:ogc:def:crs:OGC:1.3:CRS84" } },
"xy_coordinate_resolution": 1e-15,
"features": [
{"type":"Feature","properties":{"fid":1372,"cartodb_id":197,"comautonom":"Comunitat Valenciana","cod_ccaa":"10","provincia":"Alicante","cod_prov":"03","texto":"Crevillent","codigo":"03059"},"geometry":{"type":"MultiPolygon","coordinates":[[[[-0.779883,38.292708],[-0.773309,38.284482],[-0.775891,38.278161],[-0.772538,38.267077],[-0.773816,38.259307],[-0.771924,38.251656],[-0.77272,38.250653],[-0.770129,38.247576],[-0.769917,38.242923],[-0.772484,38.242692],[-0.772381,38.238933],[-0.769576,38.237654],[-0.772795,38.225019],[-0.769151,38.219804],[-0.769,38.215395],[-0.756277,38.188967],[-0.751903,38.163418],[-0.755177,38.16458],[-0.761055,38.165305],[-0.764635,38.168798],[-0.771572,38.172246],[-0.782829,38.175568],[-0.789195,38.175706],[-0.799548,38.171926],[-0.801861,38.17206],[-0.807322,38.165025],[-0.815686,38.161279],[-0.814383,38.158687],[-0.826664,38.155941],[-0.834499,38.158438],[-0.818224,38.163814],[-0.821366,38.170963],[-0.824704,38.184605],[-0.83212,38.199403],[-0.833796,38.20257],[-0.835397,38.2056],[-0.840655,38.208905],[-0.844857,38.214344],[-0.846617,38.214674],[-0.854238,38.222346],[-0.864239,38.235415],[-0.871781,38.239264],[-0.888071,38.258698],[-0.895942,38.26395],[-0.894207,38.266252],[-0.885243,38.269902],[-0.875379,38.277716],[-0.865677,38.281541],[-0.832347,38.289796],[-0.825486,38.290588],[-0.802359,38.293167],[-0.795936,38.289686],[-0.781807,38.294844],[-0.779883,38.292708]]]]}}
]
}
