{
"type": "FeatureCollection",
"name": "codigo_03124",
"crs": { "type": "name", "properties": { "name": "urn:ogc:def:crs:OGC:1.3:CRS84" } },
"xy_coordinate_resolution": 1e-15,
"features": [
{"type":"Feature","properties":{"fid":1427,"cartodb_id":260,"comautonom":"Comunitat Valenciana","cod_ccaa":"10","provincia":"Alicante","cod_prov":"03","texto":"Sella","codigo":"03124"},"geometry":{"type":"MultiPolygon","coordinates":[[[[-0.278281,38.643511],[-0.271711,38.640465],[-0.264343,38.64087],[-0.258128,38.639364],[-0.247043,38.63904],[-0.237444,38.633867],[-0.235555,38.623551],[-0.237373,38.61927],[-0.236903,38.616249],[-0.229614,38.617951],[-0.237427,38.61518],[-0.231099,38.606526],[-0.23326,38.602297],[-0.240917,38.595135],[-0.240954,38.591469],[-0.245747,38.593736],[-0.250239,38.595751],[-0.257577,38.590869],[-0.265812,38.588657],[-0.271046,38.585346],[-0.275731,38.587114],[-0.278063,38.589817],[-0.286765,38.589505],[-0.288872,38.591464],[-0.292449,38.592196],[-0.295323,38.595749],[-0.293043,38.596543],[-0.294141,38.60093],[-0.296486,38.603317],[-0.303662,38.604835],[-0.310889,38.603172],[-0.312833,38.604928],[-0.313983,38.609198],[-0.3231,38.618444],[-0.328564,38.618515],[-0.329646,38.620315],[-0.332712,38.621241],[-0.333039,38.621726],[-0.33146,38.624357],[-0.333666,38.631155],[-0.329506,38.637376],[-0.324368,38.637151],[-0.316576,38.641549],[-0.312165,38.641249],[-0.309397,38.642744],[-0.308334,38.64354],[-0.302988,38.640579],[-0.303567,38.63924],[-0.299217,38.640969],[-0.29309,38.640467],[-0.289843,38.641878],[-0.290056,38.643523],[-0.278281,38.643511]]]]}}
]
}
