{
"type": "FeatureCollection",
"name": "codigo_03084",
"crs": { "type": "name", "properties": { "name": "urn:ogc:def:crs:OGC:1.3:CRS84" } },
"xy_coordinate_resolution": 1e-15,
"features": [
{"type":"Feature","properties":{"fid":1407,"cartodb_id":222,"comautonom":"Comunitat Valenciana","cod_ccaa":"10","provincia":"Alicante","cod_prov":"03","texto":"Lorcha/Orxa (l')","codigo":"03084"},"geometry":{"type":"MultiPolygon","coordinates":[[[[-0.299252,38.881695],[-0.289107,38.872622],[-0.282402,38.869817],[-0.27338,38.864021],[-0.260273,38.859931],[-0.275603,38.840478],[-0.280982,38.835945],[-0.306628,38.82453],[-0.307231,38.822283],[-0.309081,38.822091],[-0.320554,38.814373],[-0.335236,38.830755],[-0.342399,38.841027],[-0.351261,38.845913],[-0.355173,38.849795],[-0.351336,38.856329],[-0.349892,38.857342],[-0.354089,38.857905],[-0.35335,38.858573],[-0.348261,38.861557],[-0.34475,38.861766],[-0.335712,38.864037],[-0.33135,38.862946],[-0.323667,38.863491],[-0.322447,38.866526],[-0.317383,38.868807],[-0.315909,38.87307],[-0.312713,38.874988],[-0.310808,38.881511],[-0.299252,38.881695]]]]}}
]
}
