{
"type": "FeatureCollection",
"name": "codigo_02076",
"crs": { "type": "name", "properties": { "name": "urn:ogc:def:crs:OGC:1.3:CRS84" } },
"xy_coordinate_resolution": 1e-15,
"features": [
{"type":"Feature","properties":{"fid":1312,"cartodb_id":127,"comautonom":"Castilla - La Mancha","cod_ccaa":"08","provincia":"Albacete","cod_prov":"02","texto":"Vianos","codigo":"02076"},"geometry":{"type":"MultiPolygon","coordinates":[[[[-2.433347,38.450254],[-2.4291,38.448188],[-2.419901,38.433553],[-2.422759,38.430124],[-2.443808,38.41933],[-2.457081,38.410759],[-2.481593,38.39308],[-2.482941,38.393509],[-2.48207,38.395281],[-2.483403,38.397855],[-2.491871,38.398739],[-2.486675,38.406305],[-2.481221,38.414644],[-2.471467,38.423225],[-2.4651,38.421313],[-2.462985,38.422285],[-2.460378,38.426266],[-2.458986,38.428602],[-2.460059,38.436691],[-2.45406,38.445225],[-2.450566,38.447975],[-2.450021,38.456408],[-2.444809,38.457537],[-2.442455,38.45356],[-2.437781,38.450357],[-2.433347,38.450254]]],[[[-2.548724,38.663166],[-2.54678,38.661537],[-2.539279,38.662643],[-2.538021,38.661728],[-2.536346,38.662974],[-2.535253,38.661356],[-2.529079,38.661701],[-2.524663,38.653437],[-2.517758,38.649678],[-2.502306,38.648973],[-2.498957,38.651266],[-2.493682,38.651306],[-2.490098,38.652715],[-2.48891,38.653322],[-2.489604,38.654254],[-2.484914,38.654494],[-2.48019,38.651346],[-2.472639,38.64988],[-2.469109,38.647043],[-2.468039,38.637882],[-2.465291,38.634986],[-2.464269,38.624131],[-2.456034,38.607259],[-2.45142,38.602371],[-2.452054,38.597453],[-2.455137,38.592223],[-2.453272,38.586861],[-2.461165,38.583032],[-2.46104,38.581418],[-2.458866,38.580399],[-2.456566,38.570232],[-2.453415,38.568045],[-2.452481,38.565481],[-2.447393,38.562952],[-2.439485,38.561446],[-2.445539,38.557771],[-2.443745,38.556726],[-2.444264,38.553376],[-2.446643,38.551531],[-2.44497,38.549738],[-2.454689,38.537744],[-2.459151,38.534917],[-2.471533,38.531549],[-2.478272,38.52774],[-2.480663,38.52238],[-2.48482,38.521677],[-2.489364,38.518318],[-2.495256,38.518974],[-2.496933,38.520261],[-2.500144,38.521978],[-2.500597,38.527837],[-2.504027,38.53115],[-2.505386,38.538762],[-2.508168,38.543055],[-2.521551,38.554672],[-2.524871,38.559444],[-2.523866,38.569038],[-2.520404,38.571808],[-2.514296,38.580443],[-2.517326,38.582249],[-2.520176,38.581811],[-2.525508,38.58815],[-2.530874,38.591064],[-2.533748,38.595762],[-2.550534,38.605389],[-2.553962,38.613792],[-2.550583,38.615888],[-2.546271,38.62026],[-2.549032,38.625173],[-2.543442,38.629865],[-2.543095,38.632008],[-2.552042,38.636171],[-2.557565,38.640472],[-2.5611,38.641234],[-2.565305,38.63933],[-2.591786,38.611903],[-2.592595,38.608995],[-2.590457,38.599219],[-2.604121,38.607872],[-2.612989,38.616211],[-2.620866,38.614434],[-2.629997,38.614635],[-2.631123,38.618982],[-2.634574,38.622688],[-2.629853,38.626926],[-2.622947,38.629464],[-2.619393,38.634508],[-2.619901,38.636159],[-2.618488,38.636064],[-2.618036,38.639009],[-2.614052,38.636356],[-2.612011,38.637638],[-2.613792,38.639797],[-2.607391,38.640037],[-2.607123,38.642668],[-2.604657,38.641894],[-2.602052,38.64339],[-2.600442,38.641528],[-2.59734,38.641373],[-2.598012,38.642574],[-2.59322,38.642593],[-2.59305,38.644206],[-2.5916,38.644552],[-2.588106,38.642729],[-2.584054,38.645914],[-2.582913,38.648361],[-2.57629,38.651004],[-2.576544,38.652772],[-2.574018,38.65233],[-2.572697,38.654145],[-2.574355,38.655566],[-2.573715,38.658925],[-2.572526,38.659669],[-2.571326,38.658619],[-2.568605,38.660078],[-2.56734,38.662074],[-2.568207,38.663132],[-2.55863,38.665385],[-2.555886,38.664852],[-2.548724,38.663166]]]]}}
]
}
