{
"type": "FeatureCollection",
"name": "codigo_02056",
"crs": { "type": "name", "properties": { "name": "urn:ogc:def:crs:OGC:1.3:CRS84" } },
"xy_coordinate_resolution": 1e-15,
"features": [
{"type":"Feature","properties":{"fid":17,"cartodb_id":107,"comautonom":"Castilla - La Mancha","cod_ccaa":"08","provincia":"Albacete","cod_prov":"02","texto":"Ontur","codigo":"02056"},"geometry":{"type":"MultiPolygon","coordinates":[[[[-1.482822,38.649194],[-1.471281,38.64935],[-1.461054,38.645585],[-1.447698,38.649517],[-1.443291,38.636924],[-1.447986,38.614639],[-1.452001,38.581459],[-1.466682,38.575789],[-1.473653,38.581987],[-1.480952,38.586461],[-1.50084,38.591818],[-1.50594,38.593929],[-1.515723,38.600605],[-1.529942,38.604974],[-1.540588,38.61065],[-1.535606,38.629727],[-1.534585,38.642078],[-1.526109,38.66485],[-1.520887,38.665095],[-1.510512,38.662094],[-1.492876,38.653055],[-1.482822,38.649194]]]]}}
]
}
