{
"type": "FeatureCollection",
"name": "codigo_02052",
"crs": { "type": "name", "properties": { "name": "urn:ogc:def:crs:OGC:1.3:CRS84" } },
"xy_coordinate_resolution": 1e-15,
"features": [
{"type":"Feature","properties":{"fid":11,"cartodb_id":103,"comautonom":"Castilla - La Mancha","cod_ccaa":"08","provincia":"Albacete","cod_prov":"02","texto":"Motilleja","codigo":"02052"},"geometry":{"type":"MultiPolygon","coordinates":[[[[-1.746646,39.158637],[-1.74769,39.155873],[-1.753137,39.154165],[-1.756697,39.141931],[-1.759822,39.143874],[-1.768665,39.145734],[-1.77245,39.147657],[-1.790009,39.150121],[-1.793386,39.152291],[-1.80096,39.147197],[-1.813137,39.143511],[-1.814737,39.145437],[-1.812034,39.15615],[-1.804355,39.157189],[-1.799306,39.156659],[-1.796923,39.157923],[-1.799898,39.162009],[-1.804772,39.163275],[-1.800214,39.171293],[-1.796533,39.183491],[-1.781464,39.212033],[-1.761456,39.185917],[-1.741148,39.166453],[-1.746646,39.158637]]]]}}
]
}
