{
"type": "FeatureCollection",
"name": "codigo_03065",
"crs": { "type": "name", "properties": { "name": "urn:ogc:def:crs:OGC:1.3:CRS84" } },
"xy_coordinate_resolution": 1e-15,
"features": [
{"type":"Feature","properties":{"fid":1380,"cartodb_id":203,"comautonom":"Comunitat Valenciana","cod_ccaa":"10","provincia":"Alicante","cod_prov":"03","texto":"Elche/Elx","codigo":"03065"},"geometry":{"type":"MultiPolygon","coordinates":[[[[-0.640467,38.344796],[-0.623597,38.342862],[-0.612923,38.337283],[-0.611787,38.334565],[-0.600902,38.324702],[-0.577382,38.306268],[-0.568463,38.301821],[-0.551246,38.303085],[-0.543094,38.306446],[-0.541641,38.305793],[-0.535683,38.299704],[-0.524713,38.274982],[-0.522147,38.274849],[-0.520902,38.274785],[-0.519436,38.27488],[-0.515142,38.240262],[-0.511542,38.231274],[-0.510434,38.224241],[-0.514072,38.225084],[-0.515203,38.229424],[-0.519391,38.235937],[-0.523618,38.238945],[-0.543169,38.246646],[-0.561145,38.244156],[-0.560898,38.241285],[-0.571156,38.234128],[-0.578161,38.226154],[-0.583157,38.223617],[-0.590206,38.222546],[-0.595392,38.216624],[-0.602102,38.212644],[-0.607841,38.213157],[-0.616666,38.204497],[-0.623992,38.202555],[-0.6304,38.204586],[-0.630691,38.201267],[-0.635225,38.195934],[-0.647402,38.188348],[-0.657342,38.178491],[-0.670565,38.175492],[-0.667829,38.167157],[-0.659609,38.167219],[-0.65327,38.165227],[-0.637802,38.16534],[-0.635601,38.161746],[-0.631271,38.16082],[-0.633935,38.153251],[-0.631348,38.152117],[-0.62601,38.154478],[-0.63425,38.142462],[-0.638526,38.128374],[-0.655593,38.128329],[-0.658218,38.139014],[-0.660814,38.142724],[-0.670545,38.143512],[-0.678907,38.142092],[-0.697594,38.13599],[-0.715809,38.136535],[-0.751903,38.163418],[-0.756277,38.188967],[-0.769,38.215395],[-0.769151,38.219804],[-0.772795,38.225019],[-0.769576,38.237654],[-0.772381,38.238933],[-0.772484,38.242692],[-0.769917,38.242923],[-0.770129,38.247576],[-0.77272,38.250653],[-0.771924,38.251656],[-0.773816,38.259307],[-0.772538,38.267077],[-0.775891,38.278161],[-0.773309,38.284482],[-0.779883,38.292708],[-0.781807,38.294844],[-0.761322,38.298789],[-0.745789,38.307817],[-0.740975,38.312212],[-0.735018,38.312539],[-0.706113,38.326817],[-0.703073,38.3271],[-0.701254,38.328551],[-0.690696,38.328893],[-0.679391,38.331148],[-0.674699,38.334794],[-0.645249,38.341261],[-0.640467,38.344796]]]]}}
]
}
