{
"type": "FeatureCollection",
"name": "codigo_02073",
"crs": { "type": "name", "properties": { "name": "urn:ogc:def:crs:OGC:1.3:CRS84" } },
"xy_coordinate_resolution": 1e-15,
"features": [
{"type":"Feature","properties":{"fid":1311,"cartodb_id":124,"comautonom":"Castilla - La Mancha","cod_ccaa":"08","provincia":"Albacete","cod_prov":"02","texto":"Tarazona de la Mancha","codigo":"02073"},"geometry":{"type":"MultiPolygon","coordinates":[[[[-2.050963,39.266676],[-2.058871,39.27257],[-2.057564,39.27757],[-2.043011,39.279496],[-2.039763,39.282155],[-2.03248,39.283978],[-2.026454,39.2829],[-2.014712,39.287649],[-2.008592,39.293238],[-1.9898,39.29368],[-1.966595,39.300036],[-1.955834,39.300715],[-1.93687,39.303958],[-1.909643,39.303643],[-1.886983,39.304943],[-1.871127,39.294959],[-1.845192,39.286118],[-1.850634,39.257528],[-1.85744,39.24097],[-1.857054,39.23265],[-1.851723,39.219938],[-1.8472,39.202521],[-1.837578,39.191874],[-1.824382,39.168701],[-1.826677,39.167805],[-1.825487,39.161432],[-1.826421,39.159531],[-1.831309,39.157949],[-1.834307,39.159988],[-1.83558,39.164948],[-1.8469,39.175567],[-1.857622,39.175438],[-1.865057,39.173141],[-1.871954,39.174704],[-1.884066,39.170874],[-1.890622,39.172108],[-1.897338,39.171217],[-1.906081,39.175525],[-1.908899,39.174479],[-1.919975,39.176123],[-1.920102,39.170105],[-1.923109,39.168034],[-1.927228,39.168928],[-1.93223,39.17875],[-1.935417,39.180068],[-1.943133,39.17739],[-1.948384,39.173824],[-1.956934,39.172613],[-1.962441,39.176014],[-1.965748,39.18099],[-1.968275,39.183193],[-1.976103,39.186263],[-1.979395,39.187616],[-1.982591,39.192411],[-1.984889,39.19444],[-1.9891,39.195531],[-2.000299,39.193852],[-2.005855,39.196504],[-2.019698,39.211985],[-2.019147,39.219089],[-2.032942,39.22171],[-2.032892,39.225385],[-2.035897,39.225861],[-2.038968,39.228373],[-2.036615,39.230949],[-2.043394,39.232582],[-2.044896,39.234594],[-2.046111,39.238145],[-2.044421,39.240564],[-2.046459,39.242401],[-2.046136,39.24657],[-2.048136,39.248596],[-2.050467,39.255355],[-2.050963,39.266676]]]]}}
]
}
