{
"type": "FeatureCollection",
"name": "codigo_03130",
"crs": { "type": "name", "properties": { "name": "urn:ogc:def:crs:OGC:1.3:CRS84" } },
"xy_coordinate_resolution": 1e-15,
"features": [
{"type":"Feature","properties":{"fid":1434,"cartodb_id":265,"comautonom":"Comunitat Valenciana","cod_ccaa":"10","provincia":"Alicante","cod_prov":"03","texto":"Tollos","codigo":"03130"},"geometry":{"type":"MultiPolygon","coordinates":[[[[-0.199624,38.770677],[-0.195691,38.769997],[-0.203839,38.767949],[-0.20505,38.76641],[-0.209628,38.765853],[-0.214334,38.762929],[-0.226477,38.758407],[-0.230124,38.758413],[-0.231784,38.755056],[-0.237958,38.7504],[-0.249164,38.747412],[-0.25521,38.746959],[-0.261133,38.744918],[-0.264627,38.745595],[-0.267543,38.749069],[-0.275225,38.748554],[-0.277158,38.750365],[-0.281646,38.750668],[-0.285337,38.755889],[-0.28704,38.766218],[-0.280356,38.764341],[-0.272145,38.769024],[-0.268581,38.769238],[-0.255599,38.775249],[-0.199624,38.770677]]]]}}
]
}
