{
"type": "FeatureCollection",
"name": "codigo_03030",
"crs": { "type": "name", "properties": { "name": "urn:ogc:def:crs:OGC:1.3:CRS84" } },
"xy_coordinate_resolution": 1e-15,
"features": [
{"type":"Feature","properties":{"fid":1243,"cartodb_id":168,"comautonom":"Comunitat Valenciana","cod_ccaa":"10","provincia":"Alicante","cod_prov":"03","texto":"Benidoleig","codigo":"03030"},"geometry":{"type":"MultiPolygon","coordinates":[[[[-0.008831,38.78681],[-0.007711,38.782755],[-0.016655,38.779136],[-0.020447,38.778728],[-0.026058,38.775268],[-0.03961,38.785973],[-0.043627,38.787354],[-0.043586,38.804236],[-0.043597,38.805092],[-0.044994,38.807506],[-0.042959,38.807148],[-0.040828,38.802707],[-0.03641,38.803477],[-0.037559,38.80575],[-0.027025,38.804887],[-0.016781,38.807013],[-0.013594,38.806977],[-0.012142,38.803688],[-0.017156,38.800248],[-0.013923,38.793841],[-0.015245,38.791956],[-0.008831,38.78681]]]]}}
]
}
