{
"type": "FeatureCollection",
"name": "codigo_03075",
"crs": { "type": "name", "properties": { "name": "urn:ogc:def:crs:OGC:1.3:CRS84" } },
"xy_coordinate_resolution": 1e-15,
"features": [
{"type":"Feature","properties":{"fid":1390,"cartodb_id":213,"comautonom":"Comunitat Valenciana","cod_ccaa":"10","provincia":"Alicante","cod_prov":"03","texto":"Castell de Guadalest (el)","codigo":"03075"},"geometry":{"type":"MultiPolygon","coordinates":[[[[-0.145828,38.683272],[-0.149208,38.68094],[-0.15119,38.673582],[-0.150002,38.671662],[-0.147986,38.672081],[-0.143887,38.664179],[-0.151863,38.657193],[-0.150298,38.655812],[-0.150026,38.652823],[-0.153083,38.649898],[-0.154038,38.650443],[-0.156232,38.647253],[-0.16691,38.644224],[-0.171403,38.645928],[-0.172823,38.648386],[-0.172171,38.649766],[-0.175274,38.650905],[-0.177644,38.653746],[-0.177971,38.659457],[-0.184162,38.661867],[-0.194829,38.662376],[-0.202525,38.670111],[-0.200804,38.671223],[-0.203996,38.673074],[-0.203832,38.676413],[-0.20293,38.680094],[-0.200282,38.679598],[-0.199655,38.682709],[-0.187992,38.677915],[-0.183136,38.678069],[-0.182253,38.676849],[-0.17855,38.676021],[-0.171914,38.682555],[-0.16314,38.687901],[-0.154074,38.698528],[-0.153437,38.700674],[-0.148966,38.700638],[-0.145965,38.691411],[-0.145828,38.683272]]]]}}
]
}
