{
"type": "FeatureCollection",
"name": "codigo_03094",
"crs": { "type": "name", "properties": { "name": "urn:ogc:def:crs:OGC:1.3:CRS84" } },
"xy_coordinate_resolution": 1e-15,
"features": [
{"type":"Feature","properties":{"fid":1400,"cartodb_id":231,"comautonom":"Comunitat Valenciana","cod_ccaa":"10","provincia":"Alicante","cod_prov":"03","texto":"Nucia (la)","codigo":"03094"},"geometry":{"type":"MultiPolygon","coordinates":[[[[-0.103736,38.628333],[-0.097271,38.627163],[-0.096964,38.624795],[-0.093517,38.625124],[-0.088225,38.6211],[-0.0811,38.620076],[-0.078079,38.606252],[-0.079707,38.605463],[-0.084073,38.606239],[-0.084857,38.603592],[-0.080075,38.596085],[-0.100877,38.602098],[-0.104869,38.604738],[-0.109243,38.605918],[-0.113666,38.604694],[-0.121298,38.598756],[-0.120132,38.589141],[-0.11658,38.578368],[-0.117949,38.570825],[-0.119643,38.568939],[-0.132622,38.567213],[-0.13383,38.570612],[-0.140327,38.576339],[-0.160173,38.586211],[-0.164942,38.590155],[-0.173118,38.601174],[-0.168641,38.600876],[-0.165012,38.597112],[-0.154852,38.593037],[-0.151944,38.594885],[-0.146924,38.594681],[-0.141254,38.59175],[-0.141597,38.593533],[-0.137358,38.597637],[-0.135961,38.60245],[-0.134344,38.603572],[-0.135321,38.611317],[-0.133134,38.618354],[-0.134867,38.621838],[-0.132631,38.621738],[-0.131058,38.620015],[-0.127311,38.619806],[-0.122466,38.623218],[-0.118199,38.624501],[-0.118091,38.625778],[-0.11262,38.629579],[-0.10692,38.628249],[-0.106139,38.62969],[-0.103736,38.628333]]]]}}
]
}
