{
"type": "FeatureCollection",
"name": "codigo_03104",
"crs": { "type": "name", "properties": { "name": "urn:ogc:def:crs:OGC:1.3:CRS84" } },
"xy_coordinate_resolution": 1e-15,
"features": [
{"type":"Feature","properties":{"fid":593,"cartodb_id":241,"comautonom":"Comunitat Valenciana","cod_ccaa":"10","provincia":"Alicante","cod_prov":"03","texto":"Petrer","codigo":"03104"},"geometry":{"type":"MultiPolygon","coordinates":[[[[-0.698001,38.525503],[-0.668147,38.512621],[-0.660335,38.507753],[-0.656954,38.503442],[-0.653908,38.495208],[-0.655605,38.494134],[-0.654355,38.493433],[-0.653307,38.485834],[-0.65593,38.483779],[-0.65875,38.475627],[-0.662709,38.470534],[-0.665722,38.469495],[-0.668546,38.465812],[-0.669597,38.466256],[-0.673604,38.463894],[-0.68783,38.459499],[-0.705757,38.452139],[-0.708561,38.45369],[-0.719756,38.452971],[-0.733892,38.442478],[-0.75702,38.438562],[-0.782829,38.437495],[-0.781875,38.447704],[-0.780263,38.449845],[-0.784086,38.456342],[-0.781715,38.458523],[-0.781833,38.46103],[-0.789125,38.469935],[-0.787016,38.471805],[-0.788118,38.47288],[-0.782948,38.476639],[-0.787323,38.48093],[-0.787471,38.482508],[-0.789028,38.482778],[-0.78995,38.489071],[-0.788379,38.49133],[-0.785122,38.492125],[-0.78308,38.494393],[-0.798395,38.498619],[-0.806332,38.510626],[-0.796002,38.513775],[-0.793438,38.516394],[-0.793624,38.520065],[-0.783754,38.523996],[-0.781682,38.523876],[-0.781056,38.525567],[-0.778384,38.526282],[-0.768628,38.535755],[-0.762267,38.539635],[-0.749212,38.551747],[-0.744167,38.551613],[-0.716911,38.538335],[-0.698001,38.525503]]]]}}
]
}
