{
"type": "FeatureCollection",
"name": "codigo_03133",
"crs": { "type": "name", "properties": { "name": "urn:ogc:def:crs:OGC:1.3:CRS84" } },
"xy_coordinate_resolution": 1e-15,
"features": [
{"type":"Feature","properties":{"fid":1432,"cartodb_id":268,"comautonom":"Comunitat Valenciana","cod_ccaa":"10","provincia":"Alicante","cod_prov":"03","texto":"Torrevieja","codigo":"03133"},"geometry":{"type":"MultiPolygon","coordinates":[[[[-0.650608,38.029032],[-0.652105,38.028638],[-0.653238,38.025021],[-0.652776,38.00876],[-0.647628,38.004273],[-0.648386,37.99986],[-0.653262,37.997821],[-0.654271,37.994174],[-0.655549,37.993808],[-0.654229,37.992745],[-0.656409,37.991468],[-0.654946,37.990466],[-0.656659,37.986616],[-0.655578,37.985302],[-0.657864,37.984491],[-0.656357,37.983195],[-0.659032,37.983947],[-0.661626,37.983057],[-0.664912,37.980482],[-0.664864,37.978061],[-0.666656,37.976106],[-0.669513,37.977302],[-0.678151,37.974234],[-0.68083,37.9687],[-0.687794,37.964439],[-0.681269,37.968862],[-0.680325,37.97288],[-0.682115,37.975294],[-0.682456,37.974494],[-0.683918,37.975005],[-0.682879,37.973998],[-0.685738,37.973825],[-0.683862,37.973968],[-0.684904,37.974993],[-0.683972,37.975209],[-0.687922,37.975909],[-0.694361,37.972692],[-0.693934,37.9708],[-0.695968,37.970962],[-0.69847,37.968271],[-0.70446,37.956913],[-0.706367,37.946173],[-0.705798,37.9416],[-0.711752,37.944025],[-0.711328,37.944958],[-0.71314,37.946057],[-0.716476,37.946685],[-0.71584,37.947695],[-0.727007,37.954467],[-0.732502,37.956317],[-0.733004,37.957773],[-0.734284,37.957433],[-0.740523,37.962658],[-0.757782,37.973423],[-0.761881,38.00559],[-0.749172,38.010781],[-0.742458,38.017276],[-0.749793,38.020642],[-0.74208,38.01771],[-0.739316,38.019063],[-0.738855,38.020712],[-0.736357,38.019727],[-0.72941,38.025197],[-0.717513,38.030482],[-0.72383,38.032515],[-0.719332,38.04088],[-0.712716,38.046617],[-0.693262,38.048156],[-0.673745,38.046266],[-0.666984,38.034193],[-0.650448,38.029583],[-0.650608,38.029032]]]]}}
]
}
