{
"type": "FeatureCollection",
"name": "codigo_02027",
"crs": { "type": "name", "properties": { "name": "urn:ogc:def:crs:OGC:1.3:CRS84" } },
"xy_coordinate_resolution": 1e-15,
"features": [
{"type":"Feature","properties":{"fid":1199,"cartodb_id":78,"comautonom":"Castilla - La Mancha","cod_ccaa":"08","provincia":"Albacete","cod_prov":"02","texto":"Corral-Rubio","codigo":"02027"},"geometry":{"type":"MultiPolygon","coordinates":[[[[-1.420222,38.845288],[-1.410299,38.843793],[-1.397692,38.835177],[-1.381883,38.831724],[-1.365216,38.815299],[-1.389996,38.788613],[-1.39252,38.783872],[-1.394731,38.765403],[-1.38932,38.75675],[-1.396447,38.749919],[-1.400716,38.74941],[-1.448104,38.761493],[-1.458081,38.780818],[-1.460014,38.786196],[-1.458951,38.786921],[-1.460778,38.789747],[-1.473174,38.793217],[-1.486779,38.799386],[-1.499623,38.806887],[-1.508768,38.809563],[-1.528217,38.818659],[-1.508697,38.833414],[-1.506011,38.837335],[-1.510509,38.843924],[-1.508207,38.846382],[-1.504877,38.845817],[-1.496496,38.850945],[-1.451107,38.864705],[-1.430391,38.849182],[-1.420222,38.845288]]]]}}
]
}
