{
"type": "FeatureCollection",
"name": "codigo_02079",
"crs": { "type": "name", "properties": { "name": "urn:ogc:def:crs:OGC:1.3:CRS84" } },
"xy_coordinate_resolution": 1e-15,
"features": [
{"type":"Feature","properties":{"fid":1315,"cartodb_id":130,"comautonom":"Castilla - La Mancha","cod_ccaa":"08","provincia":"Albacete","cod_prov":"02","texto":"Villamalea","codigo":"02079"},"geometry":{"type":"MultiPolygon","coordinates":[[[[-1.483657,39.41824],[-1.488449,39.417392],[-1.487435,39.41218],[-1.489872,39.405806],[-1.488138,39.40063],[-1.481748,39.401267],[-1.478418,39.405927],[-1.474547,39.408777],[-1.470567,39.407509],[-1.466674,39.402295],[-1.467437,39.400881],[-1.475232,39.398623],[-1.476736,39.393057],[-1.473305,39.391147],[-1.466709,39.390645],[-1.462277,39.399975],[-1.459902,39.4008],[-1.455978,39.400712],[-1.45218,39.397589],[-1.454477,39.39297],[-1.452343,39.390203],[-1.458157,39.389307],[-1.457588,39.387209],[-1.452813,39.385245],[-1.453261,39.383377],[-1.456076,39.383108],[-1.459121,39.386148],[-1.463785,39.387381],[-1.468193,39.383331],[-1.462613,39.379392],[-1.457709,39.380138],[-1.448789,39.37819],[-1.448863,39.376416],[-1.45227,39.373029],[-1.449466,39.366495],[-1.455673,39.363496],[-1.455104,39.360849],[-1.476679,39.350826],[-1.506935,39.34146],[-1.524377,39.32759],[-1.530985,39.317294],[-1.532166,39.316273],[-1.540719,39.3172],[-1.54234,39.312283],[-1.549813,39.308763],[-1.568294,39.303982],[-1.574492,39.304293],[-1.585209,39.300828],[-1.585874,39.302909],[-1.596856,39.306429],[-1.602866,39.304565],[-1.607743,39.306623],[-1.607195,39.310275],[-1.622534,39.316485],[-1.623915,39.32116],[-1.628396,39.322772],[-1.631037,39.322406],[-1.633516,39.328517],[-1.638155,39.33028],[-1.64507,39.332779],[-1.645415,39.337802],[-1.654448,39.332654],[-1.664675,39.339646],[-1.67031,39.342323],[-1.67373,39.342507],[-1.674002,39.345519],[-1.660688,39.350376],[-1.647411,39.353422],[-1.62493,39.361709],[-1.612905,39.36818],[-1.598327,39.378547],[-1.58146,39.385316],[-1.560442,39.398943],[-1.555679,39.401848],[-1.534762,39.40747],[-1.529969,39.410608],[-1.515948,39.416143],[-1.505175,39.417996],[-1.497521,39.415239],[-1.492173,39.420864],[-1.48453,39.422982],[-1.482083,39.420643],[-1.483657,39.41824]]]]}}
]
}
