{
"type": "FeatureCollection",
"name": "codigo_03039",
"crs": { "type": "name", "properties": { "name": "urn:ogc:def:crs:OGC:1.3:CRS84" } },
"xy_coordinate_resolution": 1e-15,
"features": [
{"type":"Feature","properties":{"fid":1352,"cartodb_id":177,"comautonom":"Comunitat Valenciana","cod_ccaa":"10","provincia":"Alicante","cod_prov":"03","texto":"Benimassot","codigo":"03039"},"geometry":{"type":"MultiPolygon","coordinates":[[[[-0.28704,38.766218],[-0.285337,38.755889],[-0.281646,38.750668],[-0.277158,38.750365],[-0.275225,38.748554],[-0.279343,38.74556],[-0.280231,38.74277],[-0.28161,38.742505],[-0.282618,38.743834],[-0.285086,38.74063],[-0.285943,38.741389],[-0.28802,38.740329],[-0.288865,38.738349],[-0.292199,38.737498],[-0.292169,38.739218],[-0.294368,38.739161],[-0.296661,38.736313],[-0.303364,38.734882],[-0.303873,38.737552],[-0.30776,38.738804],[-0.309275,38.741361],[-0.312328,38.742774],[-0.314394,38.745065],[-0.311406,38.746194],[-0.313995,38.747101],[-0.316764,38.763174],[-0.313633,38.765355],[-0.314916,38.766718],[-0.313603,38.768291],[-0.292003,38.772198],[-0.288267,38.769354],[-0.28704,38.766218]]]]}}
]
}
