{
"type": "FeatureCollection",
"name": "codigo_02085",
"crs": { "type": "name", "properties": { "name": "urn:ogc:def:crs:OGC:1.3:CRS84" } },
"xy_coordinate_resolution": 1e-15,
"features": [
{"type":"Feature","properties":{"fid":1322,"cartodb_id":136,"comautonom":"Castilla - La Mancha","cod_ccaa":"08","provincia":"Albacete","cod_prov":"02","texto":"Viveros","codigo":"02085"},"geometry":{"type":"MultiPolygon","coordinates":[[[[-2.564795,38.870846],[-2.55221,38.870384],[-2.546726,38.868255],[-2.55663,38.864021],[-2.563138,38.859098],[-2.561928,38.845973],[-2.566054,38.830578],[-2.577167,38.81776],[-2.572165,38.812605],[-2.570618,38.8074],[-2.564954,38.806937],[-2.55988,38.804251],[-2.551981,38.805978],[-2.546907,38.80512],[-2.54778,38.801843],[-2.542282,38.800768],[-2.529485,38.794256],[-2.516828,38.792771],[-2.512985,38.790655],[-2.507756,38.790904],[-2.509158,38.78626],[-2.5125,38.782381],[-2.516939,38.779759],[-2.527004,38.777583],[-2.524965,38.769212],[-2.529763,38.7677],[-2.529612,38.766176],[-2.542296,38.757305],[-2.545311,38.757299],[-2.567959,38.749986],[-2.574235,38.749378],[-2.592068,38.752046],[-2.60197,38.755343],[-2.598733,38.759973],[-2.600192,38.764619],[-2.602966,38.766737],[-2.603123,38.769396],[-2.605038,38.770853],[-2.608697,38.76891],[-2.613536,38.768277],[-2.622804,38.781041],[-2.618604,38.78264],[-2.614151,38.782274],[-2.611145,38.784454],[-2.613276,38.79067],[-2.611299,38.798468],[-2.616585,38.80063],[-2.620369,38.80577],[-2.618978,38.81192],[-2.60914,38.814285],[-2.604239,38.825677],[-2.605321,38.830078],[-2.605021,38.834204],[-2.60542,38.834936],[-2.605372,38.83535],[-2.605361,38.839477],[-2.603048,38.845129],[-2.597496,38.850805],[-2.594997,38.856636],[-2.585286,38.867622],[-2.569336,38.87152],[-2.564795,38.870846]]]]}}
]
}
