{
"type": "FeatureCollection",
"name": "codigo_03093",
"crs": { "type": "name", "properties": { "name": "urn:ogc:def:crs:OGC:1.3:CRS84" } },
"xy_coordinate_resolution": 1e-15,
"features": [
{"type":"Feature","properties":{"fid":1398,"cartodb_id":230,"comautonom":"Comunitat Valenciana","cod_ccaa":"10","provincia":"Alicante","cod_prov":"03","texto":"Novelda","codigo":"03093"},"geometry":{"type":"MultiPolygon","coordinates":[[[[-0.733892,38.442478],[-0.732845,38.401622],[-0.740334,38.383997],[-0.74491,38.381499],[-0.741296,38.377708],[-0.741726,38.374581],[-0.735788,38.369357],[-0.733562,38.361087],[-0.7315,38.359669],[-0.729356,38.360546],[-0.72433,38.357313],[-0.725598,38.354472],[-0.724252,38.35213],[-0.727545,38.350032],[-0.735475,38.354772],[-0.738028,38.360246],[-0.748301,38.361849],[-0.772235,38.362099],[-0.814066,38.35257],[-0.816085,38.350859],[-0.822039,38.350357],[-0.832351,38.357189],[-0.840489,38.361358],[-0.839093,38.363667],[-0.839397,38.367682],[-0.842178,38.370373],[-0.84534,38.370269],[-0.850582,38.373015],[-0.849467,38.375103],[-0.851758,38.375415],[-0.860695,38.385202],[-0.86578,38.388665],[-0.84285,38.396679],[-0.84091,38.396472],[-0.827468,38.403703],[-0.825776,38.405924],[-0.821591,38.408],[-0.812488,38.418211],[-0.811612,38.421429],[-0.808464,38.424767],[-0.804422,38.426251],[-0.807458,38.430777],[-0.806483,38.43384],[-0.798535,38.434142],[-0.79589,38.432587],[-0.792024,38.435398],[-0.782829,38.437495],[-0.75702,38.438562],[-0.733892,38.442478]]]]}}
]
}
