{
"type": "FeatureCollection",
"name": "codigo_03122",
"crs": { "type": "name", "properties": { "name": "urn:ogc:def:crs:OGC:1.3:CRS84" } },
"xy_coordinate_resolution": 1e-15,
"features": [
{"type":"Feature","properties":{"fid":1426,"cartodb_id":258,"comautonom":"Comunitat Valenciana","cod_ccaa":"10","provincia":"Alicante","cod_prov":"03","texto":"San Vicente del Raspeig/Sant Vicent del Raspeig","codigo":"03122"},"geometry":{"type":"MultiPolygon","coordinates":[[[[-0.541761,38.475526],[-0.537777,38.471658],[-0.532129,38.473232],[-0.528657,38.468888],[-0.527607,38.463397],[-0.545897,38.460034],[-0.552252,38.452048],[-0.518643,38.432374],[-0.506056,38.427007],[-0.498863,38.422033],[-0.484805,38.402693],[-0.486195,38.399587],[-0.488635,38.401883],[-0.491281,38.399867],[-0.492854,38.400387],[-0.494826,38.39633],[-0.491492,38.39442],[-0.493606,38.385915],[-0.497494,38.380087],[-0.51528,38.380817],[-0.52011,38.384173],[-0.52769,38.386486],[-0.54127,38.392476],[-0.548897,38.397492],[-0.551948,38.397998],[-0.551838,38.405321],[-0.556586,38.409853],[-0.557407,38.412357],[-0.552306,38.415873],[-0.550466,38.419168],[-0.547735,38.428428],[-0.548709,38.431809],[-0.557664,38.43597],[-0.560307,38.446261],[-0.568956,38.457208],[-0.573624,38.460855],[-0.585209,38.462933],[-0.591787,38.468456],[-0.595059,38.474128],[-0.590124,38.474315],[-0.562129,38.480943],[-0.554433,38.477026],[-0.541761,38.475526]]]]}}
]
}
