{
"type": "FeatureCollection",
"name": "codigo_02015",
"crs": { "type": "name", "properties": { "name": "urn:ogc:def:crs:OGC:1.3:CRS84" } },
"xy_coordinate_resolution": 1e-15,
"features": [
{"type":"Feature","properties":{"fid":53,"cartodb_id":66,"comautonom":"Castilla - La Mancha","cod_ccaa":"08","provincia":"Albacete","cod_prov":"02","texto":"Barrax","codigo":"02015"},"geometry":{"type":"MultiPolygon","coordinates":[[[[-2.198138,39.1024],[-2.180389,39.100132],[-2.169458,39.090467],[-2.159584,39.084521],[-2.150853,39.073167],[-2.146411,39.064745],[-2.129497,39.048103],[-2.120455,39.033627],[-2.092776,39.000822],[-2.15002,38.973003],[-2.182002,38.967438],[-2.208757,38.96454],[-2.218729,38.965572],[-2.256693,38.974452],[-2.266027,38.985001],[-2.273766,39.003909],[-2.281609,39.010563],[-2.28257,39.017183],[-2.289846,39.029969],[-2.292837,39.041756],[-2.290797,39.05271],[-2.292543,39.058461],[-2.300401,39.071376],[-2.276239,39.082916],[-2.240445,39.110802],[-2.213841,39.10466],[-2.198138,39.1024]]]]}}
]
}
