{
"type": "FeatureCollection",
"name": "codigo_02074",
"crs": { "type": "name", "properties": { "name": "urn:ogc:def:crs:OGC:1.3:CRS84" } },
"xy_coordinate_resolution": 1e-15,
"features": [
{"type":"Feature","properties":{"fid":1313,"cartodb_id":125,"comautonom":"Castilla - La Mancha","cod_ccaa":"08","provincia":"Albacete","cod_prov":"02","texto":"Tobarra","codigo":"02074"},"geometry":{"type":"MultiPolygon","coordinates":[[[[-1.540534,38.680107],[-1.539394,38.675091],[-1.526109,38.66485],[-1.534585,38.642078],[-1.535606,38.629727],[-1.540588,38.61065],[-1.544058,38.600916],[-1.553523,38.583659],[-1.551418,38.571252],[-1.54689,38.567573],[-1.551874,38.561147],[-1.553478,38.540675],[-1.580562,38.535708],[-1.604375,38.533038],[-1.634993,38.540464],[-1.655617,38.542595],[-1.667218,38.539493],[-1.711282,38.559794],[-1.713088,38.564031],[-1.715772,38.566061],[-1.724995,38.568333],[-1.726661,38.569532],[-1.728747,38.576232],[-1.802332,38.612162],[-1.811937,38.619605],[-1.820562,38.634381],[-1.82326,38.644356],[-1.83767,38.671292],[-1.84309,38.68807],[-1.844772,38.689294],[-1.827667,38.685547],[-1.805073,38.682182],[-1.79283,38.68211],[-1.774491,38.678198],[-1.748092,38.676449],[-1.733546,38.677311],[-1.731245,38.678728],[-1.722322,38.67563],[-1.70855,38.67373],[-1.690016,38.677705],[-1.667161,38.672175],[-1.655609,38.678306],[-1.622808,38.679852],[-1.602113,38.681588],[-1.575218,38.691671],[-1.565161,38.693792],[-1.553562,38.694217],[-1.544182,38.690117],[-1.540072,38.683587],[-1.54051,38.680129],[-1.540534,38.680107]]]]}}
]
}
