{
"type": "FeatureCollection",
"name": "codigo_03106",
"crs": { "type": "name", "properties": { "name": "urn:ogc:def:crs:OGC:1.3:CRS84" } },
"xy_coordinate_resolution": 1e-15,
"features": [
{"type":"Feature","properties":{"fid":1418,"cartodb_id":243,"comautonom":"Comunitat Valenciana","cod_ccaa":"10","provincia":"Alicante","cod_prov":"03","texto":"Planes","codigo":"03106"},"geometry":{"type":"MultiPolygon","coordinates":[[[[-0.307231,38.822283],[-0.298033,38.820359],[-0.285679,38.805711],[-0.286983,38.793497],[-0.283554,38.782849],[-0.292003,38.772198],[-0.313603,38.768291],[-0.325238,38.766135],[-0.328542,38.761778],[-0.332169,38.760509],[-0.332056,38.7592],[-0.344474,38.770934],[-0.34526,38.773349],[-0.352936,38.77491],[-0.355079,38.77704],[-0.358016,38.777611],[-0.36439,38.776728],[-0.368931,38.778434],[-0.377184,38.778106],[-0.379322,38.778821],[-0.384539,38.789119],[-0.387822,38.806085],[-0.387921,38.810619],[-0.385827,38.810266],[-0.371194,38.808613],[-0.367195,38.805892],[-0.358784,38.808838],[-0.356402,38.812847],[-0.347725,38.810515],[-0.33123,38.809725],[-0.325895,38.812891],[-0.320554,38.814373],[-0.309081,38.822091],[-0.307231,38.822283]]]]}}
]
}
