{
"type": "FeatureCollection",
"name": "codigo_02055",
"crs": { "type": "name", "properties": { "name": "urn:ogc:def:crs:OGC:1.3:CRS84" } },
"xy_coordinate_resolution": 1e-15,
"features": [
{"type":"Feature","properties":{"fid":1295,"cartodb_id":106,"comautonom":"Castilla - La Mancha","cod_ccaa":"08","provincia":"Albacete","cod_prov":"02","texto":"Nerpio","codigo":"02055"},"geometry":{"type":"MultiPolygon","coordinates":[[[[-2.279526,38.274485],[-2.270715,38.274161],[-2.267253,38.270579],[-2.258171,38.272126],[-2.256675,38.26753],[-2.253367,38.267941],[-2.248786,38.264352],[-2.249471,38.263275],[-2.246536,38.263076],[-2.246641,38.260616],[-2.239119,38.265128],[-2.235112,38.261299],[-2.233127,38.261998],[-2.233241,38.263161],[-2.231237,38.262409],[-2.230728,38.260865],[-2.228856,38.260618],[-2.228925,38.25841],[-2.227086,38.259381],[-2.226777,38.258333],[-2.225187,38.258386],[-2.224044,38.260577],[-2.22117,38.261009],[-2.220048,38.252692],[-2.221822,38.243881],[-2.217343,38.237434],[-2.218067,38.234969],[-2.216016,38.232315],[-2.216571,38.228462],[-2.214185,38.220875],[-2.214342,38.215901],[-2.22,38.213416],[-2.222342,38.209132],[-2.220835,38.205815],[-2.213523,38.201809],[-2.215825,38.193731],[-2.222567,38.183754],[-2.221346,38.180421],[-2.222108,38.177479],[-2.231563,38.162201],[-2.237591,38.157734],[-2.245599,38.148233],[-2.251011,38.139119],[-2.249604,38.135001],[-2.250402,38.128345],[-2.261647,38.11296],[-2.272836,38.105071],[-2.293356,38.087333],[-2.312044,38.079008],[-2.325801,38.069661],[-2.329898,38.065403],[-2.329782,38.060653],[-2.337803,38.048441],[-2.344407,38.02993],[-2.341628,38.026003],[-2.352352,38.024467],[-2.357918,38.022443],[-2.373075,38.023282],[-2.397192,38.031952],[-2.422112,38.033366],[-2.424078,38.03407],[-2.431699,38.043165],[-2.436096,38.043411],[-2.458538,38.050826],[-2.46235,38.050186],[-2.47164,38.056384],[-2.4784,38.053088],[-2.480702,38.053116],[-2.481769,38.055257],[-2.491454,38.059112],[-2.504398,38.068324],[-2.52256,38.069941],[-2.531186,38.074085],[-2.539305,38.07574],[-2.546796,38.079347],[-2.54975,38.082891],[-2.551294,38.084096],[-2.548365,38.087482],[-2.548533,38.089835],[-2.545867,38.089519],[-2.539666,38.092613],[-2.536962,38.098271],[-2.526956,38.102521],[-2.524887,38.106749],[-2.520272,38.107767],[-2.519598,38.111315],[-2.51541,38.116823],[-2.516542,38.119819],[-2.51205,38.122892],[-2.512927,38.126492],[-2.510634,38.126401],[-2.508506,38.129006],[-2.498584,38.131713],[-2.485924,38.148764],[-2.481872,38.150477],[-2.480368,38.153327],[-2.476929,38.153862],[-2.474119,38.155778],[-2.472981,38.160081],[-2.468493,38.164982],[-2.468459,38.172804],[-2.453981,38.163933],[-2.447497,38.168508],[-2.439936,38.17196],[-2.435445,38.172479],[-2.433884,38.175031],[-2.429788,38.176138],[-2.420147,38.183905],[-2.409388,38.188529],[-2.376876,38.206223],[-2.372659,38.211753],[-2.371459,38.217091],[-2.363159,38.225716],[-2.364115,38.228776],[-2.361806,38.232774],[-2.359482,38.24492],[-2.342515,38.250909],[-2.324405,38.254078],[-2.32208,38.253389],[-2.311592,38.263863],[-2.299621,38.271246],[-2.279526,38.274485]]]]}}
]
}
