{
"type": "FeatureCollection",
"name": "codigo_02008",
"crs": { "type": "name", "properties": { "name": "urn:ogc:def:crs:OGC:1.3:CRS84" } },
"xy_coordinate_resolution": 1e-15,
"features": [
{"type":"Feature","properties":{"fid":1280,"cartodb_id":59,"comautonom":"Castilla - La Mancha","cod_ccaa":"08","provincia":"Albacete","cod_prov":"02","texto":"Alcaraz","codigo":"02008"},"geometry":{"type":"MultiPolygon","coordinates":[[[[-2.470344,38.515286],[-2.47243,38.512412],[-2.484631,38.509654],[-2.489361,38.507368],[-2.494551,38.508301],[-2.496824,38.506355],[-2.49513,38.502482],[-2.488696,38.499381],[-2.492628,38.491341],[-2.496328,38.495205],[-2.507353,38.49956],[-2.509764,38.502517],[-2.514952,38.506999],[-2.526654,38.50483],[-2.529327,38.506373],[-2.528098,38.506647],[-2.528713,38.509092],[-2.52506,38.511754],[-2.523945,38.515516],[-2.520922,38.514684],[-2.518365,38.516296],[-2.516144,38.515692],[-2.512843,38.516922],[-2.502832,38.516564],[-2.496933,38.520261],[-2.495256,38.518974],[-2.489364,38.518318],[-2.48482,38.521677],[-2.480663,38.52238],[-2.478272,38.52774],[-2.471533,38.531549],[-2.472341,38.526091],[-2.47122,38.519427],[-2.47148,38.515255],[-2.470344,38.515286]]],[[[-2.755554,38.534676],[-2.755606,38.533],[-2.753205,38.533824],[-2.752661,38.531895],[-2.749326,38.530878],[-2.736387,38.533166],[-2.728854,38.528706],[-2.718796,38.524942],[-2.709158,38.525216],[-2.704465,38.519824],[-2.695177,38.51624],[-2.695102,38.512293],[-2.699416,38.506446],[-2.697436,38.500196],[-2.702512,38.501092],[-2.709844,38.505869],[-2.728103,38.511906],[-2.733347,38.514612],[-2.739031,38.52224],[-2.747899,38.525567],[-2.753783,38.525922],[-2.754589,38.528357],[-2.762078,38.532752],[-2.764249,38.535478],[-2.762561,38.535763],[-2.758627,38.535395],[-2.757357,38.534185],[-2.755554,38.534676]]],[[[-2.291881,38.546219],[-2.286567,38.546313],[-2.28249,38.547748],[-2.280808,38.541519],[-2.276705,38.536475],[-2.280652,38.536463],[-2.29789,38.532521],[-2.298958,38.531221],[-2.302691,38.540327],[-2.295781,38.543899],[-2.293951,38.544546],[-2.292718,38.545152],[-2.291881,38.546219]]],[[[-2.295781,38.543899],[-2.296082,38.543793],[-2.29493,38.5442],[-2.295781,38.543899]]],[[[-2.618978,38.81192],[-2.620369,38.80577],[-2.616585,38.80063],[-2.611299,38.798468],[-2.613276,38.79067],[-2.611145,38.784454],[-2.614151,38.782274],[-2.618604,38.78264],[-2.622804,38.781041],[-2.613536,38.768277],[-2.608697,38.76891],[-2.605038,38.770853],[-2.603123,38.769396],[-2.602966,38.766737],[-2.600192,38.764619],[-2.598733,38.759973],[-2.60197,38.755343],[-2.592068,38.752046],[-2.574235,38.749378],[-2.567959,38.749986],[-2.545311,38.757299],[-2.542296,38.757305],[-2.529612,38.766176],[-2.525708,38.754337],[-2.522389,38.735976],[-2.503539,38.734888],[-2.49292,38.736401],[-2.472173,38.736769],[-2.463528,38.734179],[-2.458234,38.726747],[-2.458751,38.72383],[-2.461426,38.723104],[-2.462413,38.715664],[-2.457881,38.708046],[-2.445418,38.705951],[-2.430693,38.699275],[-2.425872,38.695268],[-2.429086,38.681469],[-2.436771,38.672017],[-2.439492,38.671075],[-2.442967,38.672091],[-2.445702,38.675159],[-2.44468,38.676488],[-2.446922,38.679491],[-2.452805,38.681465],[-2.46785,38.680552],[-2.469172,38.675854],[-2.466491,38.669912],[-2.460069,38.663412],[-2.452224,38.659654],[-2.451857,38.658021],[-2.453879,38.656652],[-2.449768,38.650072],[-2.445604,38.649205],[-2.435563,38.642876],[-2.439208,38.635314],[-2.438624,38.633581],[-2.418139,38.61361],[-2.41764,38.608543],[-2.414228,38.603056],[-2.411911,38.594285],[-2.408398,38.589941],[-2.411899,38.581713],[-2.416896,38.578539],[-2.420377,38.57396],[-2.430439,38.570261],[-2.438538,38.562144],[-2.439485,38.561446],[-2.447393,38.562952],[-2.452481,38.565481],[-2.453415,38.568045],[-2.456566,38.570232],[-2.458866,38.580399],[-2.46104,38.581418],[-2.461165,38.583032],[-2.453272,38.586861],[-2.455137,38.592223],[-2.452054,38.597453],[-2.45142,38.602371],[-2.456034,38.607259],[-2.464269,38.624131],[-2.465291,38.634986],[-2.468039,38.637882],[-2.469109,38.647043],[-2.472639,38.64988],[-2.48019,38.651346],[-2.484914,38.654494],[-2.489604,38.654254],[-2.48891,38.653322],[-2.490098,38.652715],[-2.493682,38.651306],[-2.498957,38.651266],[-2.502306,38.648973],[-2.517758,38.649678],[-2.524663,38.653437],[-2.529079,38.661701],[-2.535253,38.661356],[-2.536346,38.662974],[-2.538021,38.661728],[-2.539279,38.662643],[-2.54678,38.661537],[-2.548724,38.663166],[-2.555886,38.664852],[-2.55863,38.665385],[-2.568207,38.663132],[-2.56734,38.662074],[-2.568605,38.660078],[-2.571326,38.658619],[-2.572526,38.659669],[-2.573715,38.658925],[-2.574355,38.655566],[-2.572697,38.654145],[-2.574018,38.65233],[-2.576544,38.652772],[-2.57629,38.651004],[-2.582913,38.648361],[-2.584054,38.645914],[-2.588106,38.642729],[-2.5916,38.644552],[-2.59305,38.644206],[-2.59322,38.642593],[-2.598012,38.642574],[-2.59734,38.641373],[-2.600442,38.641528],[-2.602052,38.64339],[-2.604657,38.641894],[-2.607123,38.642668],[-2.607391,38.640037],[-2.613792,38.639797],[-2.612011,38.637638],[-2.614052,38.636356],[-2.618036,38.639009],[-2.618488,38.636064],[-2.619901,38.636159],[-2.619393,38.634508],[-2.622947,38.629464],[-2.629853,38.626926],[-2.634574,38.622688],[-2.631123,38.618982],[-2.629997,38.614635],[-2.631613,38.615307],[-2.642468,38.615412],[-2.651802,38.613873],[-2.659655,38.61942],[-2.66382,38.618035],[-2.667721,38.619209],[-2.686704,38.617747],[-2.699692,38.602191],[-2.711635,38.602455],[-2.724479,38.595276],[-2.730263,38.587305],[-2.727247,38.574132],[-2.739398,38.569554],[-2.746956,38.568228],[-2.753743,38.560772],[-2.757008,38.559273],[-2.759498,38.559558],[-2.76057,38.568383],[-2.7655,38.573854],[-2.760124,38.578187],[-2.756909,38.585057],[-2.754357,38.592666],[-2.754614,38.601337],[-2.750097,38.615566],[-2.757283,38.620258],[-2.763691,38.627886],[-2.762069,38.628496],[-2.744897,38.624314],[-2.737339,38.617593],[-2.729048,38.617141],[-2.728247,38.616076],[-2.717587,38.62217],[-2.717586,38.625126],[-2.706276,38.626495],[-2.702251,38.62479],[-2.699825,38.625361],[-2.697641,38.628374],[-2.686856,38.635429],[-2.682182,38.642626],[-2.682486,38.644123],[-2.674929,38.648175],[-2.668857,38.649222],[-2.660464,38.666861],[-2.655557,38.671434],[-2.650266,38.66739],[-2.640595,38.6659],[-2.632721,38.661415],[-2.628081,38.660688],[-2.625185,38.658399],[-2.6177,38.658861],[-2.608676,38.663437],[-2.60397,38.666413],[-2.602576,38.669048],[-2.604275,38.673578],[-2.594687,38.677754],[-2.588346,38.676857],[-2.588173,38.679056],[-2.577543,38.695825],[-2.576477,38.712808],[-2.577363,38.714587],[-2.580977,38.716159],[-2.583382,38.716032],[-2.586154,38.718025],[-2.59616,38.720376],[-2.600834,38.725781],[-2.596345,38.734389],[-2.588371,38.744626],[-2.614432,38.747184],[-2.647499,38.755282],[-2.664182,38.761234],[-2.666058,38.758842],[-2.674574,38.761615],[-2.681185,38.768346],[-2.685529,38.775225],[-2.696283,38.782931],[-2.710229,38.78494],[-2.711619,38.785953],[-2.722116,38.783807],[-2.717284,38.794411],[-2.702198,38.811189],[-2.696501,38.815572],[-2.673651,38.827487],[-2.668598,38.82658],[-2.66663,38.828611],[-2.663697,38.827693],[-2.659075,38.830473],[-2.657114,38.828575],[-2.654598,38.829594],[-2.651385,38.829224],[-2.645892,38.8311],[-2.643392,38.833328],[-2.64124,38.830599],[-2.636277,38.832341],[-2.633493,38.829386],[-2.629966,38.829645],[-2.62707,38.82823],[-2.617681,38.832543],[-2.616166,38.837765],[-2.613766,38.838505],[-2.608209,38.836946],[-2.605021,38.834204],[-2.605321,38.830078],[-2.604239,38.825677],[-2.60914,38.814285],[-2.618978,38.81192]]],[[[-2.211102,38.85816],[-2.214603,38.855264],[-2.224616,38.853322],[-2.229981,38.843129],[-2.244087,38.831065],[-2.260641,38.825602],[-2.270812,38.826891],[-2.273365,38.8216],[-2.274763,38.821194],[-2.277364,38.822607],[-2.280125,38.821795],[-2.278251,38.815772],[-2.286959,38.816934],[-2.287545,38.812477],[-2.293204,38.814395],[-2.293634,38.811685],[-2.297533,38.811105],[-2.29865,38.808778],[-2.303536,38.806076],[-2.30714,38.79669],[-2.305449,38.794121],[-2.309022,38.795043],[-2.309693,38.793425],[-2.307672,38.792935],[-2.308615,38.791823],[-2.307493,38.787572],[-2.303231,38.784249],[-2.294433,38.779735],[-2.287559,38.778693],[-2.292111,38.773603],[-2.294978,38.772322],[-2.301066,38.778351],[-2.309147,38.780887],[-2.317535,38.787442],[-2.327864,38.790944],[-2.329734,38.790442],[-2.336129,38.791244],[-2.336757,38.798015],[-2.329992,38.801095],[-2.329664,38.802832],[-2.331126,38.805354],[-2.3419,38.812201],[-2.35724,38.812503],[-2.366631,38.809409],[-2.371752,38.816466],[-2.377425,38.830356],[-2.376399,38.83436],[-2.371355,38.843282],[-2.35855,38.853882],[-2.341642,38.855274],[-2.314165,38.861424],[-2.297902,38.852055],[-2.291716,38.841285],[-2.287855,38.842532],[-2.281697,38.847622],[-2.271478,38.84964],[-2.260263,38.85768],[-2.252874,38.858868],[-2.244044,38.866633],[-2.238834,38.86768],[-2.233557,38.866429],[-2.205239,38.873368],[-2.20251,38.873151],[-2.200434,38.872127],[-2.202457,38.866527],[-2.204212,38.862106],[-2.206798,38.859636],[-2.211102,38.85816]]],[[[-2.621093,38.853894],[-2.629466,38.863824],[-2.632464,38.865771],[-2.637109,38.872661],[-2.642081,38.876425],[-2.637138,38.889639],[-2.622426,38.898162],[-2.606396,38.887097],[-2.592682,38.881823],[-2.58637,38.880792],[-2.579677,38.87409],[-2.569336,38.87152],[-2.585286,38.867622],[-2.594997,38.856636],[-2.597496,38.850805],[-2.603048,38.845129],[-2.605361,38.839477],[-2.605372,38.83535],[-2.60542,38.834936],[-2.617232,38.845329],[-2.621093,38.853894]]]]}}
]
}
