{
"type": "FeatureCollection",
"name": "codigo_03045",
"crs": { "type": "name", "properties": { "name": "urn:ogc:def:crs:OGC:1.3:CRS84" } },
"xy_coordinate_resolution": 1e-15,
"features": [
{"type":"Feature","properties":{"fid":1360,"cartodb_id":183,"comautonom":"Comunitat Valenciana","cod_ccaa":"10","provincia":"Alicante","cod_prov":"03","texto":"Bolulla","codigo":"03045"},"geometry":{"type":"MultiPolygon","coordinates":[[[[-0.137287,38.707785],[-0.130018,38.707282],[-0.122494,38.699935],[-0.092919,38.678787],[-0.089804,38.675655],[-0.095544,38.666717],[-0.097334,38.666518],[-0.100497,38.663605],[-0.106898,38.662449],[-0.109545,38.660343],[-0.116645,38.667816],[-0.125219,38.673226],[-0.134481,38.679598],[-0.145828,38.683272],[-0.145965,38.691411],[-0.148966,38.700638],[-0.149526,38.704201],[-0.145927,38.704203],[-0.144332,38.706714],[-0.140611,38.708335],[-0.137287,38.707785]]]]}}
]
}
