{
"type": "FeatureCollection",
"name": "codigo_03114",
"crs": { "type": "name", "properties": { "name": "urn:ogc:def:crs:OGC:1.3:CRS84" } },
"xy_coordinate_resolution": 1e-15,
"features": [
{"type":"Feature","properties":{"fid":1431,"cartodb_id":250,"comautonom":"Comunitat Valenciana","cod_ccaa":"10","provincia":"Alicante","cod_prov":"03","texto":"Romana (la)","codigo":"03114"},"geometry":{"type":"MultiPolygon","coordinates":[[[[-0.84534,38.370269],[-0.842178,38.370373],[-0.839397,38.367682],[-0.839093,38.363667],[-0.840489,38.361358],[-0.832351,38.357189],[-0.851192,38.352779],[-0.855845,38.350611],[-0.873836,38.347776],[-0.897006,38.340652],[-0.925578,38.329339],[-0.93718,38.330436],[-0.942616,38.328747],[-0.958552,38.328323],[-0.971465,38.329611],[-0.975547,38.336665],[-0.970832,38.345333],[-0.971505,38.356446],[-0.97054,38.359457],[-0.96745,38.362314],[-0.957383,38.362968],[-0.945734,38.362116],[-0.925405,38.365452],[-0.901709,38.3755],[-0.881803,38.381369],[-0.86578,38.388665],[-0.860695,38.385202],[-0.851758,38.375415],[-0.849467,38.375103],[-0.850582,38.373015],[-0.84534,38.370269]]]]}}
]
}
