{
"type": "FeatureCollection",
"name": "codigo_02051",
"crs": { "type": "name", "properties": { "name": "urn:ogc:def:crs:OGC:1.3:CRS84" } },
"xy_coordinate_resolution": 1e-15,
"features": [
{"type":"Feature","properties":{"fid":1247,"cartodb_id":102,"comautonom":"Castilla - La Mancha","cod_ccaa":"08","provincia":"Albacete","cod_prov":"02","texto":"Montealegre del Castillo","codigo":"02051"},"geometry":{"type":"MultiPolygon","coordinates":[[[[-1.285082,38.832074],[-1.277821,38.828408],[-1.263321,38.816425],[-1.254251,38.810992],[-1.222459,38.784373],[-1.183634,38.755085],[-1.197315,38.749188],[-1.208873,38.747131],[-1.227572,38.745695],[-1.242599,38.740561],[-1.246139,38.738334],[-1.249757,38.738614],[-1.263812,38.729272],[-1.271528,38.718871],[-1.283819,38.707077],[-1.306568,38.696758],[-1.312546,38.695313],[-1.320139,38.689268],[-1.328159,38.685021],[-1.329248,38.682181],[-1.344323,38.677052],[-1.366666,38.704002],[-1.368729,38.711402],[-1.369415,38.726739],[-1.374083,38.740554],[-1.38932,38.75675],[-1.394731,38.765403],[-1.39252,38.783872],[-1.389996,38.788613],[-1.365216,38.815299],[-1.358821,38.821199],[-1.339273,38.828109],[-1.332237,38.831937],[-1.316306,38.83188],[-1.310078,38.833168],[-1.298352,38.837918],[-1.28765,38.834058],[-1.285082,38.832074]]]]}}
]
}
