{
"type": "FeatureCollection",
"name": "codigo_03116",
"crs": { "type": "name", "properties": { "name": "urn:ogc:def:crs:OGC:1.3:CRS84" } },
"xy_coordinate_resolution": 1e-15,
"features": [
{"type":"Feature","properties":{"fid":1355,"cartodb_id":252,"comautonom":"Comunitat Valenciana","cod_ccaa":"10","provincia":"Alicante","cod_prov":"03","texto":"Salinas","codigo":"03116"},"geometry":{"type":"MultiPolygon","coordinates":[[[[-0.896974,38.551649],[-0.888585,38.544992],[-0.872489,38.537176],[-0.866204,38.538684],[-0.867479,38.529282],[-0.862924,38.521188],[-0.85578,38.513029],[-0.849413,38.509615],[-0.874287,38.475306],[-0.897123,38.471636],[-0.905916,38.472397],[-0.914981,38.47483],[-0.93226,38.481858],[-0.948177,38.478859],[-0.952401,38.483934],[-0.958393,38.48648],[-0.985693,38.505714],[-0.979886,38.51038],[-0.96796,38.515652],[-0.959554,38.517254],[-0.950342,38.522581],[-0.947774,38.52578],[-0.92424,38.537196],[-0.906038,38.548928],[-0.896974,38.551649]]]]}}
]
}
