{
"type": "FeatureCollection",
"name": "codigo_02081",
"crs": { "type": "name", "properties": { "name": "urn:ogc:def:crs:OGC:1.3:CRS84" } },
"xy_coordinate_resolution": 1e-15,
"features": [
{"type":"Feature","properties":{"fid":1317,"cartodb_id":132,"comautonom":"Castilla - La Mancha","cod_ccaa":"08","provincia":"Albacete","cod_prov":"02","texto":"Villarrobledo","codigo":"02081"},"geometry":{"type":"MultiPolygon","coordinates":[[[[-2.494301,39.327637],[-2.483219,39.31519],[-2.466459,39.305788],[-2.452531,39.290577],[-2.441177,39.28353],[-2.431663,39.27706],[-2.418464,39.26374],[-2.396874,39.249636],[-2.385462,39.243873],[-2.374077,39.232783],[-2.371288,39.228488],[-2.344235,39.201117],[-2.339896,39.19829],[-2.345886,39.182979],[-2.345901,39.176374],[-2.354539,39.16359],[-2.381758,39.154998],[-2.402345,39.16207],[-2.407693,39.167585],[-2.426343,39.164534],[-2.438652,39.16107],[-2.461779,39.157918],[-2.472555,39.151749],[-2.476553,39.147875],[-2.489413,39.139534],[-2.497974,39.136399],[-2.516934,39.125269],[-2.527492,39.122483],[-2.548628,39.113277],[-2.555885,39.108808],[-2.558006,39.093371],[-2.555922,39.088182],[-2.57951,39.103868],[-2.590783,39.106386],[-2.587994,39.098662],[-2.589823,39.094344],[-2.586422,39.086762],[-2.588562,39.084553],[-2.588925,39.077742],[-2.587004,39.078033],[-2.585782,39.075568],[-2.580898,39.072451],[-2.581897,39.069742],[-2.580961,39.065693],[-2.570938,39.048878],[-2.573558,39.04166],[-2.595674,39.043866],[-2.614523,39.047687],[-2.628282,39.050778],[-2.646534,39.05698],[-2.655885,39.056621],[-2.670435,39.061898],[-2.672662,39.065347],[-2.677673,39.066496],[-2.685542,39.06449],[-2.705671,39.063434],[-2.725485,39.056877],[-2.742204,39.05496],[-2.764735,39.049808],[-2.806912,39.043371],[-2.809414,39.053801],[-2.805986,39.069213],[-2.807713,39.071712],[-2.805011,39.078944],[-2.815469,39.094019],[-2.822469,39.092642],[-2.831169,39.105306],[-2.834195,39.112294],[-2.833596,39.120854],[-2.842658,39.134491],[-2.824903,39.151001],[-2.806926,39.177844],[-2.793458,39.186886],[-2.781106,39.19719],[-2.773215,39.20934],[-2.76955,39.217965],[-2.759835,39.230389],[-2.732371,39.253019],[-2.722456,39.266332],[-2.724072,39.279816],[-2.726795,39.286364],[-2.735955,39.295639],[-2.739648,39.309876],[-2.743697,39.315994],[-2.742251,39.318153],[-2.731974,39.320878],[-2.718252,39.320359],[-2.704139,39.321892],[-2.69942,39.321141],[-2.691755,39.317877],[-2.683835,39.322163],[-2.677786,39.320704],[-2.665142,39.322957],[-2.662339,39.321949],[-2.653641,39.326104],[-2.648124,39.325142],[-2.643557,39.326623],[-2.634971,39.326759],[-2.628782,39.334191],[-2.619258,39.340143],[-2.593675,39.339417],[-2.585138,39.336846],[-2.567979,39.327043],[-2.548777,39.323455],[-2.532522,39.328888],[-2.529444,39.327578],[-2.511046,39.342153],[-2.494301,39.327637]]]]}}
]
}
