{
"type": "FeatureCollection",
"name": "codigo_03100",
"crs": { "type": "name", "properties": { "name": "urn:ogc:def:crs:OGC:1.3:CRS84" } },
"xy_coordinate_resolution": 1e-15,
"features": [
{"type":"Feature","properties":{"fid":592,"cartodb_id":237,"comautonom":"Comunitat Valenciana","cod_ccaa":"10","provincia":"Alicante","cod_prov":"03","texto":"Parcent","codigo":"03100"},"geometry":{"type":"MultiPolygon","coordinates":[[[[-0.057474,38.725252],[-0.065131,38.723057],[-0.087099,38.723022],[-0.095237,38.726522],[-0.097632,38.730437],[-0.098254,38.734678],[-0.096613,38.739124],[-0.090272,38.745984],[-0.086259,38.748182],[-0.084227,38.752032],[-0.080829,38.751848],[-0.079379,38.753839],[-0.081259,38.756264],[-0.079393,38.757713],[-0.075723,38.756288],[-0.063277,38.755363],[-0.062796,38.756729],[-0.053072,38.759277],[-0.055041,38.75448],[-0.053976,38.752957],[-0.0521,38.753532],[-0.051463,38.752524],[-0.05789,38.733596],[-0.055022,38.727271],[-0.057474,38.725252]]]]}}
]
}
