{
"type": "FeatureCollection",
"name": "codigo_02043",
"crs": { "type": "name", "properties": { "name": "urn:ogc:def:crs:OGC:1.3:CRS84" } },
"xy_coordinate_resolution": 1e-15,
"features": [
{"type":"Feature","properties":{"fid":1292,"cartodb_id":94,"comautonom":"Castilla - La Mancha","cod_ccaa":"08","provincia":"Albacete","cod_prov":"02","texto":"Lezuza","codigo":"02043"},"geometry":{"type":"MultiPolygon","coordinates":[[[[-2.290797,39.05271],[-2.292837,39.041756],[-2.289846,39.029969],[-2.28257,39.017183],[-2.281609,39.010563],[-2.273766,39.003909],[-2.266027,38.985001],[-2.256693,38.974452],[-2.218729,38.965572],[-2.208757,38.96454],[-2.182002,38.967438],[-2.15002,38.973003],[-2.155078,38.935878],[-2.16421,38.91483],[-2.16766,38.9088],[-2.187563,38.895964],[-2.20251,38.873151],[-2.205239,38.873368],[-2.233557,38.866429],[-2.238834,38.86768],[-2.244044,38.866633],[-2.252874,38.858868],[-2.260263,38.85768],[-2.271478,38.84964],[-2.281697,38.847622],[-2.287855,38.842532],[-2.291716,38.841285],[-2.297902,38.852055],[-2.314165,38.861424],[-2.341642,38.855274],[-2.35855,38.853882],[-2.357711,38.856157],[-2.361607,38.863847],[-2.35985,38.874669],[-2.361558,38.880815],[-2.360789,38.885569],[-2.367354,38.898067],[-2.368476,38.904255],[-2.374644,38.904441],[-2.381875,38.907093],[-2.391473,38.908171],[-2.400562,38.914922],[-2.407388,38.922157],[-2.417487,38.93978],[-2.415824,38.96248],[-2.41786,38.967536],[-2.436927,38.980931],[-2.447763,38.994968],[-2.453396,39.005709],[-2.433747,39.014833],[-2.427096,39.0231],[-2.412069,39.036786],[-2.402913,39.040127],[-2.38906,39.050671],[-2.384898,39.052226],[-2.377612,39.052818],[-2.365242,39.057131],[-2.350407,39.061627],[-2.33547,39.064471],[-2.326883,39.067927],[-2.300401,39.071376],[-2.292543,39.058461],[-2.290797,39.05271]]]]}}
]
}
